{
"type": "FeatureCollection",
"name": "departments",
"crs": { "type": "name", "properties": { "name": "urn:ogc:def:crs:OGC:1.3:CRS84" } },
"features": [
{ "type": "Feature", "properties": { "department_id": "UY11", "department": "Paysandú" }, "geometry": { "type": "Polygon", "coordinates": [ [ [ -58.038978008005664, -31.508637452243992 ], [ -57.955035763559749, -31.501022591960432 ], [ -57.948266157737848, -31.481075517576119 ], [ -57.90661496525783, -31.470585263670806 ], [ -57.862069872015645, -31.480610448553875 ], [ -57.787242402302574, -31.51910941205713 ], [ -57.749699466921307, -31.580759360142164 ], [ -57.595367817595502, -31.610576735420377 ], [ -57.479612589320084, -31.667679099320274 ], [ -57.374451052086329, -31.686644358003516 ], [ -57.326908734439563, -31.736305412628706 ], [ -57.165549069930385, -31.797076870866452 ], [ -57.059250649191164, -31.809169159899106 ], [ -57.003879356663269, -31.791185784736157 ], [ -56.939257991381837, -31.809789370144316 ], [ -56.829316372560257, -31.793356216055251 ], [ -56.702037319759278, -31.818936049723899 ], [ -56.638811199605762, -31.849838527254619 ], [ -56.492050148787044, -31.871077626705844 ], [ -56.452078406280457, -31.856763142549156 ], [ -56.389343236753504, -31.772737364710686 ], [ -56.321595418449597, -31.751291567483268 ], [ -56.284052506602684, -31.79366632062121 ], [ -56.27748960227143, -31.863274487739965 ], [ -56.24557939933409, -31.914227420809084 ], [ -56.287850723613339, -31.9404790621582 ], [ -56.294646153727925, -32.042694941366868 ], [ -56.358750777224301, -32.231882406329618 ], [ -56.489182085768441, -32.334615121379308 ], [ -56.559358676130017, -32.492486601059468 ], [ -56.670463022188088, -32.425772409023295 ], [ -56.742551633810876, -32.409545954561992 ], [ -56.903058633806182, -32.410166073805144 ], [ -57.039665276917034, -32.363398877827414 ], [ -57.089326356917205, -32.388513760833128 ], [ -57.175083391317777, -32.392957906478422 ], [ -57.268385194062638, -32.442877363496912 ], [ -57.335926264304099, -32.433110391148176 ], [ -57.401477818965638, -32.450577023448098 ], [ -57.470259163288311, -32.44509938552941 ], [ -57.543071263435017, -32.485252006698474 ], [ -57.583508048897961, -32.53615318541997 ], [ -57.757270089513241, -32.558270873157028 ], [ -57.772824641117197, -32.596614529955502 ], [ -57.799593095335652, -32.613513013626751 ], [ -57.921161873246348, -32.600387064995459 ], [ -57.995601783349528, -32.582093650146255 ], [ -58.014541202490648, -32.546850356267235 ], [ -58.091409882596835, -32.490057896757989 ], [ -58.191458498383042, -32.491891402428728 ], [ -58.200123634061214, -32.447201108436523 ], [ -58.101590934113808, -32.311359922662739 ], [ -58.096526638705392, -32.280974154786364 ], [ -58.186547007372262, -32.152920073736098 ], [ -58.158796744112557, -32.101553606253766 ], [ -58.145309217689984, -32.017889572140128 ], [ -58.158796767005832, -31.943888922905753 ], [ -58.202618365431725, -31.893142585525112 ], [ -58.15285395329439, -31.835988412801868 ], [ -58.04888098038461, -31.797127779094041 ], [ -57.979582873545525, -31.598793578332678 ], [ -57.986817574474664, -31.554145145805251 ], [ -58.038978008005664, -31.508637452243992 ] ] ] } },
{ "type": "Feature", "properties": { "department_id": "UY01", "department": "Artigas" }, "geometry": { "type": "Polygon", "coordinates": [ [ [ -57.799397108431315, -30.791460739351272 ], [ -57.826207237847981, -30.689701857869171 ], [ -57.885790161185966, -30.58986297697604 ], [ -57.889769245574648, -30.550795585506197 ], [ -57.849616656046209, -30.485269862399548 ], [ -57.652729451515619, -30.329103696409558 ], [ -57.623738972026771, -30.258100275769554 ], [ -57.642465845279126, -30.193092096996654 ], [ -57.602792547912578, -30.190516950362447 ], [ -57.56746333730603, -30.25634327288563 ], [ -57.535992389997631, -30.274430028609711 ], [ -57.443129843363963, -30.26946909796153 ], [ -57.399256552594444, -30.299131376582608 ], [ -57.353832969489282, -30.271949573035723 ], [ -57.296472127999479, -30.293343612391922 ], [ -57.270375529052757, -30.275153503285495 ], [ -57.245054077998624, -30.293343612391922 ], [ -57.18371415186953, -30.267505384880888 ], [ -57.150847942650884, -30.182342634544199 ], [ -57.102272095407706, -30.121157738230512 ], [ -57.077105672314971, -30.106068213248363 ], [ -57.037883260535615, -30.114646502456711 ], [ -56.954529174398871, -30.096869808698976 ], [ -56.831280885248809, -30.102037456369164 ], [ -56.766995400445822, -30.161361991470894 ], [ -56.656821249117513, -30.221306661644483 ], [ -56.632585001790609, -30.24745493385463 ], [ -56.631344767228349, -30.284661968247057 ], [ -56.575017454643636, -30.302438652594702 ], [ -56.523754439193823, -30.357319047396555 ], [ -56.424639040755579, -30.423568226541725 ], [ -56.385985065238565, -30.475761404450498 ], [ -56.215091107702364, -30.58190482060461 ], [ -56.07685664627202, -30.752333664366919 ], [ -56.011356771485282, -30.798222353599858 ], [ -55.988955038324065, -30.855789898731224 ], [ -56.015516719760065, -30.934338051466554 ], [ -56.017017873192756, -31.074296294052552 ], [ -56.176694712779458, -30.939661576111799 ], [ -56.415517346212752, -30.88705497283307 ], [ -56.45063148037012, -30.893669553840205 ], [ -56.480552131389977, -30.938524671551349 ], [ -56.548971730085889, -30.981777861739751 ], [ -56.610492525590331, -30.994696983951101 ], [ -56.698626676093042, -31.049939066361553 ], [ -56.782781739237912, -31.062186343343239 ], [ -56.934477918178835, -31.042704390456809 ], [ -57.00028784680898, -31.049784020431133 ], [ -57.061343546423863, -31.078722799170862 ], [ -57.15565304645029, -31.051489375498818 ], [ -57.23611324475219, -30.989425946255956 ], [ -57.479225018173359, -30.875376045342318 ], [ -57.572087566983832, -30.863335439376858 ], [ -57.714998749319463, -30.757967238677065 ], [ -57.763264529719095, -30.752592851914766 ], [ -57.799397108431315, -30.791460739351272 ] ] ] } },
{ "type": "Feature", "properties": { "department_id": "UY15", "department": "Salto" }, "geometry": { "type": "Polygon", "coordinates": [ [ [ -56.321595418449597, -31.751291567483268 ], [ -56.389343236753504, -31.772737364710686 ], [ -56.452078406280457, -31.856763142549156 ], [ -56.492050148787044, -31.871077626705844 ], [ -56.638811199605762, -31.849838527254619 ], [ -56.702037319759278, -31.818936049723899 ], [ -56.829316372560257, -31.793356216055251 ], [ -56.939257991381837, -31.809789370144316 ], [ -57.003879356663269, -31.791185784736157 ], [ -57.059250649191164, -31.809169159899106 ], [ -57.165549069930385, -31.797076870866452 ], [ -57.326908734439563, -31.736305412628706 ], [ -57.374451052086329, -31.686644358003516 ], [ -57.479612589320084, -31.667679099320274 ], [ -57.595367817595502, -31.610576735420377 ], [ -57.749699466921307, -31.580759360142164 ], [ -57.787242402302574, -31.51910941205713 ], [ -57.862069872015645, -31.480610448553875 ], [ -57.90661496525783, -31.470585263670806 ], [ -57.948266157737848, -31.481075517576119 ], [ -57.955035763559749, -31.501022591960432 ], [ -58.038978008005664, -31.508637452243992 ], [ -58.075235947748062, -31.475183543084405 ], [ -58.062575223572757, -31.444281046047699 ], [ -57.990228244465207, -31.399322679373803 ], [ -57.96635373008499, -31.314573317742887 ], [ -57.905117141035937, -31.240985992856494 ], [ -57.911731737278402, -31.170602753852126 ], [ -57.855249396330365, -31.058981660347111 ], [ -57.863310913565442, -31.012266131774105 ], [ -57.911731738060972, -30.947360571271464 ], [ -57.903980265747073, -30.929687193699539 ], [ -57.807241979469381, -30.907569653475306 ], [ -57.799397108431315, -30.791460739351272 ], [ -57.753265136563279, -30.752231100579738 ], [ -57.701278651102861, -30.764943525477555 ], [ -57.572087566983832, -30.863335439376858 ], [ -57.479225018173359, -30.875376045342318 ], [ -57.23611324475219, -30.989425946255956 ], [ -57.15565304645029, -31.051489375498818 ], [ -57.071368787822671, -31.077947719659502 ], [ -56.934477918178835, -31.042704390456809 ], [ -56.782781739237912, -31.062186343343239 ], [ -56.698626676093042, -31.049939066361553 ], [ -56.610492525590331, -30.994696983951101 ], [ -56.548971730085889, -30.981777861739751 ], [ -56.433629924408578, -30.88860521021644 ], [ -56.176694712779458, -30.939661576111799 ], [ -56.009874022123959, -31.081945502165851 ], [ -56.055720184040922, -31.195873318938808 ], [ -56.182766686572691, -31.250030187924914 ], [ -56.185944782878849, -31.27478318088211 ], [ -56.158013666906207, -31.304652132297168 ], [ -56.183412640163517, -31.388419665905879 ], [ -56.257439134063908, -31.442731620408068 ], [ -56.321492061726516, -31.519316043189736 ], [ -56.353944876278206, -31.599672967327738 ], [ -56.332809209774005, -31.63501962307172 ], [ -56.321595418449597, -31.751291567483268 ] ] ] } },
{ "type": "Feature", "properties": { "department_id": "UY13", "department": "Rivera" }, "geometry": { "type": "Polygon", "coordinates": [ [ [ -56.158013666906207, -31.304652132297168 ], [ -56.185944782878849, -31.27478318088211 ], [ -56.182766686572691, -31.250030187924914 ], [ -56.055720184040922, -31.195873318938808 ], [ -56.009874022123959, -31.081945502165851 ], [ -55.85459631486161, -31.07458791555668 ], [ -55.763594119511886, -31.008442090354826 ], [ -55.731890629604258, -30.945396854579393 ], [ -55.652748174781145, -30.938988983917213 ], [ -55.649673424930349, -30.860957561113768 ], [ -55.591873333023756, -30.848348496509519 ], [ -55.368579466587526, -31.037380871449642 ], [ -55.338038694090457, -31.125644210514427 ], [ -55.293700321938772, -31.153652878266929 ], [ -55.244349318814713, -31.244603340239429 ], [ -55.087252976078041, -31.326768926852797 ], [ -55.029375368419636, -31.268787950539224 ], [ -54.969637423139957, -31.340824954283942 ], [ -54.863364818259562, -31.417616017537011 ], [ -54.819775742927206, -31.435289333658176 ], [ -54.604543413595877, -31.459784019970208 ], [ -54.56237545475495, -31.515904677698583 ], [ -54.495041065030946, -31.565617412382188 ], [ -54.467220693751599, -31.664237358664767 ], [ -54.520258359262243, -31.732119703253939 ], [ -54.504109464192204, -31.842448833309259 ], [ -54.588522917079132, -31.985385850360849 ], [ -54.543590261871294, -32.00274914263322 ], [ -54.540102091954139, -32.019492250818764 ], [ -54.581701613634237, -32.061091746471838 ], [ -54.574983679908506, -32.094784790521089 ], [ -54.654513713595286, -32.122845117252943 ], [ -54.882871873290725, -31.87815723865813 ], [ -54.953177671638116, -31.851388910139864 ], [ -55.376562664505961, -31.795216543267973 ], [ -55.617478198454634, -31.801831159955661 ], [ -55.649285026365995, -31.757596049239154 ], [ -55.660963926442655, -31.699408519480443 ], [ -55.646804582200978, -31.641272525947421 ], [ -55.665563108045248, -31.583808234864257 ], [ -55.791033506577698, -31.510686192565274 ], [ -55.834803430600516, -31.382683595415159 ], [ -55.976913630884887, -31.317674702596232 ], [ -56.064143441735482, -31.259383652287969 ], [ -56.121400924318692, -31.263052658748212 ], [ -56.158013666906207, -31.304652132297168 ] ] ] } },
{ "type": "Feature", "properties": { "department_id": "UY14", "department": "Rocha" }, "geometry": { "type": "Polygon", "coordinates": [ [ [ -53.520661758640998, -33.124978983671966 ], [ -53.536856644596369, -33.170842365138661 ], [ -53.536133184596643, -33.244636359692471 ], [ -53.51401565975948, -33.394911366316251 ], [ -53.539647200174571, -33.649262914487309 ], [ -53.511535214376991, -33.690293968345578 ], [ -53.456706498343316, -33.687503334371705 ], [ -53.411282944815696, -33.742280500260179 ], [ -53.379094546176859, -33.740675859368174 ], [ -53.473052557153899, -33.834568059463123 ], [ -53.529937313990338, -34.048109680743813 ], [ -53.711008273104653, -34.198825807894522 ], [ -53.779896613138419, -34.336032805950254 ], [ -53.764881996771443, -34.390394939059 ], [ -53.972238708205211, -34.487237108604909 ], [ -54.124623184544198, -34.610446912470394 ], [ -54.14590407456383, -34.667575657200899 ], [ -54.259673652862496, -34.685967801849145 ], [ -54.232329886705237, -34.658135696652245 ], [ -54.252837693027878, -34.630791920523677 ], [ -54.238596149488721, -34.589776260732528 ], [ -54.328602658729132, -34.561781465251521 ], [ -54.280140722727836, -34.582289176790347 ], [ -54.344634595023116, -34.630629284632448 ], [ -54.337391705685135, -34.654717589719247 ], [ -54.322580548930567, -34.644708014224406 ], [ -54.289214634730996, -34.660251499009775 ], [ -54.288075312391165, -34.695000851122394 ], [ -54.530791804202373, -34.80689873332021 ], [ -54.536226349876706, -34.782217630649328 ], [ -54.517209428532567, -34.749093064518497 ], [ -54.532738188831033, -34.633234466819168 ], [ -54.498011655727765, -34.554583076890893 ], [ -54.536743153266535, -34.421412961751095 ], [ -54.526769558393937, -34.396763104567448 ], [ -54.492585648045818, -34.390768864572479 ], [ -54.492094661031565, -34.201219429452053 ], [ -54.460882113300961, -34.095024446116746 ], [ -54.482147001795944, -33.926042684507529 ], [ -54.423261656261943, -33.858294635943722 ], [ -54.415536089685652, -33.800572347798699 ], [ -54.375125115411102, -33.738147199855483 ], [ -54.378561562813069, -33.651950740884587 ], [ -54.347814108139076, -33.616552488312621 ], [ -54.229888455716186, -33.54895955694839 ], [ -54.208442767891448, -33.48715469437483 ], [ -54.14322709023606, -33.476715958031257 ], [ -54.008997575188282, -33.410260154691514 ], [ -53.963418941529227, -33.346077922186531 ], [ -53.895361121008186, -33.316054115431498 ], [ -53.845932561206943, -33.262672105143309 ], [ -53.808312157466546, -33.247221042954536 ], [ -53.768547124899953, -33.189343349554811 ], [ -53.520661758640998, -33.124978983671966 ] ] ] } },
{ "type": "Feature", "properties": { "department_id": "UY19", "department": "Treinta y Tres" }, "geometry": { "type": "Polygon", "coordinates": [ [ [ -53.520661758640998, -33.124978983671966 ], [ -53.768547124899953, -33.189343349554811 ], [ -53.808312157466546, -33.247221042954536 ], [ -53.845932561206943, -33.262672105143309 ], [ -53.895361121008186, -33.316054115431498 ], [ -53.963418941529227, -33.346077922186531 ], [ -54.008997575188282, -33.410260154691514 ], [ -54.125708818133553, -33.465347329465828 ], [ -54.234255154840106, -33.418528434576402 ], [ -54.296990321545842, -33.348816825078288 ], [ -54.354635356731976, -33.357188281649556 ], [ -54.413520661971624, -33.390933043669406 ], [ -54.438867996348286, -33.432377760393926 ], [ -54.492611480154821, -33.449172571466683 ], [ -54.714665107426647, -33.396049189854033 ], [ -54.818224680056645, -33.33817159297471 ], [ -54.92390298510216, -33.367265428877452 ], [ -55.00423395051601, -33.342615539222507 ], [ -55.124640047127365, -33.38183799589266 ], [ -55.148385362475587, -33.343752440634745 ], [ -55.092600651745855, -33.262207021846002 ], [ -55.111074978200193, -33.118236483307548 ], [ -55.09453852508689, -33.088160831267508 ], [ -55.009970033683068, -33.024960500976064 ], [ -55.028005163445499, -32.970235428383333 ], [ -55.012372998124263, -32.943570173390668 ], [ -54.819645757287105, -32.838150312458616 ], [ -54.675106765383802, -32.812932162899116 ], [ -54.596713626121947, -32.821045402395207 ], [ -54.563847415555735, -32.790194577506419 ], [ -54.513850449796799, -32.784820138815306 ], [ -54.48868403883678, -32.751695605811889 ], [ -54.411324422252747, -32.749731916159668 ], [ -54.326109973905204, -32.715522058197998 ], [ -54.124158465047728, -32.758000026549418 ], [ -54.04535191129181, -32.798927793661136 ], [ -54.023311914421853, -32.788850892026154 ], [ -54.029435597398603, -32.747561555100731 ], [ -53.947941838913088, -32.705083398460395 ], [ -53.844020540846522, -32.765131451077593 ], [ -53.499958847691872, -32.750196929315443 ], [ -53.393066169197638, -32.788075862386378 ], [ -53.328806533237142, -32.775983617900572 ], [ -53.18283630973643, -32.799904093492202 ], [ -53.29883503126306, -32.889102625830851 ], [ -53.327308718632402, -32.973645130210095 ], [ -53.483319879054946, -33.067282886177004 ], [ -53.520661758640998, -33.124978983671966 ] ] ] } },
{ "type": "Feature", "properties": { "department_id": "UY03", "department": "Cerro Largo" }, "geometry": { "type": "Polygon", "coordinates": [ [ [ -54.690945610105139, -32.129356406958237 ], [ -54.589401401443489, -32.109615913179709 ], [ -54.571598887543068, -32.076853140127824 ], [ -54.581701613634237, -32.061091746471838 ], [ -54.540102091954139, -32.019492250818764 ], [ -54.543590261871294, -32.00274914263322 ], [ -54.588522917079132, -31.985385850360849 ], [ -54.504109464192204, -31.842448833309259 ], [ -54.520258359262243, -31.732119703253939 ], [ -54.467220693751599, -31.664237358664767 ], [ -54.146276811524572, -31.909885744869879 ], [ -54.107312779625545, -31.883944164905476 ], [ -54.068813830045912, -31.879913364221235 ], [ -54.008714161901729, -31.926525620517182 ], [ -53.905826375573106, -31.959288429769149 ], [ -53.858077342845675, -32.021196749260838 ], [ -53.757308312303493, -32.055044873014744 ], [ -53.721444872351825, -32.162428525164884 ], [ -53.658554642423788, -32.254309160325292 ], [ -53.643878537077086, -32.355594975949877 ], [ -53.561299589681148, -32.449542681762644 ], [ -53.415623738971604, -32.56416107185504 ], [ -53.186128710791508, -32.646740045777435 ], [ -53.119776164256621, -32.707408138199888 ], [ -53.114040051493454, -32.740584265478553 ], [ -53.18283630973643, -32.799904093492202 ], [ -53.328806533237142, -32.775983617900572 ], [ -53.393066169197638, -32.788075862386378 ], [ -53.499958847691872, -32.750196929315443 ], [ -53.844020540846522, -32.765131451077593 ], [ -53.957036939457431, -32.705393704126337 ], [ -54.033052945763977, -32.751385596916407 ], [ -54.023311914421853, -32.788850892026154 ], [ -54.04535191129181, -32.798927793661136 ], [ -54.124158465047728, -32.758000026549418 ], [ -54.326109973905204, -32.715522058197998 ], [ -54.411324422252747, -32.749731916159668 ], [ -54.48868403883678, -32.751695605811889 ], [ -54.513850449796799, -32.784820138815306 ], [ -54.563847415555735, -32.790194577506419 ], [ -54.596713626121947, -32.821045402395207 ], [ -54.684176001589506, -32.814224187908877 ], [ -54.819645757287105, -32.838150312458616 ], [ -54.878453517750273, -32.863471671993395 ], [ -55.01865167162439, -32.949719608571755 ], [ -55.028005163445499, -32.970235428383333 ], [ -55.009970033683068, -33.024960500976064 ], [ -55.159469955791288, -33.017674148199163 ], [ -55.286025587921635, -32.936180651408691 ], [ -55.32077796728521, -32.890808638826549 ], [ -55.3161787459536, -32.825541216452109 ], [ -55.344807491699292, -32.776603639646744 ], [ -55.306773625837018, -32.748336576627956 ], [ -55.335505762619633, -32.679917177653145 ], [ -55.302975422068869, -32.56044113516019 ], [ -55.328426058397199, -32.493881856288468 ], [ -55.239620118693708, -32.458948636202642 ], [ -55.105855665899952, -32.48504519689093 ], [ -55.03996823067321, -32.468663846751078 ], [ -54.956924208791953, -32.388668752429439 ], [ -54.921370817163911, -32.379573667482894 ], [ -54.83961869587668, -32.310482250998227 ], [ -54.800292946910659, -32.23823867912067 ], [ -54.80918128385035, -32.185683701549792 ], [ -54.755696162777852, -32.101916135769848 ], [ -54.690945610105139, -32.129356406958237 ] ] ] } },
{ "type": "Feature", "properties": { "department_id": "UY09", "department": "Maldonado" }, "geometry": { "type": "Polygon", "coordinates": [ [ [ -54.482147001795944, -33.926042684507529 ], [ -54.460882113300961, -34.095024446116746 ], [ -54.492094661031565, -34.201219429452053 ], [ -54.492585648045818, -34.390768864572479 ], [ -54.526769558393937, -34.396763104567448 ], [ -54.536743153266535, -34.421412961751095 ], [ -54.498011655727765, -34.554583076890893 ], [ -54.532738188831033, -34.633234466819168 ], [ -54.517209428532567, -34.749093064518497 ], [ -54.536226349876706, -34.782217630649328 ], [ -54.530791804202373, -34.80689873332021 ], [ -54.95860754196368, -34.973402561467218 ], [ -54.962228946734733, -34.939629711514023 ], [ -55.033070416982383, -34.916761864690052 ], [ -55.060373481314883, -34.887790530082015 ], [ -55.260243288583979, -34.897637608242675 ], [ -55.338286904440459, -34.818780167641243 ], [ -55.373763624245939, -34.802871829461232 ], [ -55.418549790830475, -34.734003685371576 ], [ -55.415604222318841, -34.687236460507847 ], [ -55.473275090356459, -34.621917312643923 ], [ -55.312199689810143, -34.610290290711845 ], [ -55.167660703891137, -34.517634425059988 ], [ -55.083066351934534, -34.5116398132255 ], [ -54.997386876974176, -34.449369939603883 ], [ -54.844398750383121, -34.392887376367774 ], [ -54.814142220289405, -34.294443869129154 ], [ -54.781482710524543, -34.256565026911119 ], [ -54.776986837778274, -34.193933078363663 ], [ -54.705130774738741, -34.085619353169754 ], [ -54.656374068920492, -34.055543703307407 ], [ -54.574156890881476, -34.039834190810815 ], [ -54.535192842848438, -33.966091839823363 ], [ -54.482147001795944, -33.926042684507529 ] ] ] } },
{ "type": "Feature", "properties": { "department_id": "UY02", "department": "Canelones" }, "geometry": { "type": "Polygon", "coordinates": [ [ [ -55.473275090356459, -34.621917312643923 ], [ -55.415604222318841, -34.687236460507847 ], [ -55.418549790830475, -34.734003685371576 ], [ -55.373763624245939, -34.802871829461232 ], [ -55.509635794360044, -34.799064408421323 ], [ -55.693447680112165, -34.764741165349655 ], [ -55.756503045570128, -34.782666495161912 ], [ -55.792050818564277, -34.774133879776315 ], [ -55.889101463775511, -34.803474932440999 ], [ -56.038389691246053, -34.885804344151808 ], [ -56.052774600337251, -34.848001700472928 ], [ -56.038873677439355, -34.774776357442569 ], [ -56.082281881110674, -34.77343277666337 ], [ -56.137963208411783, -34.724856801105737 ], [ -56.218526766890491, -34.764182570678322 ], [ -56.293483438569986, -34.71498663594295 ], [ -56.36415093450676, -34.734106804167254 ], [ -56.459519805103646, -34.664447035872108 ], [ -56.471922190901509, -34.596699420060425 ], [ -56.398024857420523, -34.527091112234793 ], [ -56.401332150636712, -34.432988335226675 ], [ -56.363608334643061, -34.361778122818144 ], [ -56.289323478738702, -34.352476430708116 ], [ -56.212273920508224, -34.378573037660345 ], [ -56.145843852565783, -34.36849607181734 ], [ -56.097500601351271, -34.299766650156641 ], [ -55.998643562496817, -34.244369404978251 ], [ -55.882345760373042, -34.272481419566326 ], [ -55.74424047467879, -34.222355190065912 ], [ -55.619105973676781, -34.207730670928939 ], [ -55.578591652858478, -34.331030642642425 ], [ -55.533168102322279, -34.40472138642415 ], [ -55.544226871348094, -34.499857759191059 ], [ -55.47877865564994, -34.579491072462915 ], [ -55.473275090356459, -34.621917312643923 ] ] ] } },
{ "type": "Feature", "properties": { "department_id": "UY10", "department": "Montevideo" }, "geometry": { "type": "Polygon", "coordinates": [ [ [ -56.36415093450676, -34.734106804167254 ], [ -56.293483438569986, -34.71498663594295 ], [ -56.218526766890491, -34.764182570678322 ], [ -56.167005356289643, -34.729972737193791 ], [ -56.132407982166264, -34.726200345471128 ], [ -56.082281881110674, -34.77343277666337 ], [ -56.035876422199259, -34.779582169897346 ], [ -56.052800466951801, -34.828933221847407 ], [ -56.038389691246053, -34.885804344151808 ], [ -56.105198396038752, -34.898416032226592 ], [ -56.149891761047222, -34.92034283818839 ], [ -56.156088382630969, -34.941188402028935 ], [ -56.17728984055821, -34.916324391110479 ], [ -56.213001615407578, -34.907693105292417 ], [ -56.203454626980829, -34.887502493894303 ], [ -56.214589151606219, -34.879587831452909 ], [ -56.230550932291727, -34.877749881477087 ], [ -56.256337043466559, -34.906182552050083 ], [ -56.311268684467024, -34.906182552050083 ], [ -56.418446425995519, -34.84303154311263 ], [ -56.420765767996926, -34.828220371500393 ], [ -56.361281590402349, -34.796636069387752 ], [ -56.36415093450676, -34.734106804167254 ] ] ] } },
{ "type": "Feature", "properties": { "department_id": "UY16", "department": "San José" }, "geometry": { "type": "Polygon", "coordinates": [ [ [ -56.401332150636712, -34.432988335226675 ], [ -56.398024857420523, -34.527091112234793 ], [ -56.471922190901509, -34.596699420060425 ], [ -56.459519805103646, -34.664447035872108 ], [ -56.36415093450676, -34.734106804167254 ], [ -56.354229075439918, -34.769608582722732 ], [ -56.364590676204315, -34.793534582903007 ], [ -56.448432051058809, -34.758272541525351 ], [ -56.55801345277056, -34.765069166930822 ], [ -56.646362054145541, -34.722641413174166 ], [ -56.79528945264849, -34.698492387554552 ], [ -56.890695780797685, -34.660088860521 ], [ -57.101958757739268, -34.475843874785525 ], [ -57.167477866076759, -34.448249632843023 ], [ -57.099274036900894, -34.393559180736496 ], [ -57.073280807166782, -34.301626876578958 ], [ -57.102788036829025, -34.267727077577341 ], [ -57.095553317605265, -34.23232864295791 ], [ -56.996515457117006, -34.190005738651593 ], [ -56.941945149060047, -34.147631086129834 ], [ -56.985017440993822, -34.078746333754275 ], [ -57.05149918881547, -34.025984775386071 ], [ -57.077725008737623, -33.962991345528764 ], [ -56.865257362027144, -33.98459211471954 ], [ -56.82073808152937, -33.967073648870816 ], [ -56.759656514423938, -33.911366342906909 ], [ -56.663951801718824, -33.887647044230157 ], [ -56.602921951260917, -33.84971661950923 ], [ -56.462697893892233, -33.902426312555399 ], [ -56.414561300381145, -34.09672971336596 ], [ -56.446238968692256, -34.166544641587151 ], [ -56.421253433193371, -34.231243622266682 ], [ -56.424534909511436, -34.307001374502832 ], [ -56.471198683916981, -34.359917841060337 ], [ -56.401332150636712, -34.432988335226675 ] ] ] } },
{ "type": "Feature", "properties": { "department_id": "UY04", "department": "Colonia" }, "geometry": { "type": "Polygon", "coordinates": [ [ [ -57.077725008737623, -33.962991345528764 ], [ -57.05149918881547, -34.025984775386071 ], [ -56.985017440993822, -34.078746333754275 ], [ -56.941945149060047, -34.147631086129834 ], [ -56.996515457117006, -34.190005738651593 ], [ -57.095553317605265, -34.23232864295791 ], [ -57.102788036829025, -34.267727077577341 ], [ -57.073280807166782, -34.301626876578958 ], [ -57.099274036900894, -34.393559180736496 ], [ -57.16747786529529, -34.448249632843023 ], [ -57.346941679627434, -34.443459404369321 ], [ -57.365199951120033, -34.430440538838333 ], [ -57.436973799646438, -34.444575500102118 ], [ -57.474662868093752, -34.429541175919852 ], [ -57.537913703824096, -34.453613704722123 ], [ -57.569475465560551, -34.426504025579561 ], [ -57.594997233388852, -34.425473006688108 ], [ -57.764114826945324, -34.474294602170424 ], [ -57.822509566217434, -34.47510861642057 ], [ -57.855354144017632, -34.470967006853357 ], [ -57.854047685311009, -34.44788170825155 ], [ -57.900189848047603, -34.416524807412955 ], [ -57.897599561238209, -34.376338817397716 ], [ -58.016916485900587, -34.253106447519663 ], [ -58.049794049470528, -34.240004053385661 ], [ -58.076975030425835, -34.191989694992834 ], [ -58.208729637035148, -34.147637698181022 ], [ -58.23184158343124, -34.088799660949874 ], [ -58.316517739832847, -33.986504960400715 ], [ -58.388824008475069, -33.942071158078498 ], [ -58.415616526975619, -33.875615141975018 ], [ -58.278995319354074, -33.835970521782059 ], [ -58.169622190413307, -33.777989740822733 ], [ -58.039552556566143, -33.803982745449808 ], [ -57.994154852885963, -33.862118917722547 ], [ -57.850210136930329, -33.861860479500585 ], [ -57.790653028064561, -33.898860707832135 ], [ -57.654175605783834, -33.938134951789131 ], [ -57.565576328344925, -33.935137573387941 ], [ -57.393183738621367, -33.8960701338505 ], [ -57.29295733504906, -33.946351467022112 ], [ -57.077725008737623, -33.962991345528764 ] ] ] } },
{ "type": "Feature", "properties": { "department_id": "UY17", "department": "Soriano" }, "geometry": { "type": "Polygon", "coordinates": [ [ [ -57.077725008737623, -33.962991345528764 ], [ -57.29295733504906, -33.946351467022112 ], [ -57.393183738621367, -33.8960701338505 ], [ -57.565576328344925, -33.935137573387941 ], [ -57.654175605783834, -33.938134951789131 ], [ -57.790653028064561, -33.898860707832135 ], [ -57.850210136930329, -33.861860479500585 ], [ -57.994154852885963, -33.862118917722547 ], [ -58.039552556566143, -33.803982745449808 ], [ -58.169622190413307, -33.777989740822733 ], [ -58.278995319354074, -33.835970521782059 ], [ -58.415616526975619, -33.875615141975018 ], [ -58.439361145779358, -33.69850031922175 ], [ -58.425770606095234, -33.612888141148048 ], [ -58.433216941675653, -33.52776465117406 ], [ -58.3853653465059, -33.470310075423328 ], [ -58.391524337872198, -33.42444655371964 ], [ -58.295893539584355, -33.376980565445017 ], [ -58.223598212375897, -33.308044213711966 ], [ -58.13600665844681, -33.307682476730221 ], [ -58.117248095704767, -33.233888451328134 ], [ -58.083606745501747, -33.218695611208112 ], [ -58.039216701529774, -33.246600935086924 ], [ -58.028390491626517, -33.205053094457107 ], [ -58.049603656593362, -33.187483061455865 ], [ -58.059835597290267, -33.137201923577379 ], [ -57.965061024181928, -33.131000769823423 ], [ -57.959479963697603, -33.095188973331773 ], [ -57.868529445779139, -33.044339380257234 ], [ -57.789412811990864, -33.061030794343843 ], [ -57.744402619956325, -33.054209415438407 ], [ -57.650454911058532, -33.085008777264214 ], [ -57.606943292732836, -33.047388050564876 ], [ -57.525397888886296, -33.021394830619535 ], [ -57.44997615086055, -33.050023644519577 ], [ -57.428788841548354, -33.095188973331773 ], [ -57.373598383223353, -33.074621621191064 ], [ -57.304894590915993, -33.095499012264462 ], [ -57.281846871291549, -33.146916918512815 ], [ -57.240092342532861, -33.115652808267527 ], [ -57.216837946769672, -33.157252333461514 ], [ -57.12712763657278, -33.1230940984372 ], [ -57.147307310903081, -33.16381525841215 ], [ -57.34799269530528, -33.380080943334853 ], [ -57.300734648692497, -33.425246373593893 ], [ -57.255155989271159, -33.545497221057389 ], [ -57.160458931313784, -33.610092784102534 ], [ -57.186400542448439, -33.752254839269646 ], [ -57.077725008737623, -33.962991345528764 ] ] ] } },
{ "type": "Feature", "properties": { "department_id": "UY12", "department": "Río Negro" }, "geometry": { "type": "Polygon", "coordinates": [ [ [ -58.191458498383042, -32.491891402428728 ], [ -58.102520314778992, -32.486027130539966 ], [ -58.014541202490648, -32.546850356267235 ], [ -57.995601783349528, -32.582093650146255 ], [ -57.799593095335652, -32.613513013626751 ], [ -57.772824641117197, -32.596614529955502 ], [ -57.757270089513241, -32.558270873157028 ], [ -57.583508048897961, -32.53615318541997 ], [ -57.543071263435017, -32.485252006698474 ], [ -57.470259163288311, -32.44509938552941 ], [ -57.401477818965638, -32.450577023448098 ], [ -57.335926264304099, -32.433110391148176 ], [ -57.268385194062638, -32.442877363496912 ], [ -57.175083391317777, -32.392957906478422 ], [ -57.089326356917205, -32.388513760833128 ], [ -57.039665276917034, -32.363398877827414 ], [ -56.903058633806182, -32.410166073805144 ], [ -56.742551633810876, -32.409545954561992 ], [ -56.670463022188088, -32.425772409023295 ], [ -56.559358676130017, -32.492486601059468 ], [ -56.599666281398093, -32.664414036357506 ], [ -56.629457771260235, -32.699192401630889 ], [ -56.630697987844293, -32.750041924924034 ], [ -56.666793969784322, -32.843266179806456 ], [ -56.782239118061952, -32.870499656130853 ], [ -56.804563348880365, -32.889103226645311 ], [ -56.815131220252582, -32.933493474420374 ], [ -56.863965402597692, -32.938144139433483 ], [ -56.868228718768584, -32.987340148938685 ], [ -56.925408726335206, -32.958608220164031 ], [ -56.932255833591057, -32.98656507677601 ], [ -56.985198324595657, -32.993593004958754 ], [ -56.969126987687652, -33.025477521989082 ], [ -57.083073491763457, -33.006408781950796 ], [ -57.173507243819508, -33.049765282316102 ], [ -57.171931097052621, -33.07095255205995 ], [ -57.130228216363435, -33.07529336801813 ], [ -57.12712763657278, -33.1230940984372 ], [ -57.216837946769672, -33.157252333461514 ], [ -57.240092342532861, -33.115652808267527 ], [ -57.281846871291549, -33.146916918512815 ], [ -57.304894590915993, -33.095499012264462 ], [ -57.373598383223353, -33.074621621191064 ], [ -57.428788841548354, -33.095188973331773 ], [ -57.44997615086055, -33.050023644519577 ], [ -57.525397888886296, -33.021394830619535 ], [ -57.606943292732836, -33.047388050564876 ], [ -57.650454911058532, -33.085008777264214 ], [ -57.850235999484298, -33.039946932601019 ], [ -57.949506395454257, -33.087024024554609 ], [ -57.965061024181928, -33.131000769823423 ], [ -58.059835597290267, -33.137201923577379 ], [ -58.049603656593362, -33.187483061455865 ], [ -58.028390491626517, -33.205053094457107 ], [ -58.039216701529774, -33.246600935086924 ], [ -58.083606745501747, -33.218695611208112 ], [ -58.117248095704767, -33.233888451328134 ], [ -58.13600665844681, -33.307682476730221 ], [ -58.223598212375897, -33.308044213711966 ], [ -58.295893539584355, -33.376980565445017 ], [ -58.391524337872198, -33.42444655371964 ], [ -58.418934673886739, -33.389906390358476 ], [ -58.350738073876904, -33.305759322642679 ], [ -58.3669327575764, -33.153741196756627 ], [ -58.351389113582279, -33.121677280746944 ], [ -58.310292127389964, -33.108819298208843 ], [ -58.174427893857818, -33.110447009788921 ], [ -58.137766106297782, -33.09514751463955 ], [ -58.083729640897694, -33.04754006356422 ], [ -58.055816224786447, -32.951836915377598 ], [ -58.057118293739677, -32.881768491431913 ], [ -58.130767370856098, -32.802666873173813 ], [ -58.137766064508256, -32.670668154510629 ], [ -58.191458498383042, -32.491891402428728 ] ] ] } },
{ "type": "Feature", "properties": { "department_id": "UY18", "department": "Tacuarembó" }, "geometry": { "type": "Polygon", "coordinates": [ [ [ -56.559358676130017, -32.492486601059468 ], [ -56.489182085768441, -32.334615121379308 ], [ -56.358750777224301, -32.231882406329618 ], [ -56.294646153727925, -32.042694941366868 ], [ -56.287850723613339, -31.9404790621582 ], [ -56.24557939933409, -31.914227420809084 ], [ -56.27748960227143, -31.863274487739965 ], [ -56.284052506602684, -31.79366632062121 ], [ -56.321595418449597, -31.751291567483268 ], [ -56.330561281805728, -31.646181715613281 ], [ -56.351128515926675, -31.589441064021916 ], [ -56.31673783075469, -31.512236375732016 ], [ -56.257439134063908, -31.442731620408068 ], [ -56.187133350673271, -31.395240993830125 ], [ -56.158013666906207, -31.304652132297168 ], [ -56.104606092298724, -31.257316617151865 ], [ -56.058717411289393, -31.261864094624002 ], [ -55.976913630884887, -31.317674702596232 ], [ -55.834803430600516, -31.382683595415159 ], [ -55.791033506577698, -31.510686192565274 ], [ -55.665563108045248, -31.583808234864257 ], [ -55.646804582200978, -31.641272525947421 ], [ -55.660963926442655, -31.699408519480443 ], [ -55.649285026365995, -31.757596049239154 ], [ -55.617478198454634, -31.801831159955661 ], [ -55.376562664505961, -31.795216543267973 ], [ -55.250032935313413, -31.818781072082405 ], [ -55.115880917876979, -31.820124662250425 ], [ -54.909743628023747, -31.865134830119835 ], [ -54.813134535681584, -31.94239108288804 ], [ -54.654513713595286, -32.122845117252943 ], [ -54.690945610105139, -32.129356406958237 ], [ -54.755696162777852, -32.101916135769848 ], [ -54.80918128385035, -32.185683701549792 ], [ -54.800292946910659, -32.23823867912067 ], [ -54.83961869587668, -32.310482250998227 ], [ -54.921370817163911, -32.379573667482894 ], [ -54.956924208791953, -32.388668752429439 ], [ -55.03996823067321, -32.468663846751078 ], [ -55.105855665899952, -32.48504519689093 ], [ -55.239620118693708, -32.458948636202642 ], [ -55.359431945670103, -32.49868790552253 ], [ -55.430228629116705, -32.47104087513619 ], [ -55.445059788167335, -32.438484836735419 ], [ -55.471337236394888, -32.427322637355793 ], [ -55.496167761890611, -32.444685919641351 ], [ -55.520998296073557, -32.503132003647238 ], [ -55.650086030822784, -32.496827513306322 ], [ -55.692305642377626, -32.546488396652002 ], [ -55.768037476534815, -32.520495267144362 ], [ -55.792842175544784, -32.607931844646977 ], [ -55.830410907904238, -32.633769895089685 ], [ -55.903326377681729, -32.603590973860733 ], [ -56.013810567476227, -32.699967413724494 ], [ -56.169459998997716, -32.72596074522145 ], [ -56.224857144471635, -32.823009128612483 ], [ -56.361567138529558, -32.814792546876951 ], [ -56.406706490189414, -32.861094567180878 ], [ -56.470630279192179, -32.83076070533189 ], [ -56.582974829704298, -32.835566546781465 ], [ -56.636976689778386, -32.858149098231969 ], [ -56.666793969784322, -32.843266179806456 ], [ -56.630697987844293, -32.750041924924034 ], [ -56.629457771260235, -32.699192401630889 ], [ -56.599666281398093, -32.664414036357506 ], [ -56.559358676130017, -32.492486601059468 ] ] ] } },
{ "type": "Feature", "properties": { "department_id": "UY05", "department": "Durazno" }, "geometry": { "type": "Polygon", "coordinates": [ [ [ -55.009970033683068, -33.024960500976064 ], [ -55.09453852508689, -33.088160831267508 ], [ -55.111074978200193, -33.118236483307548 ], [ -55.247294103659804, -33.203657871197592 ], [ -55.303905619999171, -33.196319740292445 ], [ -55.622361611749696, -33.361115780981507 ], [ -55.710676651173088, -33.364474830720319 ], [ -55.829868302843394, -33.42633132871763 ], [ -56.031018858698502, -33.436718495889778 ], [ -56.050242497471267, -33.469222999831899 ], [ -56.095640255426254, -33.492632477970758 ], [ -56.235993392456599, -33.480281565317462 ], [ -56.28025427413295, -33.428966951171532 ], [ -56.348518865154347, -33.431292502461716 ], [ -56.411254035467479, -33.401475115151641 ], [ -56.423630558761161, -33.483123958885443 ], [ -56.453938737575974, -33.497076368442187 ], [ -56.532977880855185, -33.495526264104477 ], [ -56.558635246822071, -33.464933892900007 ], [ -56.568763787228399, -33.414755891776473 ], [ -56.670437197029557, -33.30473690581929 ], [ -56.826655006256075, -33.266031042208198 ], [ -56.883318218320447, -33.19270220588961 ], [ -57.03912267594859, -33.182056927088979 ], [ -57.12712763657278, -33.1230940984372 ], [ -57.130228216363435, -33.07529336801813 ], [ -57.179036631004571, -33.065216579180323 ], [ -57.173507243819508, -33.049765282316102 ], [ -57.083073491763457, -33.006408781950796 ], [ -56.969126987687652, -33.025477521989082 ], [ -56.985198324595657, -32.993593004958754 ], [ -56.932255833591057, -32.98656507677601 ], [ -56.925408726335206, -32.958608220164031 ], [ -56.868228718768584, -32.987340148938685 ], [ -56.863965402597692, -32.938144139433483 ], [ -56.815131220252582, -32.933493474420374 ], [ -56.795726696763587, -32.881196817697898 ], [ -56.685862596921503, -32.838046973813199 ], [ -56.636976689778386, -32.858149098231969 ], [ -56.582974829704298, -32.835566546781465 ], [ -56.470630279192179, -32.83076070533189 ], [ -56.406706490189414, -32.861094567180878 ], [ -56.361567138529558, -32.814792546876951 ], [ -56.224857144471635, -32.823009128612483 ], [ -56.169459998997716, -32.72596074522145 ], [ -56.013810567476227, -32.699967413724494 ], [ -55.903326377681729, -32.603590973860733 ], [ -55.830410907904238, -32.633769895089685 ], [ -55.792842175544784, -32.607931844646977 ], [ -55.768037476534815, -32.520495267144362 ], [ -55.692305642377626, -32.546488396652002 ], [ -55.650086030822784, -32.496827513306322 ], [ -55.520998296073557, -32.503132003647238 ], [ -55.496167761890611, -32.444685919641351 ], [ -55.471337236394888, -32.427322637355793 ], [ -55.445059788167335, -32.438484836735419 ], [ -55.430228629116705, -32.47104087513619 ], [ -55.367364279291564, -32.497292648837089 ], [ -55.328426058397199, -32.493881856288468 ], [ -55.308065533317304, -32.526541313199623 ], [ -55.303931468190171, -32.572843639850817 ], [ -55.335505762619633, -32.679917177653145 ], [ -55.306773625837018, -32.748336576627956 ], [ -55.344807491699292, -32.776603639646744 ], [ -55.3161787459536, -32.825541216452109 ], [ -55.323155051386834, -32.88000810912343 ], [ -55.304835804936474, -32.917783818964892 ], [ -55.159469955791288, -33.017674148199163 ], [ -55.009970033683068, -33.024960500976064 ] ] ] } },
{ "type": "Feature", "properties": { "department_id": "UY06", "department": "Flores" }, "geometry": { "type": "Polygon", "coordinates": [ [ [ -56.462697893892233, -33.902426312555399 ], [ -56.602921951260917, -33.84971661950923 ], [ -56.663951801718824, -33.887647044230157 ], [ -56.759656514423938, -33.911366342906909 ], [ -56.82073808152937, -33.967073648870816 ], [ -56.865257362027144, -33.98459211471954 ], [ -57.077725008737623, -33.962991345528764 ], [ -57.186400542448439, -33.752254839269646 ], [ -57.160458931313784, -33.610092784102534 ], [ -57.217948968291068, -33.582962682388391 ], [ -57.258411654673594, -33.541363336721169 ], [ -57.298254160998717, -33.429793813630468 ], [ -57.341636544851283, -33.396049189854033 ], [ -57.34763096938223, -33.370985930194294 ], [ -57.147307310903081, -33.16381525841215 ], [ -57.12712763657278, -33.1230940984372 ], [ -57.03912267594859, -33.182056927088979 ], [ -56.871742734559263, -33.196733138729236 ], [ -56.826655006256075, -33.266031042208198 ], [ -56.670437197029557, -33.30473690581929 ], [ -56.568763787228399, -33.414755891776473 ], [ -56.460553379846012, -33.69608258303419 ], [ -56.424018137579033, -33.754011839218101 ], [ -56.428462262582769, -33.862583806083791 ], [ -56.462697893892233, -33.902426312555399 ] ] ] } },
{ "type": "Feature", "properties": { "department_id": "UY07", "department": "Florida" }, "geometry": { "type": "Polygon", "coordinates": [ [ [ -55.111074978200193, -33.118236483307548 ], [ -55.092600651745855, -33.262207021846002 ], [ -55.148385362475587, -33.343752440634745 ], [ -55.110816629248184, -33.403025467280237 ], [ -55.112935359188164, -33.44793226922522 ], [ -55.141512421274761, -33.477594514581646 ], [ -55.198459876939197, -33.501004064576868 ], [ -55.244787790864606, -33.578828739460434 ], [ -55.321553088104288, -33.610041101726104 ], [ -55.328193523505327, -33.649728663967799 ], [ -55.291735829114771, -33.719440308127851 ], [ -55.34183612367417, -33.873022632426675 ], [ -55.39258237380394, -33.910849756129323 ], [ -55.447488568436022, -33.987330805352222 ], [ -55.458599032815442, -34.030635798760315 ], [ -55.525209918919558, -34.082777156113792 ], [ -55.554975528959417, -34.140396312179078 ], [ -55.619105973676781, -34.207730670928939 ], [ -55.74424047467879, -34.222355190065912 ], [ -55.882345760373042, -34.272481419566326 ], [ -55.998643562496817, -34.244369404978251 ], [ -56.097500601351271, -34.299766650156641 ], [ -56.135560250530624, -34.364568698984087 ], [ -56.212273920508224, -34.378573037660345 ], [ -56.279427445287851, -34.353871711833619 ], [ -56.350663415531038, -34.357334069164516 ], [ -56.37373695886852, -34.366894282287618 ], [ -56.401332150636712, -34.432988335226675 ], [ -56.468873260021518, -34.364775497545011 ], [ -56.466961224581325, -34.345086747056783 ], [ -56.424534909511436, -34.307001374502832 ], [ -56.421253433193371, -34.231243622266682 ], [ -56.446238968692256, -34.166544641587151 ], [ -56.414561300381145, -34.09672971336596 ], [ -56.462697893892233, -33.902426312555399 ], [ -56.428462262582769, -33.862583806083791 ], [ -56.421770157900383, -33.762951613877867 ], [ -56.460553379846012, -33.69608258303419 ], [ -56.532977880855185, -33.495526264104477 ], [ -56.453938737575974, -33.497076368442187 ], [ -56.423630558761161, -33.483123958885443 ], [ -56.411254035467479, -33.401475115151641 ], [ -56.348518865154347, -33.431292502461716 ], [ -56.28025427413295, -33.428966951171532 ], [ -56.235993392456599, -33.480281565317462 ], [ -56.095640255426254, -33.492632477970758 ], [ -56.050242497471267, -33.469222999831899 ], [ -56.021717067973285, -33.433669434214401 ], [ -55.928208577505771, -33.422352360766851 ], [ -55.863328819345362, -33.435219804140587 ], [ -55.7683992287457, -33.402818753613914 ], [ -55.710676651173088, -33.364474830720319 ], [ -55.622361611749696, -33.361115780981507 ], [ -55.303905619999171, -33.196319740292445 ], [ -55.247294103659804, -33.203657871197592 ], [ -55.111074978200193, -33.118236483307548 ] ] ] } },
{ "type": "Feature", "properties": { "department_id": "UY08", "department": "Lavalleja" }, "geometry": { "type": "Polygon", "coordinates": [ [ [ -54.125708818133553, -33.465347329465828 ], [ -54.208442767891448, -33.48715469437483 ], [ -54.229888455716186, -33.54895955694839 ], [ -54.369182312914262, -33.63639624300788 ], [ -54.383031593441679, -33.672621407614848 ], [ -54.375125115411102, -33.738147199855483 ], [ -54.415536089685652, -33.800572347798699 ], [ -54.423261656261943, -33.858294635943722 ], [ -54.52382403273279, -33.952242577214683 ], [ -54.574156890881476, -34.039834190810815 ], [ -54.656374068920492, -34.055543703307407 ], [ -54.705130774738741, -34.085619353169754 ], [ -54.776986837778274, -34.193933078363663 ], [ -54.781482710524543, -34.256565026911119 ], [ -54.814142220289405, -34.294443869129154 ], [ -54.844398750383121, -34.392887376367774 ], [ -54.997386876974176, -34.449369939603883 ], [ -55.083066351934534, -34.5116398132255 ], [ -55.167660703891137, -34.517634425059988 ], [ -55.312199689810143, -34.610290290711845 ], [ -55.473275090356459, -34.621917312643923 ], [ -55.47877865564994, -34.579491072462915 ], [ -55.544226871348094, -34.499857759191059 ], [ -55.533168102322279, -34.40472138642415 ], [ -55.578591652858478, -34.331030642642425 ], [ -55.619105973676781, -34.207730670928939 ], [ -55.554975528959417, -34.140396312179078 ], [ -55.525209918919558, -34.082777156113792 ], [ -55.458599032815442, -34.030635798760315 ], [ -55.447488568436022, -33.987330805352222 ], [ -55.39258237380394, -33.910849756129323 ], [ -55.34183612367417, -33.873022632426675 ], [ -55.291735829114771, -33.719440308127851 ], [ -55.328193523505327, -33.649728663967799 ], [ -55.325428825032837, -33.617947615866242 ], [ -55.244787790864606, -33.578828739460434 ], [ -55.198459876939197, -33.501004064576868 ], [ -55.11792211050976, -33.456510436852312 ], [ -55.109628053569338, -33.408554763020859 ], [ -55.124640047127365, -33.38183799589266 ], [ -55.05632382477571, -33.350263793691553 ], [ -54.998937116072504, -33.342305475278422 ], [ -54.913955269215506, -33.366800328996021 ], [ -54.825743597669238, -33.336983016523256 ], [ -54.782335372694128, -33.348248373321326 ], [ -54.714665107426647, -33.396049189854033 ], [ -54.492611480154821, -33.449172571466683 ], [ -54.438867996348286, -33.432377760393926 ], [ -54.413520661971624, -33.390933043669406 ], [ -54.354635356731976, -33.357188281649556 ], [ -54.306214562429247, -33.347938308773749 ], [ -54.234255154840106, -33.418528434576402 ], [ -54.125708818133553, -33.465347329465828 ] ] ] } }
]
}
