{"type":"FeatureCollection","features":[{"type":"Feature","id":"RUS","properties":{"name":"Russia","iso_a2":"RU","iso_a3":"RUS","areaKm2":16886303,"rank":1,"countryLabelMinZoom":1,"countryLabelMaxZoom":6,"capitalMinZoom":2},"geometry":{"type":"Point","coordinates":[110.0390625,65.0998985022357]}},{"type":"Feature","id":"CAN","properties":{"name":"Canada","iso_a2":"CA","iso_a3":"CAN","areaKm2":9894499,"rank":1,"countryLabelMinZoom":1,"countryLabelMaxZoom":6,"capitalMinZoom":2},"geometry":{"type":"Point","coordinates":[-116.9384765625,60.146973929322854]}},{"type":"Feature","id":"USA","properties":{"name":"United States of America","iso_a2":"US","iso_a3":"USA","areaKm2":9447839,"rank":1,"countryLabelMinZoom":1,"countryLabelMaxZoom":6,"capitalMinZoom":2},"geometry":{"type":"Point","coordinates":[-99.964599609375,38.246808760174474]}},{"type":"Feature","id":"CHN","properties":{"name":"People's Republic of China","iso_a2":"CN","iso_a3":"CHN","areaKm2":9373411,"rank":1,"countryLabelMinZoom":1,"countryLabelMaxZoom":6,"capitalMinZoom":2},"geometry":{"type":"Point","coordinates":[95.657958984375,38.81403111409756]}},{"type":"Feature","id":"BRA","properties":{"name":"Brazil","iso_a2":"BR","iso_a3":"BRA","areaKm2":8504950,"rank":1,"countryLabelMinZoom":1,"countryLabelMaxZoom":6,"capitalMinZoom":2},"geometry":{"type":"Point","coordinates":[-49.779052734375,-15.125158878585296]}},{"type":"Feature","id":"AUS","properties":{"name":"Australia","iso_a2":"AU","iso_a3":"AUS","areaKm2":7705924,"rank":1,"countryLabelMinZoom":1,"countryLabelMaxZoom":6,"capitalMinZoom":2},"geometry":{"type":"Point","coordinates":[133.560791015625,-25.760319754713876]}},{"type":"Feature","id":"IND","properties":{"name":"India","iso_a2":"IN","iso_a3":"IND","areaKm2":3158316,"rank":1,"countryLabelMinZoom":1,"countryLabelMaxZoom":6,"capitalMinZoom":2},"geometry":{"type":"Point","coordinates":[79.4091796875,22.45164881912622]}},{"type":"Feature","id":"ARG","properties":{"name":"Argentina","iso_a2":"AR","iso_a3":"ARG","areaKm2":2783122,"rank":1,"countryLabelMinZoom":1,"countryLabelMaxZoom":6,"capitalMinZoom":2},"geometry":{"type":"Point","coordinates":[-64.9951171875,-38.702659307238]}},{"type":"Feature","id":"COD","properties":{"name":"Democratic Republic of the Congo","iso_a2":"CD","iso_a3":"COD","areaKm2":2335422,"rank":1,"countryLabelMinZoom":1,"countryLabelMaxZoom":6,"capitalMinZoom":2},"geometry":{"type":"Point","coordinates":[22.423095703125,-4.13824308398371]}},{"type":"Feature","id":"MEX","properties":{"name":"Mexico","iso_a2":"MX","iso_a3":"MEX","areaKm2":1962243,"rank":1,"countryLabelMinZoom":1,"countryLabelMaxZoom":6,"capitalMinZoom":2},"geometry":{"type":"Point","coordinates":[-102.359619140625,23.94609601499839]}},{"type":"Feature","id":"SAU","properties":{"name":"Saudi Arabia","iso_a2":"SA","iso_a3":"SAU","areaKm2":1926006,"rank":1,"countryLabelMinZoom":1,"countryLabelMaxZoom":6,"capitalMinZoom":2},"geometry":{"type":"Point","coordinates":[44.40673828125,24.48714856317342]}},{"type":"Feature","id":"IDN","properties":{"name":"Indonesia","iso_a2":"ID","iso_a3":"IDN","areaKm2":1888146,"rank":1,"countryLabelMinZoom":1,"countryLabelMaxZoom":6,"capitalMinZoom":2},"geometry":{"type":"Point","coordinates":[113.323974609375,0.10986321392741161]}},{"type":"Feature","id":"IRN","properties":{"name":"Iran","iso_a2":"IR","iso_a3":"IRN","areaKm2":1623488,"rank":1,"countryLabelMinZoom":1,"countryLabelMaxZoom":6,"capitalMinZoom":2},"geometry":{"type":"Point","coordinates":[53.701171875,32.73184089686568]}},{"type":"Feature","id":"PER","properties":{"name":"Peru","iso_a2":"PE","iso_a3":"PER","areaKm2":1295127,"rank":1,"countryLabelMinZoom":1,"countryLabelMaxZoom":6,"capitalMinZoom":2},"geometry":{"type":"Point","coordinates":[-75.816650390625,-9.29730685632758]}},{"type":"Feature","id":"ZAF","properties":{"name":"South Africa","iso_a2":"ZA","iso_a3":"ZAF","areaKm2":1221446,"rank":1,"countryLabelMinZoom":1,"countryLabelMaxZoom":6,"capitalMinZoom":2},"geometry":{"type":"Point","coordinates":[23.917236328125,-28.67131091588083]}},{"type":"Feature","id":"COL","properties":{"name":"Colombia","iso_a2":"CO","iso_a3":"COL","areaKm2":1140095,"rank":1,"countryLabelMinZoom":1,"countryLabelMaxZoom":6,"capitalMinZoom":2},"geometry":{"type":"Point","coordinates":[-72.608642578125,4.160158150193411]}},{"type":"Feature","id":"ETH","properties":{"name":"Ethiopia","iso_a2":"ET","iso_a3":"ETH","areaKm2":1132066,"rank":1,"countryLabelMinZoom":1,"countryLabelMaxZoom":6,"capitalMinZoom":2},"geometry":{"type":"Point","coordinates":[38.935546875,9.199715262283306]}},{"type":"Feature","id":"EGY","properties":{"name":"Egypt","iso_a2":"EG","iso_a3":"EGY","areaKm2":1002870,"rank":1,"countryLabelMinZoom":1,"countryLabelMaxZoom":6,"capitalMinZoom":2},"geometry":{"type":"Point","coordinates":[29.46533203125,26.922069916732795]}},{"type":"Feature","id":"NGA","properties":{"name":"Nigeria","iso_a2":"NG","iso_a3":"NGA","areaKm2":911217,"rank":1,"countryLabelMinZoom":1,"countryLabelMaxZoom":6,"capitalMinZoom":2},"geometry":{"type":"Point","coordinates":[7.9541015625,9.1129445626176]}},{"type":"Feature","id":"PAK","properties":{"name":"Pakistan","iso_a2":"PK","iso_a3":"PAK","areaKm2":873936,"rank":1,"countryLabelMinZoom":1,"countryLabelMaxZoom":6,"capitalMinZoom":2},"geometry":{"type":"Point","coordinates":[70.169677734375,30.609549797190837]}},{"type":"Feature","id":"TUR","properties":{"name":"Turkey","iso_a2":"TR","iso_a3":"TUR","areaKm2":779426,"rank":1,"countryLabelMinZoom":1,"countryLabelMaxZoom":6,"capitalMinZoom":2},"geometry":{"type":"Point","coordinates":[35.48583984375,39.027718840211605]}},{"type":"Feature","id":"CHL","properties":{"name":"Chile","iso_a2":"CL","iso_a3":"CHL","areaKm2":736364,"rank":1,"countryLabelMinZoom":1,"countryLabelMaxZoom":6,"capitalMinZoom":2},"geometry":{"type":"Point","coordinates":[-72.322998046875,-37.87485339352927]}},{"type":"Feature","id":"FRA","properties":{"name":"France","iso_a2":null,"iso_a3":"FRA","areaKm2":635737,"rank":1,"countryLabelMinZoom":1,"countryLabelMaxZoom":6,"capitalMinZoom":2},"geometry":{"type":"Point","coordinates":[2.1533203125,46.89023157359398]}},{"type":"Feature","id":"KEN","properties":{"name":"Kenya","iso_a2":"KE","iso_a3":"KEN","areaKm2":588320,"rank":1,"countryLabelMinZoom":1,"countryLabelMaxZoom":6,"capitalMinZoom":2},"geometry":{"type":"Point","coordinates":[37.452392578125,0.1538084090169889]}},{"type":"Feature","id":"ESP","properties":{"name":"Spain","iso_a2":"ES","iso_a3":"ESP","areaKm2":506328,"rank":1,"countryLabelMinZoom":1,"countryLabelMaxZoom":6,"capitalMinZoom":2},"geometry":{"type":"Point","coordinates":[-3.416748046875,40.01920130768676]}},{"type":"Feature","id":"PNG","properties":{"name":"Papua New Guinea","iso_a2":"PG","iso_a3":"PNG","areaKm2":467150,"rank":1,"countryLabelMinZoom":1,"countryLabelMaxZoom":6,"capitalMinZoom":2},"geometry":{"type":"Point","coordinates":[144.3603515625,-6.664607562172577]}},{"type":"Feature","id":"JPN","properties":{"name":"Japan","iso_a2":"JP","iso_a3":"JPN","areaKm2":373332,"rank":1,"countryLabelMinZoom":1,"countryLabelMaxZoom":6,"capitalMinZoom":2},"geometry":{"type":"Point","coordinates":[139.888916015625,37.61423141542417]}},{"type":"Feature","id":"DEU","properties":{"name":"Germany","iso_a2":"DE","iso_a3":"DEU","areaKm2":356379,"rank":1,"countryLabelMinZoom":1,"countryLabelMaxZoom":6,"capitalMinZoom":2},"geometry":{"type":"Point","coordinates":[10.546875,51.248163159055906]}},{"type":"Feature","id":"VNM","properties":{"name":"Vietnam","iso_a2":"VN","iso_a3":"VNM","areaKm2":329987,"rank":1,"countryLabelMinZoom":1,"countryLabelMaxZoom":6,"capitalMinZoom":2},"geometry":{"type":"Point","coordinates":[107.7099609375,16.0985980103019]}},{"type":"Feature","id":"ITA","properties":{"name":"Italy","iso_a2":"IT","iso_a3":"ITA","areaKm2":300678,"rank":1,"countryLabelMinZoom":1,"countryLabelMaxZoom":6,"capitalMinZoom":2},"geometry":{"type":"Point","coordinates":[12.513427734375,42.67435857693383]}},{"type":"Feature","id":"PHL","properties":{"name":"Philippines","iso_a2":"PH","iso_a3":"PHL","areaKm2":294430,"rank":1,"countryLabelMinZoom":1,"countryLabelMaxZoom":6,"capitalMinZoom":2},"geometry":{"type":"Point","coordinates":[120.73974609375,15.61245612714906]}},{"type":"Feature","id":"NZL","properties":{"name":"New Zealand","iso_a2":"NZ","iso_a3":"NZL","areaKm2":268109,"rank":1,"countryLabelMinZoom":1,"countryLabelMaxZoom":6,"capitalMinZoom":2},"geometry":{"type":"Point","coordinates":[171.156005859375,-43.66787161011749]}},{"type":"Feature","id":"GBR","properties":{"name":"United Kingdom","iso_a2":"GB","iso_a3":"GBR","areaKm2":242737,"rank":1,"countryLabelMinZoom":1,"countryLabelMaxZoom":6,"capitalMinZoom":2},"geometry":{"type":"Point","coordinates":[-2.17529296875,54.54657953840504]}},{"type":"Feature","id":"KOR","properties":{"name":"South Korea","iso_a2":"KR","iso_a3":"KOR","areaKm2":98521,"rank":1,"countryLabelMinZoom":1,"countryLabelMaxZoom":6,"capitalMinZoom":2},"geometry":{"type":"Point","coordinates":[127.96875,36.49197347059368]}},{"type":"Feature","id":"PRT","properties":{"name":"Portugal","iso_a2":"PT","iso_a3":"PRT","areaKm2":91303,"rank":1,"countryLabelMinZoom":1,"countryLabelMaxZoom":6,"capitalMinZoom":2},"geometry":{"type":"Point","coordinates":[-8.3056640625,39.631076770083666]}},{"type":"Feature","id":"BEL","properties":{"name":"Belgium","iso_a2":"BE","iso_a3":"BEL","areaKm2":30561,"rank":1,"countryLabelMinZoom":1,"countryLabelMaxZoom":6,"capitalMinZoom":2},"geometry":{"type":"Point","coordinates":[4.844970703125,50.506439832105485]}},{"type":"Feature","id":"ATA","properties":{"name":"Antarctica","iso_a2":"AQ","iso_a3":"ATA","areaKm2":12258370,"rank":2,"countryLabelMinZoom":2,"countryLabelMaxZoom":7,"capitalMinZoom":3},"geometry":{"type":"Point","coordinates":[64.742431640625,-78.41136870123749]}},{"type":"Feature","id":"KAZ","properties":{"name":"Kazakhstan","iso_a2":"KZ","iso_a3":"KAZ","areaKm2":2706356,"rank":2,"countryLabelMinZoom":2,"countryLabelMaxZoom":7,"capitalMinZoom":3},"geometry":{"type":"Point","coordinates":[66.566162109375,48.560249791743274]}},{"type":"Feature","id":"DZA","properties":{"name":"Algeria","iso_a2":"DZ","iso_a3":"DZA","areaKm2":2312302,"rank":2,"countryLabelMinZoom":2,"countryLabelMaxZoom":7,"capitalMinZoom":3},"geometry":{"type":"Point","coordinates":[0.560302734375,28.410728397237918]}},{"type":"Feature","id":"GRL","properties":{"name":"Greenland","iso_a2":"GL","iso_a3":"GRL","areaKm2":2137890,"rank":2,"countryLabelMinZoom":2,"countryLabelMaxZoom":7,"capitalMinZoom":3},"geometry":{"type":"Point","coordinates":[-40.27587890625,76.07966773378999]}},{"type":"Feature","id":"SDN","properties":{"name":"Sudan","iso_a2":"SD","iso_a3":"SDN","areaKm2":1861996,"rank":2,"countryLabelMinZoom":2,"countryLabelMaxZoom":7,"capitalMinZoom":3},"geometry":{"type":"Point","coordinates":[29.794921875,15.591293080633221]}},{"type":"Feature","id":"LBY","properties":{"name":"Libya","iso_a2":"LY","iso_a3":"LBY","areaKm2":1626531,"rank":2,"countryLabelMinZoom":2,"countryLabelMaxZoom":7,"capitalMinZoom":3},"geometry":{"type":"Point","coordinates":[17.42431640625,26.58852714730864]}},{"type":"Feature","id":"MNG","properties":{"name":"Mongolia","iso_a2":"MN","iso_a3":"MNG","areaKm2":1560553,"rank":2,"countryLabelMinZoom":2,"countryLabelMaxZoom":7,"capitalMinZoom":3},"geometry":{"type":"Point","coordinates":[105.18310546875,47.11499982620771]}},{"type":"Feature","id":"TCD","properties":{"name":"Chad","iso_a2":"TD","iso_a3":"TCD","areaKm2":1270723,"rank":2,"countryLabelMinZoom":2,"countryLabelMaxZoom":7,"capitalMinZoom":3},"geometry":{"type":"Point","coordinates":[18.621826171875,15.601874876739814]}},{"type":"Feature","id":"MLI","properties":{"name":"Mali","iso_a2":"ML","iso_a3":"MLI","areaKm2":1256813,"rank":2,"countryLabelMinZoom":2,"countryLabelMaxZoom":7,"capitalMinZoom":3},"geometry":{"type":"Point","coordinates":[-0.758056640625,17.696361965403312]}},{"type":"Feature","id":"AGO","properties":{"name":"Angola","iso_a2":"AO","iso_a3":"AGO","areaKm2":1249439,"rank":2,"countryLabelMinZoom":2,"countryLabelMaxZoom":7,"capitalMinZoom":3},"geometry":{"type":"Point","coordinates":[18.841552734375,-11.996338401936228]}},{"type":"Feature","id":"NER","properties":{"name":"Niger","iso_a2":"NE","iso_a3":"NER","areaKm2":1185161,"rank":2,"countryLabelMinZoom":2,"countryLabelMaxZoom":7,"capitalMinZoom":3},"geometry":{"type":"Point","coordinates":[9.8876953125,17.696361965403312]}},{"type":"Feature","id":"BOL","properties":{"name":"Bolivia","iso_a2":"BO","iso_a3":"BOL","areaKm2":1090454,"rank":2,"countryLabelMinZoom":2,"countryLabelMaxZoom":7,"capitalMinZoom":3},"geometry":{"type":"Point","coordinates":[-63.65478515625,-16.404470456702427]}},{"type":"Feature","id":"MRT","properties":{"name":"Mauritania","iso_a2":"MR","iso_a3":"MRT","areaKm2":1039354,"rank":2,"countryLabelMinZoom":2,"countryLabelMaxZoom":7,"capitalMinZoom":3},"geometry":{"type":"Point","coordinates":[-11.524658203125,21.14599216495789]}},{"type":"Feature","id":"TZA","properties":{"name":"Tanzania","iso_a2":"TZ","iso_a3":"TZA","areaKm2":945556,"rank":2,"countryLabelMinZoom":2,"countryLabelMaxZoom":7,"capitalMinZoom":3},"geometry":{"type":"Point","coordinates":[34.2333984375,-6.380812331938273]}},{"type":"Feature","id":"VEN","properties":{"name":"Venezuela","iso_a2":"VE","iso_a3":"VEN","areaKm2":916571,"rank":2,"countryLabelMinZoom":2,"countryLabelMaxZoom":7,"capitalMinZoom":3},"geometry":{"type":"Point","coordinates":[-65.423583984375,6.457234498765359]}},{"type":"Feature","id":"NAM","properties":{"name":"Namibia","iso_a2":"NA","iso_a3":"NAM","areaKm2":824824,"rank":2,"countryLabelMinZoom":2,"countryLabelMaxZoom":7,"capitalMinZoom":3},"geometry":{"type":"Point","coordinates":[17.20458984375,-23.089838367476702]}},{"type":"Feature","id":"MOZ","properties":{"name":"Mozambique","iso_a2":"MZ","iso_a3":"MOZ","areaKm2":791021,"rank":2,"countryLabelMinZoom":2,"countryLabelMaxZoom":7,"capitalMinZoom":3},"geometry":{"type":"Point","coordinates":[34.376220703125,-18.864706878398053]}},{"type":"Feature","id":"ZMB","properties":{"name":"Zambia","iso_a2":"ZM","iso_a3":"ZMB","areaKm2":754730,"rank":2,"countryLabelMinZoom":2,"countryLabelMaxZoom":7,"capitalMinZoom":3},"geometry":{"type":"Point","coordinates":[25.4443359375,-13.175771224423386]}},{"type":"Feature","id":"MMR","properties":{"name":"Myanmar","iso_a2":"MM","iso_a3":"MMR","areaKm2":664957,"rank":2,"countryLabelMinZoom":2,"countryLabelMaxZoom":7,"capitalMinZoom":3},"geometry":{"type":"Point","coordinates":[95.8447265625,19.52873013889763]}},{"type":"Feature","id":"AFG","properties":{"name":"Afghanistan","iso_a2":"AF","iso_a3":"AFG","areaKm2":642392,"rank":2,"countryLabelMinZoom":2,"countryLabelMaxZoom":7,"capitalMinZoom":3},"geometry":{"type":"Point","coordinates":[65.775146484375,34.05265942137599]}},{"type":"Feature","id":"SSD","properties":{"name":"South Sudan","iso_a2":"SS","iso_a3":"SSD","areaKm2":629530,"rank":2,"countryLabelMinZoom":2,"countryLabelMaxZoom":7,"capitalMinZoom":3},"geometry":{"type":"Point","coordinates":[29.091796875,7.874264687307985]}},{"type":"Feature","id":"CAF","properties":{"name":"Central African Republic","iso_a2":"CF","iso_a3":"CAF","areaKm2":620644,"rank":2,"countryLabelMinZoom":2,"countryLabelMaxZoom":7,"capitalMinZoom":3},"geometry":{"type":"Point","coordinates":[20.643310546875,6.642782900356181]}},{"type":"Feature","id":"MDG","properties":{"name":"Madagascar","iso_a2":"MG","iso_a3":"MDG","areaKm2":594753,"rank":2,"countryLabelMinZoom":2,"countryLabelMaxZoom":7,"capitalMinZoom":3},"geometry":{"type":"Point","coordinates":[46.702880859375,-18.937464429641864]}},{"type":"Feature","id":"MAR","properties":{"name":"Morocco","iso_a2":"MA","iso_a3":"MAR","areaKm2":592429,"rank":2,"countryLabelMinZoom":2,"countryLabelMaxZoom":7,"capitalMinZoom":3},"geometry":{"type":"Point","coordinates":[-9.525146484375,28.921631282421288]}},{"type":"Feature","id":"BWA","properties":{"name":"Botswana","iso_a2":"BW","iso_a3":"BWA","areaKm2":580515,"rank":2,"countryLabelMinZoom":2,"countryLabelMaxZoom":7,"capitalMinZoom":3},"geometry":{"type":"Point","coordinates":[24.45556640625,-22.421184710331858]}},{"type":"Feature","id":"UKR","properties":{"name":"Ukraine","iso_a2":"UA","iso_a3":"UKR","areaKm2":570180,"rank":2,"countryLabelMinZoom":2,"countryLabelMaxZoom":7,"capitalMinZoom":3},"geometry":{"type":"Point","coordinates":[31.080322265625,48.922499263758255]}},{"type":"Feature","id":"THA","properties":{"name":"Thailand","iso_a2":"TH","iso_a3":"THA","areaKm2":516275,"rank":2,"countryLabelMinZoom":2,"countryLabelMaxZoom":7,"capitalMinZoom":3},"geometry":{"type":"Point","coordinates":[101.6455078125,13.143677770492474]}},{"type":"Feature","id":"TKM","properties":{"name":"Turkmenistan","iso_a2":"TM","iso_a3":"TKM","areaKm2":470449,"rank":2,"countryLabelMinZoom":2,"countryLabelMaxZoom":7,"capitalMinZoom":3},"geometry":{"type":"Point","coordinates":[58.831787109375,39.07037913108752]}},{"type":"Feature","id":"CMR","properties":{"name":"Cameroon","iso_a2":"CM","iso_a3":"CMR","areaKm2":466331,"rank":2,"countryLabelMinZoom":2,"countryLabelMaxZoom":7,"capitalMinZoom":3},"geometry":{"type":"Point","coordinates":[13.64501953125,7.416942257739038]}},{"type":"Feature","id":"YEM","properties":{"name":"Yemen","iso_a2":"YE","iso_a3":"YEM","areaKm2":454649,"rank":2,"countryLabelMinZoom":2,"countryLabelMaxZoom":7,"capitalMinZoom":3},"geometry":{"type":"Point","coordinates":[47.493896484375,15.823966027173668]}},{"type":"Feature","id":"UZB","properties":{"name":"Uzbekistan","iso_a2":"UZ","iso_a3":"UZB","areaKm2":447180,"rank":2,"countryLabelMinZoom":2,"countryLabelMaxZoom":7,"capitalMinZoom":3},"geometry":{"type":"Point","coordinates":[63.336181640625,41.50857729743936]}},{"type":"Feature","id":"SWE","properties":{"name":"Sweden","iso_a2":"SE","iso_a3":"SWE","areaKm2":443493,"rank":2,"countryLabelMinZoom":2,"countryLabelMaxZoom":7,"capitalMinZoom":3},"geometry":{"type":"Point","coordinates":[14.952392578125,62.98018906929639]}},{"type":"Feature","id":"IRQ","properties":{"name":"Iraq","iso_a2":"IQ","iso_a3":"IRQ","areaKm2":437585,"rank":2,"countryLabelMinZoom":2,"countryLabelMaxZoom":7,"capitalMinZoom":3},"geometry":{"type":"Point","coordinates":[42.440185546875,33.32134852669881]}},{"type":"Feature","id":"PRY","properties":{"name":"Paraguay","iso_a2":"PY","iso_a3":"PRY","areaKm2":400858,"rank":2,"countryLabelMinZoom":2,"countryLabelMaxZoom":7,"capitalMinZoom":3},"geometry":{"type":"Point","coordinates":[-58.414306640625,-23.503551897424117]}},{"type":"Feature","id":"ZWE","properties":{"name":"Zimbabwe","iso_a2":"ZW","iso_a3":"ZWE","areaKm2":390529,"rank":2,"countryLabelMinZoom":2,"countryLabelMaxZoom":7,"capitalMinZoom":3},"geometry":{"type":"Point","coordinates":[29.388427734375,-19.041348796589006]}},{"type":"Feature","id":"NOR","properties":{"name":"Norway","iso_a2":null,"iso_a3":"NOR","areaKm2":379542,"rank":2,"countryLabelMinZoom":2,"countryLabelMaxZoom":7,"capitalMinZoom":3},"geometry":{"type":"Point","coordinates":[13.53515625,65.3668368922632]}},{"type":"Feature","id":"COG","properties":{"name":"Republic of the Congo","iso_a2":"CG","iso_a3":"COG","areaKm2":346429,"rank":2,"countryLabelMinZoom":2,"countryLabelMaxZoom":7,"capitalMinZoom":3},"geometry":{"type":"Point","coordinates":[16.072998046875,-0.6591651462894532]}},{"type":"Feature","id":"FIN","properties":{"name":"Finland","iso_a2":"FI","iso_a3":"FIN","areaKm2":330938,"rank":2,"countryLabelMinZoom":2,"countryLabelMaxZoom":7,"capitalMinZoom":3},"geometry":{"type":"Point","coordinates":[27.53173828125,65.44000165965534]}},{"type":"Feature","id":"MYS","properties":{"name":"Malaysia","iso_a2":"MY","iso_a3":"MYS","areaKm2":329335,"rank":2,"countryLabelMinZoom":2,"countryLabelMaxZoom":7,"capitalMinZoom":3},"geometry":{"type":"Point","coordinates":[114.609375,3.9409805788555303]}},{"type":"Feature","id":"CIV","properties":{"name":"Ivory Coast","iso_a2":"CI","iso_a3":"CIV","areaKm2":322039,"rank":2,"countryLabelMinZoom":2,"countryLabelMaxZoom":7,"capitalMinZoom":3},"geometry":{"type":"Point","coordinates":[-5.5810546875,7.5476556012418285]}},{"type":"Feature","id":"POL","properties":{"name":"Poland","iso_a2":"PL","iso_a3":"POL","areaKm2":312218,"rank":2,"countryLabelMinZoom":2,"countryLabelMaxZoom":7,"capitalMinZoom":3},"geometry":{"type":"Point","coordinates":[19.193115234375,52.018698081044334]}},{"type":"Feature","id":"OMN","properties":{"name":"Oman","iso_a2":"OM","iso_a3":"OMN","areaKm2":312090,"rank":2,"countryLabelMinZoom":2,"countryLabelMaxZoom":7,"capitalMinZoom":3},"geometry":{"type":"Point","coordinates":[57.008056640625,20.869077732018482]}},{"type":"Feature","id":"BFA","properties":{"name":"Burkina Faso","iso_a2":"BF","iso_a3":"BFA","areaKm2":273827,"rank":2,"countryLabelMinZoom":2,"countryLabelMaxZoom":7,"capitalMinZoom":3},"geometry":{"type":"Point","coordinates":[-1.197509765625,12.254127737657385]}},{"type":"Feature","id":"GAB","properties":{"name":"Gabon","iso_a2":"GA","iso_a3":"GAB","areaKm2":261133,"rank":2,"countryLabelMinZoom":2,"countryLabelMaxZoom":7,"capitalMinZoom":3},"geometry":{"type":"Point","coordinates":[11.7333984375,-0.812961001870832]}},{"type":"Feature","id":"ECU","properties":{"name":"Ecuador","iso_a2":"EC","iso_a3":"ECU","areaKm2":256155,"rank":2,"countryLabelMinZoom":2,"countryLabelMaxZoom":7,"capitalMinZoom":3},"geometry":{"type":"Point","coordinates":[-78.277587890625,-1.7904799982071182]}},{"type":"Feature","id":"GIN","properties":{"name":"Guinea","iso_a2":"GN","iso_a3":"GIN","areaKm2":245290,"rank":2,"countryLabelMinZoom":2,"countryLabelMaxZoom":7,"capitalMinZoom":3},"geometry":{"type":"Point","coordinates":[-9.678955078125,9.947208977327037]}},{"type":"Feature","id":"UGA","properties":{"name":"Uganda","iso_a2":"UG","iso_a3":"UGA","areaKm2":242936,"rank":2,"countryLabelMinZoom":2,"countryLabelMaxZoom":7,"capitalMinZoom":3},"geometry":{"type":"Point","coordinates":[32.684326171875,1.384142692792011]}},{"type":"Feature","id":"GHA","properties":{"name":"Ghana","iso_a2":"GH","iso_a3":"GHA","areaKm2":239676,"rank":2,"countryLabelMinZoom":2,"countryLabelMaxZoom":7,"capitalMinZoom":3},"geometry":{"type":"Point","coordinates":[-1.065673828125,7.983077720238427]}},{"type":"Feature","id":"ROU","properties":{"name":"Romania","iso_a2":"RO","iso_a3":"ROU","areaKm2":235806,"rank":2,"countryLabelMinZoom":2,"countryLabelMaxZoom":7,"capitalMinZoom":3},"geometry":{"type":"Point","coordinates":[24.202880859375,46.00459325574482]}},{"type":"Feature","id":"LAO","properties":{"name":"Laos","iso_a2":"LA","iso_a3":"LAO","areaKm2":228827,"rank":2,"countryLabelMinZoom":2,"countryLabelMaxZoom":7,"capitalMinZoom":3},"geometry":{"type":"Point","coordinates":[102.161865234375,18.260653356758368]}},{"type":"Feature","id":"GUY","properties":{"name":"Guyana","iso_a2":"GY","iso_a3":"GUY","areaKm2":212139,"rank":2,"countryLabelMinZoom":2,"countryLabelMaxZoom":7,"capitalMinZoom":3},"geometry":{"type":"Point","coordinates":[-58.95263671875,4.882994243904847]}},{"type":"Feature","id":"BLR","properties":{"name":"Belarus","iso_a2":"BY","iso_a3":"BLR","areaKm2":206632,"rank":2,"countryLabelMinZoom":2,"countryLabelMaxZoom":7,"capitalMinZoom":3},"geometry":{"type":"Point","coordinates":[27.88330078125,53.76819584019793]}},{"type":"Feature","id":"KGZ","properties":{"name":"Kyrgyzstan","iso_a2":"KG","iso_a3":"KGZ","areaKm2":198713,"rank":2,"countryLabelMinZoom":2,"countryLabelMaxZoom":7,"capitalMinZoom":3},"geometry":{"type":"Point","coordinates":[75.091552734375,41.253032440653186]}},{"type":"Feature","id":"SEN","properties":{"name":"Senegal","iso_a2":"SN","iso_a3":"SEN","areaKm2":196942,"rank":2,"countryLabelMinZoom":2,"countryLabelMaxZoom":7,"capitalMinZoom":3},"geometry":{"type":"Point","coordinates":[-14.666748046875,14.509144353358408]}},{"type":"Feature","id":"SYR","properties":{"name":"Syria","iso_a2":"SY","iso_a3":"SYR","areaKm2":185952,"rank":2,"countryLabelMinZoom":2,"countryLabelMaxZoom":7,"capitalMinZoom":3},"geometry":{"type":"Point","coordinates":[38.5400390625,34.88593094075317]}},{"type":"Feature","id":"KHM","properties":{"name":"Cambodia","iso_a2":"KH","iso_a3":"KHM","areaKm2":181754,"rank":2,"countryLabelMinZoom":2,"countryLabelMaxZoom":7,"capitalMinZoom":3},"geometry":{"type":"Point","coordinates":[105.106201171875,12.554563528593661]}},{"type":"Feature","id":"URY","properties":{"name":"Uruguay","iso_a2":"UY","iso_a3":"URY","areaKm2":177440,"rank":2,"countryLabelMinZoom":2,"countryLabelMaxZoom":7,"capitalMinZoom":3},"geometry":{"type":"Point","coordinates":[-55.777587890625,-32.56533316084102]}},{"type":"Feature","id":"TUN","properties":{"name":"Tunisia","iso_a2":"TN","iso_a3":"TUN","areaKm2":156655,"rank":2,"countryLabelMinZoom":2,"countryLabelMaxZoom":7,"capitalMinZoom":3},"geometry":{"type":"Point","coordinates":[8.81103515625,33.87041555094183]}},{"type":"Feature","id":"NPL","properties":{"name":"Nepal","iso_a2":"NP","iso_a3":"NPL","areaKm2":147324,"rank":2,"countryLabelMinZoom":2,"countryLabelMaxZoom":7,"capitalMinZoom":3},"geometry":{"type":"Point","coordinates":[83.03466796875,28.401064827220893]}},{"type":"Feature","id":"SUR","properties":{"name":"Suriname","iso_a2":"SR","iso_a3":"SUR","areaKm2":145764,"rank":2,"countryLabelMinZoom":2,"countryLabelMaxZoom":7,"capitalMinZoom":3},"geometry":{"type":"Point","coordinates":[-56.1181640625,3.9300201571114712]}},{"type":"Feature","id":"TJK","properties":{"name":"Tajikistan","iso_a2":"TJ","iso_a3":"TJK","areaKm2":142136,"rank":2,"countryLabelMinZoom":2,"countryLabelMaxZoom":7,"capitalMinZoom":3},"geometry":{"type":"Point","coordinates":[70.927734375,38.89103282648847]}},{"type":"Feature","id":"BGD","properties":{"name":"Bangladesh","iso_a2":"BD","iso_a3":"BGD","areaKm2":137217,"rank":2,"countryLabelMinZoom":2,"countryLabelMaxZoom":7,"capitalMinZoom":3},"geometry":{"type":"Point","coordinates":[89.84619140625,23.71495350699027]}},{"type":"Feature","id":"GRC","properties":{"name":"Greece","iso_a2":"GR","iso_a3":"GRC","areaKm2":131244,"rank":2,"countryLabelMinZoom":2,"countryLabelMaxZoom":7,"capitalMinZoom":3},"geometry":{"type":"Point","coordinates":[21.763916015625,39.12153746241924]}},{"type":"Feature","id":"ERI","properties":{"name":"Eritrea","iso_a2":"ER","iso_a3":"ERI","areaKm2":122972,"rank":2,"countryLabelMinZoom":2,"countryLabelMaxZoom":7,"capitalMinZoom":3},"geometry":{"type":"Point","coordinates":[38.1005859375,15.199386048560001]}},{"type":"Feature","id":"PRK","properties":{"name":"North Korea","iso_a2":"KP","iso_a3":"PRK","areaKm2":122246,"rank":2,"countryLabelMinZoom":2,"countryLabelMaxZoom":7,"capitalMinZoom":3},"geometry":{"type":"Point","coordinates":[126.84814453125,40.39676430557205]}},{"type":"Feature","id":"BGR","properties":{"name":"Bulgaria","iso_a2":"BG","iso_a3":"BGR","areaKm2":112568,"rank":2,"countryLabelMinZoom":2,"countryLabelMaxZoom":7,"capitalMinZoom":3},"geometry":{"type":"Point","coordinates":[25.1806640625,42.755079545072135]}},{"type":"Feature","id":"CUB","properties":{"name":"Cuba","iso_a2":"CU","iso_a3":"CUB","areaKm2":110222,"rank":2,"countryLabelMinZoom":2,"countryLabelMaxZoom":7,"capitalMinZoom":3},"geometry":{"type":"Point","coordinates":[-77.947998046875,21.534847002048792]}},{"type":"Feature","id":"GTM","properties":{"name":"Guatemala","iso_a2":"GT","iso_a3":"GTM","areaKm2":109192,"rank":2,"countryLabelMinZoom":2,"countryLabelMaxZoom":7,"capitalMinZoom":3},"geometry":{"type":"Point","coordinates":[-90.296630859375,15.781681647639417]}},{"type":"Feature","id":"ISL","properties":{"name":"Iceland","iso_a2":"IS","iso_a3":"ISL","areaKm2":101723,"rank":2,"countryLabelMinZoom":2,"countryLabelMaxZoom":7,"capitalMinZoom":3},"geometry":{"type":"Point","coordinates":[-18.270263671875,65.01186571301733]}},{"type":"Feature","id":"LBR","properties":{"name":"Liberia","iso_a2":"LR","iso_a3":"LBR","areaKm2":95710,"rank":2,"countryLabelMinZoom":2,"countryLabelMaxZoom":7,"capitalMinZoom":3},"geometry":{"type":"Point","coordinates":[-9.68994140625,6.468151012664208]}},{"type":"Feature","id":"JOR","properties":{"name":"Jordan","iso_a2":"JO","iso_a3":"JOR","areaKm2":88940,"rank":2,"countryLabelMinZoom":2,"countryLabelMaxZoom":7,"capitalMinZoom":3},"geometry":{"type":"Point","coordinates":[36.287841796875,31.31610138349565]}},{"type":"Feature","id":"AUT","properties":{"name":"Austria","iso_a2":"AT","iso_a3":"AUT","areaKm2":83756,"rank":2,"countryLabelMinZoom":2,"countryLabelMaxZoom":7,"capitalMinZoom":3},"geometry":{"type":"Point","coordinates":[14.776611328125,47.7097615426664]}},{"type":"Feature","id":"PAN","properties":{"name":"Panama","iso_a2":"PA","iso_a3":"PAN","areaKm2":74843,"rank":2,"countryLabelMinZoom":2,"countryLabelMaxZoom":7,"capitalMinZoom":3},"geometry":{"type":"Point","coordinates":[-81.463623046875,8.41803628077436]}},{"type":"Feature","id":"SLE","properties":{"name":"Sierra Leone","iso_a2":"SL","iso_a3":"SLE","areaKm2":71912,"rank":2,"countryLabelMinZoom":2,"countryLabelMaxZoom":7,"capitalMinZoom":3},"geometry":{"type":"Point","coordinates":[-11.88720703125,8.461505694920902]}},{"type":"Feature","id":"ARE","properties":{"name":"United Arab Emirates","iso_a2":"AE","iso_a3":"ARE","areaKm2":71247,"rank":2,"countryLabelMinZoom":2,"countryLabelMaxZoom":7,"capitalMinZoom":3},"geometry":{"type":"Point","coordinates":[55.140380859375,24.357105493969726]}},{"type":"Feature","id":"IRL","properties":{"name":"Ireland","iso_a2":"IE","iso_a3":"IRL","areaKm2":69160,"rank":2,"countryLabelMinZoom":2,"countryLabelMaxZoom":7,"capitalMinZoom":3},"geometry":{"type":"Point","coordinates":[-8.1298828125,53.46189043285912]}},{"type":"Feature","id":"LKA","properties":{"name":"Sri Lanka","iso_a2":"LK","iso_a3":"LKA","areaKm2":66573,"rank":2,"countryLabelMinZoom":2,"countryLabelMaxZoom":7,"capitalMinZoom":3},"geometry":{"type":"Point","coordinates":[80.672607421875,7.874264687307985]}},{"type":"Feature","id":"DNK","properties":{"name":"Denmark","iso_a2":"DK","iso_a3":"DNK","areaKm2":42494,"rank":2,"countryLabelMinZoom":2,"countryLabelMaxZoom":7,"capitalMinZoom":3},"geometry":{"type":"Point","coordinates":[9.51416015625,56.316536722113]}},{"type":"Feature","id":"CHE","properties":{"name":"Switzerland","iso_a2":"CH","iso_a3":"CHE","areaKm2":41326,"rank":2,"countryLabelMinZoom":2,"countryLabelMaxZoom":7,"capitalMinZoom":3},"geometry":{"type":"Point","coordinates":[8.4375,46.822616668804926]}},{"type":"Feature","id":"TWN","properties":{"name":"Taiwan","iso_a2":"CN-TW","iso_a3":"TWN","areaKm2":36281,"rank":2,"countryLabelMinZoom":2,"countryLabelMaxZoom":7,"capitalMinZoom":3},"geometry":{"type":"Point","coordinates":[120.82763671875,23.61432859499169]}},{"type":"Feature","id":"SLB","properties":{"name":"Solomon Islands","iso_a2":"SB","iso_a3":"SLB","areaKm2":27312,"rank":2,"countryLabelMinZoom":2,"countryLabelMaxZoom":7,"capitalMinZoom":3},"geometry":{"type":"Point","coordinates":[160.147705078125,-9.589917307087418]}},{"type":"Feature","id":"GNQ","properties":{"name":"Equatorial Guinea","iso_a2":"GQ","iso_a3":"GNQ","areaKm2":26791,"rank":2,"countryLabelMinZoom":2,"countryLabelMaxZoom":7,"capitalMinZoom":3},"geometry":{"type":"Point","coordinates":[10.469970703125,1.6257583604127603]}},{"type":"Feature","id":"RWA","properties":{"name":"Rwanda","iso_a2":"RW","iso_a3":"RWA","areaKm2":25418,"rank":2,"countryLabelMinZoom":2,"countryLabelMaxZoom":7,"capitalMinZoom":3},"geometry":{"type":"Point","coordinates":[29.981689453125,-1.94420686583085]}},{"type":"Feature","id":"ISR","properties":{"name":"Israel","iso_a2":"IL","iso_a3":"ISR","areaKm2":22120,"rank":2,"countryLabelMinZoom":2,"countryLabelMaxZoom":7,"capitalMinZoom":3},"geometry":{"type":"Point","coordinates":[34.683837890625,31.475524020001814]}},{"type":"Feature","id":"NCL","properties":{"name":"New Caledonia","iso_a2":"NC","iso_a3":"NCL","areaKm2":18892,"rank":2,"countryLabelMinZoom":2,"countryLabelMaxZoom":7,"capitalMinZoom":3},"geometry":{"type":"Point","coordinates":[165.25634765625,-21.248422235627018]}},{"type":"Feature","id":"SWZ","properties":{"name":"Eswatini","iso_a2":"SZ","iso_a3":"SWZ","areaKm2":17143,"rank":2,"countryLabelMinZoom":2,"countryLabelMaxZoom":7,"capitalMinZoom":3},"geometry":{"type":"Point","coordinates":[31.44287109375,-26.539394329017036]}},{"type":"Feature","id":"HKG","properties":{"name":"Hong Kong","iso_a2":"HK","iso_a3":"HKG","areaKm2":1039,"rank":2,"countryLabelMinZoom":2,"countryLabelMaxZoom":7,"capitalMinZoom":3},"geometry":{"type":"Point","coordinates":[114.06005859375,22.411028521558706]}},{"type":"Feature","id":"MAC","properties":{"name":"Macau","iso_a2":"MO","iso_a3":"MAC","areaKm2":30,"rank":2,"countryLabelMinZoom":2,"countryLabelMaxZoom":7,"capitalMinZoom":3},"geometry":{"type":"Point","coordinates":[113.5546875,22.13653163760968]}},{"type":"Feature","id":"SOM","properties":{"name":"Somalia","iso_a2":"SO","iso_a3":"SOM","areaKm2":473872,"rank":3,"countryLabelMinZoom":3,"countryLabelMaxZoom":7,"capitalMinZoom":4},"geometry":{"type":"Point","coordinates":[46.812744140625,5.189423479732426]}},{"type":"Feature","id":"ITA","properties":{"name":"Italy","iso_a2":"IT","iso_a3":"ITA","areaKm2":300678,"rank":3,"countryLabelMinZoom":3,"countryLabelMaxZoom":7,"capitalMinZoom":4},"geometry":{"type":"Point","coordinates":[12.45849609375,41.902277040963696]}},{"type":"Feature","id":"NIC","properties":{"name":"Nicaragua","iso_a2":"NI","iso_a3":"NIC","areaKm2":129177,"rank":3,"countryLabelMinZoom":3,"countryLabelMaxZoom":7,"capitalMinZoom":4},"geometry":{"type":"Point","coordinates":[-85.58349609375,12.886779800847037]}},{"type":"Feature","id":"MWI","properties":{"name":"Malawi","iso_a2":"MW","iso_a3":"MWI","areaKm2":119849,"rank":3,"countryLabelMinZoom":3,"countryLabelMaxZoom":7,"capitalMinZoom":4},"geometry":{"type":"Point","coordinates":[33.739013671875,-13.272026301199958]}},{"type":"Feature","id":"BEN","properties":{"name":"Benin","iso_a2":"BJ","iso_a3":"BEN","areaKm2":116590,"rank":3,"countryLabelMinZoom":3,"countryLabelMaxZoom":7,"capitalMinZoom":4},"geometry":{"type":"Point","coordinates":[2.28515625,9.308148692484806]}},{"type":"Feature","id":"HND","properties":{"name":"Honduras","iso_a2":"HN","iso_a3":"HND","areaKm2":112642,"rank":3,"countryLabelMinZoom":3,"countryLabelMaxZoom":7,"capitalMinZoom":4},"geometry":{"type":"Point","coordinates":[-87.2314453125,14.509144353358408]}},{"type":"Feature","id":"HUN","properties":{"name":"Hungary","iso_a2":"HU","iso_a3":"HUN","areaKm2":92947,"rank":3,"countryLabelMinZoom":3,"countryLabelMaxZoom":7,"capitalMinZoom":4},"geometry":{"type":"Point","coordinates":[19.127197265625,47.174778339299024]}},{"type":"Feature","id":"AZE","properties":{"name":"Azerbaijan","iso_a2":"AZ","iso_a3":"AZE","areaKm2":86153,"rank":3,"countryLabelMinZoom":3,"countryLabelMaxZoom":7,"capitalMinZoom":4},"geometry":{"type":"Point","coordinates":[47.735595703125,40.16208338164617]}},{"type":"Feature","id":"CZE","properties":{"name":"Czech Republic","iso_a2":"CZ","iso_a3":"CZE","areaKm2":78497,"rank":3,"countryLabelMinZoom":3,"countryLabelMaxZoom":7,"capitalMinZoom":4},"geometry":{"type":"Point","coordinates":[15.5126953125,49.8096315635631]}},{"type":"Feature","id":"SRB","properties":{"name":"Serbia","iso_a2":"RS","iso_a3":"SRB","areaKm2":77470,"rank":3,"countryLabelMinZoom":3,"countryLabelMaxZoom":7,"capitalMinZoom":4},"geometry":{"type":"Point","coordinates":[21.016845703125,44.237328318225366]}},{"type":"Feature","id":"GEO","properties":{"name":"Georgia","iso_a2":"GE","iso_a3":"GEO","areaKm2":69462,"rank":3,"countryLabelMinZoom":3,"countryLabelMaxZoom":7,"capitalMinZoom":4},"geometry":{"type":"Point","coordinates":[43.6376953125,42.28543700749154]}},{"type":"Feature","id":"LTU","properties":{"name":"Lithuania","iso_a2":"LT","iso_a3":"LTU","areaKm2":64641,"rank":3,"countryLabelMinZoom":3,"countryLabelMaxZoom":7,"capitalMinZoom":4},"geometry":{"type":"Point","coordinates":[24.1259765625,55.18514054299149]}},{"type":"Feature","id":"LVA","properties":{"name":"Latvia","iso_a2":"LV","iso_a3":"LVA","areaKm2":64259,"rank":3,"countryLabelMinZoom":3,"countryLabelMaxZoom":7,"capitalMinZoom":4},"geometry":{"type":"Point","coordinates":[24.422607421875,56.89700392127261]}},{"type":"Feature","id":"TGO","properties":{"name":"Togo","iso_a2":"TG","iso_a3":"TGO","areaKm2":57102,"rank":3,"countryLabelMinZoom":3,"countryLabelMaxZoom":7,"capitalMinZoom":4},"geometry":{"type":"Point","coordinates":[1.0107421875,8.63533405076312]}},{"type":"Feature","id":"HRV","properties":{"name":"Croatia","iso_a2":"HR","iso_a3":"HRV","areaKm2":54900,"rank":3,"countryLabelMinZoom":3,"countryLabelMaxZoom":7,"capitalMinZoom":4},"geometry":{"type":"Point","coordinates":[15.303955078125,44.77793589631622]}},{"type":"Feature","id":"BIH","properties":{"name":"Bosnia and Herzegovina","iso_a2":"BA","iso_a3":"BIH","areaKm2":51722,"rank":3,"countryLabelMinZoom":3,"countryLabelMaxZoom":7,"capitalMinZoom":4},"geometry":{"type":"Point","coordinates":[17.896728515625,43.945372392442096]}},{"type":"Feature","id":"CRI","properties":{"name":"Costa Rica","iso_a2":"CR","iso_a3":"CRI","areaKm2":51360,"rank":3,"countryLabelMinZoom":3,"countryLabelMaxZoom":7,"capitalMinZoom":4},"geometry":{"type":"Point","coordinates":[-83.638916015625,9.633245727691204]}},{"type":"Feature","id":"DOM","properties":{"name":"Dominican Republic","iso_a2":"DO","iso_a3":"DOM","areaKm2":48589,"rank":3,"countryLabelMinZoom":3,"countryLabelMaxZoom":7,"capitalMinZoom":4},"geometry":{"type":"Point","coordinates":[-70.125732421875,18.781516724349714]}},{"type":"Feature","id":"SVK","properties":{"name":"Slovakia","iso_a2":"SK","iso_a3":"SVK","areaKm2":48308,"rank":3,"countryLabelMinZoom":3,"countryLabelMaxZoom":7,"capitalMinZoom":4},"geometry":{"type":"Point","coordinates":[19.654541015625,48.69096039092548]}},{"type":"Feature","id":"EST","properties":{"name":"Estonia","iso_a2":"EE","iso_a3":"EST","areaKm2":45576,"rank":3,"countryLabelMinZoom":3,"countryLabelMaxZoom":7,"capitalMinZoom":4},"geometry":{"type":"Point","coordinates":[25.48828125,58.614055811222414]}},{"type":"Feature","id":"BTN","properties":{"name":"Bhutan","iso_a2":"BT","iso_a3":"BTN","areaKm2":40488,"rank":3,"countryLabelMinZoom":3,"countryLabelMaxZoom":7,"capitalMinZoom":4},"geometry":{"type":"Point","coordinates":[90.296630859375,27.52775820686189]}},{"type":"Feature","id":"NLD","properties":{"name":"Netherlands","iso_a2":"NL","iso_a3":"NLD","areaKm2":37253,"rank":3,"countryLabelMinZoom":3,"countryLabelMaxZoom":7,"capitalMinZoom":4},"geometry":{"type":"Point","coordinates":[5.5810546875,52.13348804077148]}},{"type":"Feature","id":"MDA","properties":{"name":"Moldova","iso_a2":"MD","iso_a3":"MDA","areaKm2":33116,"rank":3,"countryLabelMinZoom":3,"countryLabelMaxZoom":7,"capitalMinZoom":4},"geometry":{"type":"Point","coordinates":[28.817138671875,47.00273390667883]}},{"type":"Feature","id":"GNB","properties":{"name":"Guinea-Bissau","iso_a2":"GW","iso_a3":"GNB","areaKm2":32957,"rank":3,"countryLabelMinZoom":3,"countryLabelMaxZoom":7,"capitalMinZoom":4},"geometry":{"type":"Point","coordinates":[-14.359130859375,11.802834233547685]}},{"type":"Feature","id":"LSO","properties":{"name":"Lesotho","iso_a2":"LS","iso_a3":"LSO","areaKm2":30143,"rank":3,"countryLabelMinZoom":3,"countryLabelMaxZoom":7,"capitalMinZoom":4},"geometry":{"type":"Point","coordinates":[28.157958984375,-29.62122111378448]}},{"type":"Feature","id":"ARM","properties":{"name":"Armenia","iso_a2":"AM","iso_a3":"ARM","areaKm2":29555,"rank":3,"countryLabelMinZoom":3,"countryLabelMaxZoom":7,"capitalMinZoom":4},"geometry":{"type":"Point","coordinates":[44.82421875,40.08647729380883]}},{"type":"Feature","id":"ALB","properties":{"name":"Albania","iso_a2":"AL","iso_a3":"ALB","areaKm2":28298,"rank":3,"countryLabelMinZoom":3,"countryLabelMaxZoom":7,"capitalMinZoom":4},"geometry":{"type":"Point","coordinates":[20.006103515625,41.170384477816185]}},{"type":"Feature","id":"BDI","properties":{"name":"Burundi","iso_a2":"BI","iso_a3":"BDI","areaKm2":27161,"rank":3,"countryLabelMinZoom":3,"countryLabelMaxZoom":7,"capitalMinZoom":4},"geometry":{"type":"Point","coordinates":[29.915771484375,-3.3818237353282825]}},{"type":"Feature","id":"HTI","properties":{"name":"Haiti","iso_a2":"HT","iso_a3":"HTI","areaKm2":26974,"rank":3,"countryLabelMinZoom":3,"countryLabelMaxZoom":7,"capitalMinZoom":4},"geometry":{"type":"Point","coordinates":[-72.279052734375,18.979025953255274]}},{"type":"Feature","id":"MKD","properties":{"name":"North Macedonia","iso_a2":"MK","iso_a3":"MKD","areaKm2":25349,"rank":3,"countryLabelMinZoom":3,"countryLabelMaxZoom":7,"capitalMinZoom":4},"geometry":{"type":"Point","coordinates":[21.73095703125,41.615442324681084]}},{"type":"Feature","id":"BLZ","properties":{"name":"Belize","iso_a2":"BZ","iso_a3":"BLZ","areaKm2":22373,"rank":3,"countryLabelMinZoom":3,"countryLabelMaxZoom":7,"capitalMinZoom":4},"geometry":{"type":"Point","coordinates":[-88.7255859375,17.19327473661282]}},{"type":"Feature","id":"DJI","properties":{"name":"Djibouti","iso_a2":"DJ","iso_a3":"DJI","areaKm2":21934,"rank":3,"countryLabelMinZoom":3,"countryLabelMaxZoom":7,"capitalMinZoom":4},"geometry":{"type":"Point","coordinates":[42.4951171875,11.824341483849054]}},{"type":"Feature","id":"SLV","properties":{"name":"El Salvador","iso_a2":"SV","iso_a3":"SLV","areaKm2":20616,"rank":3,"countryLabelMinZoom":3,"countryLabelMaxZoom":7,"capitalMinZoom":4},"geometry":{"type":"Point","coordinates":[-88.912353515625,13.806075369084937]}},{"type":"Feature","id":"SVN","properties":{"name":"Slovenia","iso_a2":"SI","iso_a3":"SVN","areaKm2":20277,"rank":3,"countryLabelMinZoom":3,"countryLabelMaxZoom":7,"capitalMinZoom":4},"geometry":{"type":"Point","coordinates":[14.61181640625,46.14939437647686]}},{"type":"Feature","id":"KWT","properties":{"name":"Kuwait","iso_a2":"KW","iso_a3":"KWT","areaKm2":17496,"rank":3,"countryLabelMinZoom":3,"countryLabelMaxZoom":7,"capitalMinZoom":4},"geometry":{"type":"Point","coordinates":[47.4169921875,29.315141193187273]}},{"type":"Feature","id":"TLS","properties":{"name":"East Timor","iso_a2":"TL","iso_a3":"TLS","areaKm2":15145,"rank":3,"countryLabelMinZoom":3,"countryLabelMaxZoom":7,"capitalMinZoom":4},"geometry":{"type":"Point","coordinates":[125.760498046875,-8.885071663468977]}},{"type":"Feature","id":"MNE","properties":{"name":"Montenegro","iso_a2":"ME","iso_a3":"MNE","areaKm2":13704,"rank":3,"countryLabelMinZoom":3,"countryLabelMaxZoom":7,"capitalMinZoom":4},"geometry":{"type":"Point","coordinates":[19.2919921875,42.69858589169843]}},{"type":"Feature","id":"VUT","properties":{"name":"Vanuatu","iso_a2":"VU","iso_a3":"VUT","areaKm2":12339,"rank":3,"countryLabelMinZoom":3,"countryLabelMaxZoom":7,"capitalMinZoom":4},"geometry":{"type":"Point","coordinates":[167.0361328125,-15.146369299638835]}},{"type":"Feature","id":"FLK","properties":{"name":"Falkland Islands","iso_a2":"FK","iso_a3":"FLK","areaKm2":11553,"rank":3,"countryLabelMinZoom":3,"countryLabelMaxZoom":7,"capitalMinZoom":4},"geometry":{"type":"Point","coordinates":[-58.60107421875,-51.80182150078304]}},{"type":"Feature","id":"QAT","properties":{"name":"Qatar","iso_a2":"QA","iso_a3":"QAT","areaKm2":11173,"rank":3,"countryLabelMinZoom":3,"countryLabelMaxZoom":7,"capitalMinZoom":4},"geometry":{"type":"Point","coordinates":[51.141357421875,25.363882272740256]}},{"type":"Feature","id":"JAM","properties":{"name":"Jamaica","iso_a2":"JM","iso_a3":"JAM","areaKm2":11068,"rank":3,"countryLabelMinZoom":3,"countryLabelMaxZoom":7,"capitalMinZoom":4},"geometry":{"type":"Point","coordinates":[-77.178955078125,18.114529138838506]}},{"type":"Feature","id":"XKX","properties":{"name":"Kosovo","iso_a2":null,"iso_a3":"XKX","areaKm2":10895,"rank":3,"countryLabelMinZoom":3,"countryLabelMaxZoom":7,"capitalMinZoom":4},"geometry":{"type":"Point","coordinates":[20.89599609375,42.55308028895581]}},{"type":"Feature","id":"GMB","properties":{"name":"The Gambia","iso_a2":"GM","iso_a3":"GMB","areaKm2":10541,"rank":3,"countryLabelMinZoom":3,"countryLabelMaxZoom":7,"capitalMinZoom":4},"geometry":{"type":"Point","coordinates":[-14.337158203125,13.443052132777552]}},{"type":"Feature","id":"LBN","properties":{"name":"Lebanon","iso_a2":"LB","iso_a3":"LBN","areaKm2":10007,"rank":3,"countryLabelMinZoom":3,"countryLabelMaxZoom":7,"capitalMinZoom":4},"geometry":{"type":"Point","coordinates":[35.892333984375,33.87953701355924]}},{"type":"Feature","id":"PRI","properties":{"name":"Puerto Rico","iso_a2":"PR","iso_a3":"PRI","areaKm2":9035,"rank":3,"countryLabelMinZoom":3,"countryLabelMaxZoom":7,"capitalMinZoom":4},"geometry":{"type":"Point","coordinates":[-66.4013671875,18.218916080017465]}},{"type":"Feature","id":"PSE","properties":{"name":"Palestine","iso_a2":"PS","iso_a3":"PSE","areaKm2":6079,"rank":3,"countryLabelMinZoom":3,"countryLabelMaxZoom":7,"capitalMinZoom":4},"geometry":{"type":"Point","coordinates":[35.277099609375,31.94283997285308]}},{"type":"Feature","id":"BRN","properties":{"name":"Brunei","iso_a2":"BN","iso_a3":"BRN","areaKm2":5742,"rank":3,"countryLabelMinZoom":3,"countryLabelMaxZoom":7,"capitalMinZoom":4},"geometry":{"type":"Point","coordinates":[114.466552734375,4.532618393971774]}},{"type":"Feature","id":"CYP","properties":{"name":"Cyprus","iso_a2":"CY","iso_a3":"CYP","areaKm2":5396,"rank":3,"countryLabelMinZoom":3,"countryLabelMaxZoom":7,"capitalMinZoom":4},"geometry":{"type":"Point","coordinates":[32.98095703125,34.903952965590065]}},{"type":"Feature","id":"LUX","properties":{"name":"Luxembourg","iso_a2":"LU","iso_a3":"LUX","areaKm2":2600,"rank":3,"countryLabelMinZoom":3,"countryLabelMaxZoom":7,"capitalMinZoom":4},"geometry":{"type":"Point","coordinates":[6.053466796875,49.8096315635631]}},{"type":"Feature","id":"AND","properties":{"name":"Andorra","iso_a2":"AD","iso_a3":"AND","areaKm2":451,"rank":3,"countryLabelMinZoom":3,"countryLabelMaxZoom":7,"capitalMinZoom":4},"geometry":{"type":"Point","coordinates":[1.56005859375,42.53689200787315]}},{"type":"Feature","id":"LIE","properties":{"name":"Liechtenstein","iso_a2":"LI","iso_a3":"LIE","areaKm2":137,"rank":3,"countryLabelMinZoom":3,"countryLabelMaxZoom":7,"capitalMinZoom":4},"geometry":{"type":"Point","coordinates":[9.5361328125,47.15984001304432]}},{"type":"Feature","id":"SMR","properties":{"name":"San Marino","iso_a2":"SM","iso_a3":"SMR","areaKm2":60,"rank":3,"countryLabelMinZoom":3,"countryLabelMaxZoom":7,"capitalMinZoom":4},"geometry":{"type":"Point","coordinates":[12.4365234375,43.93746169031664]}},{"type":"Feature","id":"MCO","properties":{"name":"Monaco","iso_a2":"MC","iso_a3":"MCO","areaKm2":19,"rank":3,"countryLabelMinZoom":3,"countryLabelMaxZoom":7,"capitalMinZoom":4},"geometry":{"type":"Point","coordinates":[7.40478515625,43.73935207915471]}},{"type":"Feature","id":"GIB","properties":{"name":"Gibraltar","iso_a2":"GI","iso_a3":"GIB","areaKm2":4,"rank":3,"countryLabelMinZoom":3,"countryLabelMaxZoom":7,"capitalMinZoom":4},"geometry":{"type":"Point","coordinates":[-5.350341796875,36.12900165569653]}},{"type":"Feature","id":"ESH","properties":{"name":"Western Sahara","iso_a2":"EH","iso_a3":"ESH","areaKm2":90696,"rank":4,"countryLabelMinZoom":4,"countryLabelMaxZoom":8,"capitalMinZoom":5},"geometry":{"type":"Point","coordinates":[-12.568359375,24.27701247166408]}},{"type":"Feature","id":"FJI","properties":{"name":"Fiji","iso_a2":"FJ","iso_a3":"FJI","areaKm2":18992,"rank":4,"countryLabelMinZoom":4,"countryLabelMaxZoom":8,"capitalMinZoom":5},"geometry":{"type":"Point","coordinates":[177.989501953125,-17.790535393588968]}},{"type":"Feature","id":"BHS","properties":{"name":"The Bahamas","iso_a2":"BS","iso_a3":"BHS","areaKm2":12632,"rank":4,"countryLabelMinZoom":4,"countryLabelMaxZoom":8,"capitalMinZoom":5},"geometry":{"type":"Point","coordinates":[-78.035888671875,24.74683129841206]}},{"type":"Feature","id":"TTO","properties":{"name":"Trinidad and Tobago","iso_a2":"TT","iso_a3":"TTO","areaKm2":5144,"rank":4,"countryLabelMinZoom":4,"countryLabelMaxZoom":8,"capitalMinZoom":5},"geometry":{"type":"Point","coordinates":[-61.259765625,10.444597722834871]}},{"type":"Feature","id":"CPV","properties":{"name":"Cape Verde","iso_a2":"CV","iso_a3":"CPV","areaKm2":3940,"rank":4,"countryLabelMinZoom":4,"countryLabelMaxZoom":8,"capitalMinZoom":5},"geometry":{"type":"Point","coordinates":[-23.642578125,15.125158878585296]}},{"type":"Feature","id":"SGS","properties":{"name":"South Georgia and the South Sandwich Islands","iso_a2":"GS","iso_a3":"SGS","areaKm2":3904,"rank":4,"countryLabelMinZoom":4,"countryLabelMaxZoom":8,"capitalMinZoom":5},"geometry":{"type":"Point","coordinates":[-36.485595703125,-54.431712859468426]}},{"type":"Feature","id":"PYF","properties":{"name":"French Polynesia","iso_a2":"PF","iso_a3":"PYF","areaKm2":3348,"rank":4,"countryLabelMinZoom":4,"countryLabelMaxZoom":8,"capitalMinZoom":5},"geometry":{"type":"Point","coordinates":[-149.468994140625,-17.675427818339386]}},{"type":"Feature","id":"WSM","properties":{"name":"Samoa","iso_a2":"WS","iso_a3":"WSM","areaKm2":2791,"rank":4,"countryLabelMinZoom":4,"countryLabelMaxZoom":8,"capitalMinZoom":5},"geometry":{"type":"Point","coordinates":[-172.430419921875,-13.635310367863752]}},{"type":"Feature","id":"MUS","properties":{"name":"Mauritius","iso_a2":"MU","iso_a3":"MUS","areaKm2":2020,"rank":4,"countryLabelMinZoom":4,"countryLabelMaxZoom":8,"capitalMinZoom":5},"geometry":{"type":"Point","coordinates":[57.579345703125,-20.251890313952927]}},{"type":"Feature","id":"CUW","properties":{"name":"Curaçao","iso_a2":"CW","iso_a3":"CUW","areaKm2":465,"rank":4,"countryLabelMinZoom":4,"countryLabelMaxZoom":8,"capitalMinZoom":5},"geometry":{"type":"Point","coordinates":[-69.0380859375,12.211180191503999]}},{"type":"Feature","id":"BRB","properties":{"name":"Barbados","iso_a2":"BB","iso_a3":"BRB","areaKm2":446,"rank":4,"countryLabelMinZoom":4,"countryLabelMaxZoom":8,"capitalMinZoom":5},"geometry":{"type":"Point","coordinates":[-59.56787109375,13.197164523281984]}},{"type":"Feature","id":"CYM","properties":{"name":"Cayman Islands","iso_a2":"KY","iso_a3":"CYM","areaKm2":310,"rank":4,"countryLabelMinZoom":4,"countryLabelMaxZoom":8,"capitalMinZoom":5},"geometry":{"type":"Point","coordinates":[-81.177978515625,19.331878440818784]}},{"type":"Feature","id":"SPM","properties":{"name":"Saint Pierre and Miquelon","iso_a2":"PM","iso_a3":"SPM","areaKm2":242,"rank":4,"countryLabelMinZoom":4,"countryLabelMaxZoom":8,"capitalMinZoom":5},"geometry":{"type":"Point","coordinates":[-56.326904296875,46.96525940034928]}},{"type":"Feature","id":"ABW","properties":{"name":"Aruba","iso_a2":"AW","iso_a3":"ABW","areaKm2":170,"rank":4,"countryLabelMinZoom":4,"countryLabelMaxZoom":8,"capitalMinZoom":5},"geometry":{"type":"Point","coordinates":[-69.98291015625,12.522390602069194]}},{"type":"Feature","id":"ATF","properties":{"name":"French Southern and Antarctic Lands","iso_a2":"TF","iso_a3":"ATF","areaKm2":7257,"rank":5,"countryLabelMinZoom":5,"countryLabelMaxZoom":8,"capitalMinZoom":6},"geometry":{"type":"Point","coordinates":[70.224609375,-49.19247423824003]}},{"type":"Feature","id":"COM","properties":{"name":"Comoros","iso_a2":"KM","iso_a3":"COM","areaKm2":1679,"rank":5,"countryLabelMinZoom":5,"countryLabelMaxZoom":8,"capitalMinZoom":6},"geometry":{"type":"Point","coordinates":[43.3135986328125,-11.646856393732364]}},{"type":"Feature","id":"STP","properties":{"name":"São Tomé and Príncipe","iso_a2":"ST","iso_a3":"STP","areaKm2":1042,"rank":5,"countryLabelMinZoom":5,"countryLabelMaxZoom":8,"capitalMinZoom":6},"geometry":{"type":"Point","coordinates":[6.602783203125,0.21423289925023425]}},{"type":"Feature","id":"KIR","properties":{"name":"Kiribati","iso_a2":"KI","iso_a3":"KIR","areaKm2":954,"rank":5,"countryLabelMinZoom":5,"countryLabelMaxZoom":8,"capitalMinZoom":6},"geometry":{"type":"Point","coordinates":[-157.379150390625,1.8728353512547784]}},{"type":"Feature","id":"ALA","properties":{"name":"Åland","iso_a2":"AX","iso_a3":"ALA","areaKm2":937,"rank":5,"countryLabelMinZoom":5,"countryLabelMaxZoom":8,"capitalMinZoom":6},"geometry":{"type":"Point","coordinates":[19.92919921875,60.22890276751329]}},{"type":"Feature","id":"DMA","properties":{"name":"Dominica","iso_a2":"DM","iso_a3":"DMA","areaKm2":733,"rank":5,"countryLabelMinZoom":5,"countryLabelMaxZoom":8,"capitalMinZoom":6},"geometry":{"type":"Point","coordinates":[-61.34765625,15.427205708440837]}},{"type":"Feature","id":"BHR","properties":{"name":"Bahrain","iso_a2":"BH","iso_a3":"BHR","areaKm2":689,"rank":5,"countryLabelMinZoom":5,"countryLabelMaxZoom":8,"capitalMinZoom":6},"geometry":{"type":"Point","coordinates":[50.5426025390625,26.002487141945764]}},{"type":"Feature","id":"LCA","properties":{"name":"Saint Lucia","iso_a2":"LC","iso_a3":"LCA","areaKm2":607,"rank":5,"countryLabelMinZoom":5,"countryLabelMaxZoom":8,"capitalMinZoom":6},"geometry":{"type":"Point","coordinates":[-60.9796142578125,13.912740120941834]}},{"type":"Feature","id":"TON","properties":{"name":"Tonga","iso_a2":"TO","iso_a3":"TON","areaKm2":605,"rank":5,"countryLabelMinZoom":5,"countryLabelMaxZoom":8,"capitalMinZoom":6},"geometry":{"type":"Point","coordinates":[-175.2813720703125,-21.166483858206576]}},{"type":"Feature","id":"SGP","properties":{"name":"Singapore","iso_a2":"SG","iso_a3":"SGP","areaKm2":513,"rank":5,"countryLabelMinZoom":5,"countryLabelMaxZoom":8,"capitalMinZoom":6},"geometry":{"type":"Point","coordinates":[103.831787109375,1.362176346664171]}},{"type":"Feature","id":"ATG","properties":{"name":"Antigua and Barbuda","iso_a2":"AG","iso_a3":"ATG","areaKm2":453,"rank":5,"countryLabelMinZoom":5,"countryLabelMaxZoom":8,"capitalMinZoom":6},"geometry":{"type":"Point","coordinates":[-61.787109375,17.07778960654538]}},{"type":"Feature","id":"HMD","properties":{"name":"Heard Island and McDonald Islands","iso_a2":"HM","iso_a3":"HMD","areaKm2":393,"rank":5,"countryLabelMinZoom":5,"countryLabelMaxZoom":8,"capitalMinZoom":6},"geometry":{"type":"Point","coordinates":[73.5205078125,-53.08412692217883]}},{"type":"Feature","id":"VCT","properties":{"name":"Saint Vincent and the Grenadines","iso_a2":"VC","iso_a3":"VCT","areaKm2":369,"rank":5,"countryLabelMinZoom":5,"countryLabelMaxZoom":8,"capitalMinZoom":6},"geometry":{"type":"Point","coordinates":[-61.1993408203125,13.261333170798267]}},{"type":"Feature","id":"VIR","properties":{"name":"United States Virgin Islands","iso_a2":"VI","iso_a3":"VIR","areaKm2":356,"rank":5,"countryLabelMinZoom":5,"countryLabelMaxZoom":8,"capitalMinZoom":6},"geometry":{"type":"Point","coordinates":[-64.7589111328125,17.732990849540244]}},{"type":"Feature","id":"GRD","properties":{"name":"Grenada","iso_a2":"GD","iso_a3":"GRD","areaKm2":349,"rank":5,"countryLabelMinZoom":5,"countryLabelMaxZoom":8,"capitalMinZoom":6},"geometry":{"type":"Point","coordinates":[-61.67724609375,12.125264218331594]}},{"type":"Feature","id":"MLT","properties":{"name":"Malta","iso_a2":"MT","iso_a3":"MLT","areaKm2":326,"rank":5,"countryLabelMinZoom":5,"countryLabelMaxZoom":8,"capitalMinZoom":6},"geometry":{"type":"Point","coordinates":[14.43603515625,35.893500261425714]}},{"type":"Feature","id":"KNA","properties":{"name":"Saint Kitts and Nevis","iso_a2":"KN","iso_a3":"KNA","areaKm2":265,"rank":5,"countryLabelMinZoom":5,"countryLabelMaxZoom":8,"capitalMinZoom":6},"geometry":{"type":"Point","coordinates":[-62.7484130859375,17.319176407442853]}},{"type":"Feature","id":"NIU","properties":{"name":"Niue","iso_a2":"NU","iso_a3":"NIU","areaKm2":221,"rank":5,"countryLabelMinZoom":5,"countryLabelMaxZoom":8,"capitalMinZoom":6},"geometry":{"type":"Point","coordinates":[-169.8651123046875,-19.056925855542502]}},{"type":"Feature","id":"ASM","properties":{"name":"American Samoa","iso_a2":"AS","iso_a3":"ASM","areaKm2":181,"rank":5,"countryLabelMinZoom":5,"countryLabelMaxZoom":8,"capitalMinZoom":6},"geometry":{"type":"Point","coordinates":[-170.7550048828125,-14.312292232074242]}},{"type":"Feature","id":"VGB","properties":{"name":"British Virgin Islands","iso_a2":"VG","iso_a3":"VGB","areaKm2":145,"rank":5,"countryLabelMinZoom":5,"countryLabelMaxZoom":8,"capitalMinZoom":6},"geometry":{"type":"Point","coordinates":[-64.6435546875,18.417078658661254]}},{"type":"Feature","id":"WLF","properties":{"name":"Wallis and Futuna","iso_a2":"WF","iso_a3":"WLF","areaKm2":140,"rank":5,"countryLabelMinZoom":5,"countryLabelMaxZoom":8,"capitalMinZoom":6},"geometry":{"type":"Point","coordinates":[-176.1602783203125,-13.282718960896403]}},{"type":"Feature","id":"MDV","properties":{"name":"Maldives","iso_a2":"MV","iso_a3":"MDV","areaKm2":109,"rank":5,"countryLabelMinZoom":5,"countryLabelMaxZoom":8,"capitalMinZoom":6},"geometry":{"type":"Point","coordinates":[73.531494140625,4.198508047098713]}},{"type":"Feature","id":"MSR","properties":{"name":"Montserrat","iso_a2":"MS","iso_a3":"MSR","areaKm2":100,"rank":5,"countryLabelMinZoom":5,"countryLabelMaxZoom":8,"capitalMinZoom":6},"geometry":{"type":"Point","coordinates":[-62.1881103515625,16.751947923180353]}},{"type":"Feature","id":"AIA","properties":{"name":"Anguilla","iso_a2":"AI","iso_a3":"AIA","areaKm2":88,"rank":5,"countryLabelMinZoom":5,"countryLabelMaxZoom":8,"capitalMinZoom":6},"geometry":{"type":"Point","coordinates":[-63.0450439453125,18.224133787422403]}},{"type":"Feature","id":"MAF","properties":{"name":"Saint Martin","iso_a2":"MF","iso_a3":"MAF","areaKm2":68,"rank":5,"countryLabelMinZoom":5,"countryLabelMaxZoom":8,"capitalMinZoom":6},"geometry":{"type":"Point","coordinates":[-63.0560302734375,18.077978986635657]}},{"type":"Feature","id":"IOT","properties":{"name":"British Indian Ocean Territory","iso_a2":"IO","iso_a3":"IOT","areaKm2":49,"rank":5,"countryLabelMinZoom":5,"countryLabelMaxZoom":8,"capitalMinZoom":6},"geometry":{"type":"Point","coordinates":[72.432861328125,-7.357018957392015]}},{"type":"Feature","id":"PCN","properties":{"name":"Pitcairn Islands","iso_a2":"PN","iso_a3":"PCN","areaKm2":43,"rank":5,"countryLabelMinZoom":5,"countryLabelMaxZoom":8,"capitalMinZoom":6},"geometry":{"type":"Point","coordinates":[-128.3148193359375,-24.36711356265127]}},{"type":"Feature","id":"UMI","properties":{"name":"United States Minor Outlying Islands","iso_a2":"UM","iso_a3":"UMI","areaKm2":28,"rank":5,"countryLabelMinZoom":5,"countryLabelMaxZoom":8,"capitalMinZoom":6},"geometry":{"type":"Point","coordinates":[-162.0703125,5.878332109674332]}},{"type":"Feature","id":"SXM","properties":{"name":"Sint Maarten","iso_a2":"SX","iso_a3":"SXM","areaKm2":23,"rank":5,"countryLabelMinZoom":5,"countryLabelMaxZoom":8,"capitalMinZoom":6},"geometry":{"type":"Point","coordinates":[-63.0670166015625,18.04142122189195]}},{"type":"Feature","id":"FRO","properties":{"name":"Faroe Islands","iso_a2":"FO","iso_a3":"FRO","areaKm2":1321,"rank":6,"countryLabelMinZoom":6,"countryLabelMaxZoom":9,"capitalMinZoom":7},"geometry":{"type":"Point","coordinates":[-6.98455810546875,62.12443624549496]}},{"type":"Feature","id":"FSM","properties":{"name":"Federated States of Micronesia","iso_a2":"FM","iso_a3":"FSM","areaKm2":637,"rank":6,"countryLabelMinZoom":6,"countryLabelMaxZoom":9,"capitalMinZoom":7},"geometry":{"type":"Point","coordinates":[158.2470703125,6.885527022341307]}},{"type":"Feature","id":"MNP","properties":{"name":"Northern Mariana Islands","iso_a2":"MP","iso_a3":"MNP","areaKm2":581,"rank":6,"countryLabelMinZoom":6,"countryLabelMaxZoom":9,"capitalMinZoom":7},"geometry":{"type":"Point","coordinates":[145.73638916015625,15.186133108874344]}},{"type":"Feature","id":"IMN","properties":{"name":"Isle of Man","iso_a2":"IM","iso_a3":"IMN","areaKm2":572,"rank":6,"countryLabelMinZoom":6,"countryLabelMaxZoom":9,"capitalMinZoom":7},"geometry":{"type":"Point","coordinates":[-4.5098876953125,54.2379454042067]}},{"type":"Feature","id":"GUM","properties":{"name":"Guam","iso_a2":"GU","iso_a3":"GUM","areaKm2":566,"rank":6,"countryLabelMinZoom":6,"countryLabelMaxZoom":9,"capitalMinZoom":7},"geometry":{"type":"Point","coordinates":[144.7613525390625,13.459079575009824]}},{"type":"Feature","id":"PLW","properties":{"name":"Palau","iso_a2":"PW","iso_a3":"PLW","areaKm2":494,"rank":6,"countryLabelMinZoom":6,"countryLabelMaxZoom":9,"capitalMinZoom":7},"geometry":{"type":"Point","coordinates":[134.57977294921875,7.544932807153515]}},{"type":"Feature","id":"TCA","properties":{"name":"Turks and Caicos Islands","iso_a2":"TC","iso_a3":"TCA","areaKm2":446,"rank":6,"countryLabelMinZoom":6,"countryLabelMaxZoom":9,"capitalMinZoom":7},"geometry":{"type":"Point","coordinates":[-71.7572021484375,21.80285818527669]}},{"type":"Feature","id":"SYC","properties":{"name":"Seychelles","iso_a2":"SC","iso_a3":"SYC","areaKm2":438,"rank":6,"countryLabelMinZoom":6,"countryLabelMaxZoom":9,"capitalMinZoom":7},"geometry":{"type":"Point","coordinates":[55.491943359375,-4.685929506606328]}},{"type":"Feature","id":"SHN","properties":{"name":"Saint Helena","iso_a2":"SH","iso_a3":"SHN","areaKm2":367,"rank":6,"countryLabelMinZoom":6,"countryLabelMaxZoom":9,"capitalMinZoom":7},"geometry":{"type":"Point","coordinates":[-5.712890625,-15.953406841575543]}},{"type":"Feature","id":"MHL","properties":{"name":"Marshall Islands","iso_a2":"MH","iso_a3":"MHL","areaKm2":166,"rank":6,"countryLabelMinZoom":6,"countryLabelMaxZoom":9,"capitalMinZoom":7},"geometry":{"type":"Point","coordinates":[171.09832763671875,7.122696277518301]}},{"type":"Feature","id":"JEY","properties":{"name":"Jersey","iso_a2":"JE","iso_a3":"JEY","areaKm2":119,"rank":6,"countryLabelMinZoom":6,"countryLabelMaxZoom":9,"capitalMinZoom":7},"geometry":{"type":"Point","coordinates":[-2.12310791015625,49.217597105176]}},{"type":"Feature","id":"GGY","properties":{"name":"Guernsey","iso_a2":"GG","iso_a3":"GGY","areaKm2":74,"rank":6,"countryLabelMinZoom":6,"countryLabelMaxZoom":9,"capitalMinZoom":7},"geometry":{"type":"Point","coordinates":[-2.56805419921875,49.47347854665753]}},{"type":"Feature","id":"BMU","properties":{"name":"Bermuda","iso_a2":"BM","iso_a3":"BMU","areaKm2":62,"rank":6,"countryLabelMinZoom":6,"countryLabelMaxZoom":9,"capitalMinZoom":7},"geometry":{"type":"Point","coordinates":[-64.72869873046875,32.31963355203524]}},{"type":"Feature","id":"NFK","properties":{"name":"Norfolk Island","iso_a2":"NF","iso_a3":"NFK","areaKm2":41,"rank":6,"countryLabelMinZoom":6,"countryLabelMaxZoom":9,"capitalMinZoom":7},"geometry":{"type":"Point","coordinates":[167.95623779296875,-29.039361975917814]}},{"type":"Feature","id":"NRU","properties":{"name":"Nauru","iso_a2":"NR","iso_a3":"NRU","areaKm2":29,"rank":6,"countryLabelMinZoom":6,"countryLabelMaxZoom":9,"capitalMinZoom":7},"geometry":{"type":"Point","coordinates":[166.9317626953125,-0.5218433709928405]}},{"type":"Feature","id":"BLM","properties":{"name":"Saint Barthélemy","iso_a2":"BL","iso_a3":"BLM","areaKm2":25,"rank":6,"countryLabelMinZoom":6,"countryLabelMaxZoom":9,"capitalMinZoom":7},"geometry":{"type":"Point","coordinates":[-62.82806396484375,17.910795834978487]}},{"type":"Feature","id":"TUV","properties":{"name":"Tuvalu","iso_a2":"TV","iso_a3":"TUV","areaKm2":23,"rank":6,"countryLabelMinZoom":6,"countryLabelMaxZoom":9,"capitalMinZoom":7},"geometry":{"type":"Point","coordinates":[179.20623779296875,-8.504970203442127]}}]}
