{"type":"FeatureCollection","features":[{"type":"Feature","properties":{"district_id":"43174148B82261817076051","district":"Pagué"},"geometry":{"type":"Polygon","coordinates":[[[7.3997878,1.5461268],[7.4021032,1.5471263],[7.4036397,1.5471274],[7.4036394,1.547643],[7.4041515,1.5476434],[7.4031255,1.5499622],[7.4051744,1.5499639],[7.4049176,1.5509947],[7.4054298,1.5508656],[7.4067098,1.5515115],[7.4095244,1.5552504],[7.412212,1.5566706],[7.4123402,1.5571862],[7.415157,1.5578322],[7.4174621,1.5578341],[7.4192557,1.5569337],[7.419256,1.5564183],[7.4197682,1.5564186],[7.4191287,1.5548717],[7.419515,1.5525521],[7.4213084,1.5517802],[7.4218206,1.5517806],[7.4223315,1.5535854],[7.423356,1.5535861],[7.4233555,1.5543593],[7.4251479,1.5547468],[7.4255312,1.555392],[7.425786,1.5571964],[7.4252734,1.5577114],[7.4251447,1.559],[7.4246325,1.5589996],[7.4243759,1.5597728],[7.4236074,1.5600299],[7.422453,1.5618333],[7.4221956,1.5636373],[7.4247558,1.564928],[7.4241139,1.567505],[7.4246263,1.5675054],[7.4247535,1.568021],[7.4259058,1.5689235],[7.4274422,1.5691824],[7.4276979,1.5698274],[7.4261608,1.5703419],[7.4260311,1.5718881],[7.4265429,1.5724041],[7.4270536,1.5744664],[7.4288452,1.5762722],[7.4288438,1.5780763],[7.4296115,1.5788501],[7.4297387,1.5806545],[7.4292266,1.5806541],[7.4289697,1.5816849],[7.4294819,1.5816853],[7.4294789,1.5858093],[7.4289665,1.5858089],[7.428325,1.5868393],[7.4280674,1.5886433],[7.4274269,1.589674],[7.4258894,1.5907038],[7.4257603,1.5914768],[7.4248635,1.5925073],[7.424095,1.5927643],[7.4240944,1.5932799],[7.4235823,1.5932795],[7.4237072,1.5968881],[7.4246036,1.5974042],[7.424474,1.5989506],[7.4239612,1.5997235],[7.4245991,1.6033324],[7.4251115,1.6033328],[7.4251109,1.6038484],[7.4263912,1.6044933],[7.4272874,1.6041077],[7.4274165,1.6033347],[7.4284409,1.6035932],[7.4297202,1.6051406],[7.4302324,1.605141],[7.4304881,1.6057851],[7.4315125,1.6059153],[7.4318947,1.6079775],[7.4338155,1.6087524],[7.4338147,1.6097834],[7.4345832,1.6095261],[7.4349663,1.6105575],[7.4372706,1.6115902],[7.437782,1.6126216],[7.4375246,1.6144256],[7.4384212,1.6146841],[7.4394443,1.6166176],[7.4448225,1.617395],[7.4466159,1.6166231],[7.4484084,1.6172693],[7.4484087,1.6167539],[7.4489209,1.6167543],[7.4494348,1.6145632],[7.4507157,1.6143065],[7.4522513,1.6158542],[7.4532755,1.6162421],[7.4536586,1.6172732],[7.4546826,1.6177896],[7.4550659,1.6195942],[7.4555783,1.6195945],[7.4557049,1.6208835],[7.4576261,1.6211426],[7.4578816,1.6217868],[7.458394,1.6217871],[7.4586495,1.6224322],[7.4598011,1.6232063],[7.4599288,1.6242375],[7.4606973,1.6241088],[7.4618489,1.6250122],[7.4614641,1.6263006],[7.4609519,1.626171],[7.4604393,1.6265577],[7.460439,1.6270731],[7.4610787,1.6273314],[7.4613331,1.6296514],[7.460693,1.6299087],[7.4604363,1.6306817],[7.4596682,1.630294],[7.4586435,1.6304225],[7.4587703,1.6314537],[7.4581284,1.6340307],[7.4565917,1.6340294],[7.4565939,1.6311942],[7.4553133,1.6310638],[7.4535197,1.6320935],[7.4520114,1.6323777],[7.4518531,1.633768],[7.4532615,1.6348002],[7.4544121,1.6366053],[7.4542832,1.6384095],[7.4547954,1.6384099],[7.4545384,1.6396985],[7.4506966,1.6394377],[7.449927,1.6409837],[7.4491585,1.6409829],[7.4473683,1.6376308],[7.4450627,1.6381445],[7.4450623,1.6386601],[7.4442938,1.6386595],[7.4440362,1.6404635],[7.4417312,1.6404617],[7.4416021,1.6412349],[7.4407053,1.6422651],[7.4401929,1.6422647],[7.4401923,1.6430379],[7.4391674,1.6435528],[7.4390364,1.6466455],[7.4382676,1.6474182],[7.4378828,1.6487066],[7.4366019,1.6488342],[7.4360901,1.6484475],[7.4360916,1.6463855],[7.4353235,1.6459978],[7.4322502,1.6457376],[7.4314823,1.6450931],[7.4312256,1.6458661],[7.4294331,1.6453492],[7.4291776,1.6445758],[7.4276405,1.6448323],[7.4273849,1.6440589],[7.4266168,1.6438005],[7.4263624,1.6414806],[7.4253383,1.641222],[7.4250831,1.639933],[7.4217268,1.6413094],[7.4207523,1.6421636],[7.4214555,1.6428538],[7.4211432,1.6433881],[7.4225133,1.6448022],[7.4232281,1.6466601],[7.4243084,1.6479226],[7.4250769,1.6479234],[7.4253315,1.6497278],[7.4263555,1.6503724],[7.4284046,1.6502456],[7.4285312,1.6515346],[7.4295539,1.6538551],[7.4296811,1.6556593],[7.4301933,1.6556599],[7.430064,1.6566907],[7.4319846,1.6577232],[7.4322398,1.6590122],[7.432752,1.6590126],[7.4332632,1.6603017],[7.4355677,1.6612054],[7.4435083,1.6605677],[7.4442757,1.6621148],[7.4450438,1.6623732],[7.4450442,1.6618576],[7.4469644,1.6623747],[7.4468359,1.6634055],[7.4460674,1.6636627],[7.446067,1.6641781],[7.4445293,1.665208],[7.444655,1.6677856],[7.4452944,1.6693325],[7.4458068,1.6693329],[7.4461897,1.6703643],[7.4474694,1.671654],[7.4473413,1.6721694],[7.4491332,1.6735881],[7.4506694,1.6743626],[7.4524626,1.6741063],[7.4547688,1.6729487],[7.4547691,1.6724331],[7.4552813,1.6724335],[7.4561781,1.6714032],[7.4563074,1.67063],[7.458101,1.6697289],[7.4586138,1.6689561],[7.4604072,1.668442],[7.4615588,1.6693454],[7.4615582,1.669861],[7.4589941,1.6734675],[7.4587372,1.6744983],[7.4601454,1.6756587],[7.4611698,1.675789],[7.4619364,1.6783671],[7.4611677,1.6786243],[7.4612795,1.6804573],[7.4581789,1.6805752],[7.457023,1.6818151],[7.4552745,1.6810677],[7.4525238,1.68162],[7.4511747,1.6832558],[7.4493811,1.6840277],[7.4487395,1.6850581],[7.4484821,1.6866045],[7.447329,1.6878923],[7.4465605,1.6880201],[7.4460485,1.6875041],[7.4447678,1.6876325],[7.4447671,1.6884057],[7.4442549,1.6884053],[7.4434853,1.6899511],[7.4419485,1.6898207],[7.4409232,1.6907224],[7.4409223,1.6920112],[7.4398979,1.6917525],[7.4395161,1.6881437],[7.4388775,1.6865967],[7.4383651,1.6865964],[7.4370859,1.684791],[7.4355495,1.684145],[7.4324762,1.6837563],[7.4324758,1.6842719],[7.431195,1.6845285],[7.431322,1.6853019],[7.4306809,1.6868479],[7.4299124,1.6868472],[7.4291451,1.6855578],[7.4276083,1.6855567],[7.4268414,1.6837517],[7.4253046,1.6836211],[7.423511,1.6845223],[7.4235097,1.6860687],[7.4229975,1.6860683],[7.4227406,1.6868413],[7.4214594,1.6874843],[7.4188981,1.6874822],[7.4176167,1.6883837],[7.4176163,1.6888991],[7.4171041,1.6888988],[7.4168472,1.6896718],[7.4145418,1.690056],[7.4137739,1.6892822],[7.4127495,1.689153],[7.412494,1.6883794],[7.4114692,1.6886364],[7.4114681,1.6901828],[7.4096747,1.6906969],[7.4096743,1.6912123],[7.4086497,1.6910823],[7.4081379,1.6905663],[7.406089,1.6905646],[7.4042954,1.691208],[7.4033144,1.6937924],[7.402446,1.6941946],[7.4012219,1.6912053],[7.3991737,1.6900434],[7.3973802,1.6906867],[7.3968665,1.6924905],[7.3935362,1.6932609],[7.394179,1.6896531],[7.3948208,1.6883648],[7.3953332,1.6883652],[7.395718,1.6870768],[7.3935441,1.6837243],[7.3927754,1.6839816],[7.3927758,1.683466],[7.390983,1.6833352],[7.3899599,1.6816595],[7.3881682,1.6802399],[7.3858631,1.6801097],[7.3858626,1.6806251],[7.3843264,1.6799791],[7.3786923,1.6792012],[7.3776666,1.6806183],[7.3758737,1.6804875],[7.3751058,1.6799714],[7.3733118,1.6811301],[7.3733107,1.6826765],[7.3712614,1.6829326],[7.37075,1.6819012],[7.3702378,1.6819007],[7.3702381,1.6813853],[7.3692138,1.681255],[7.3687018,1.6808685],[7.3687023,1.6803529],[7.3681899,1.6803526],[7.368193,1.6767442],[7.3676808,1.6767438],[7.3684496,1.676229],[7.3687067,1.6749405],[7.3681945,1.67494],[7.3688358,1.6731364],[7.3684527,1.6723628],[7.3679405,1.6723624],[7.3676849,1.671589],[7.3669168,1.6713306],[7.3669172,1.6708151],[7.3661491,1.6705567],[7.3662778,1.6692681],[7.367176,1.6677225],[7.3680722,1.6674654],[7.369484,1.664116],[7.3689718,1.6641156],[7.3680765,1.6620528],[7.3680784,1.6597332],[7.3673109,1.6587017],[7.3671848,1.6568973],[7.3664168,1.6566389],[7.3664173,1.6558657],[7.3682098,1.6562534],[7.3688501,1.6558678],[7.369107,1.654837],[7.3697481,1.6545798],[7.3703899,1.6520029],[7.3715443,1.650328],[7.3725691,1.6499427],[7.372316,1.6463341],[7.3718036,1.6463337],[7.3712922,1.6453023],[7.3694993,1.6454293],[7.3664273,1.6434942],[7.3664279,1.6429788],[7.3659155,1.6429782],[7.3656602,1.6422048],[7.3651478,1.6422044],[7.3646379,1.6393689],[7.3641257,1.6393685],[7.3645101,1.6385955],[7.3643833,1.6375645],[7.3638709,1.6375641],[7.3638715,1.6370485],[7.3643837,1.6370489],[7.3647681,1.6362761],[7.3645141,1.6336985],[7.3656681,1.6324106],[7.3664362,1.6325397],[7.3678456,1.6311237],[7.3678507,1.624938],[7.3691321,1.6239081],[7.3696451,1.6228775],[7.3695211,1.6184957],[7.3690087,1.6184953],[7.3690102,1.6166911],[7.3672181,1.6156588],[7.3672187,1.6151432],[7.36645,1.6154004],[7.3661945,1.6146271],[7.3649144,1.6141105],[7.3647868,1.6128217],[7.3635077,1.6110164],[7.3638944,1.6084394],[7.3644067,1.6084398],[7.3645356,1.6066356],[7.363897,1.6050888],[7.3633848,1.6050882],[7.3631293,1.6043148],[7.3626171,1.6043145],[7.3626167,1.6048299],[7.3603115,1.6049565],[7.3577515,1.6035373],[7.3577528,1.6019909],[7.3567284,1.6017323],[7.3564731,1.600959],[7.3557048,1.6008289],[7.3549358,1.6016016],[7.3533992,1.6016002],[7.3521193,1.6005683],[7.3505827,1.600567],[7.3472522,1.6018531],[7.3459715,1.601852],[7.3418747,1.6006893],[7.3420012,1.601978],[7.3407184,1.6048121],[7.3395653,1.6060999],[7.3382845,1.6063566],[7.3380276,1.6073874],[7.333929,1.6082855],[7.3311133,1.6064791],[7.3306009,1.606608],[7.3290669,1.6032563],[7.3282987,1.6032555],[7.3285583,1.5988743],[7.3318883,1.5981037],[7.3318887,1.5975883],[7.3324011,1.5974594],[7.333427,1.5956562],[7.3352202,1.5951421],[7.337269,1.5952731],[7.3372694,1.5947577],[7.3367572,1.5947571],[7.3366292,1.5939839],[7.3358615,1.59321],[7.3347139,1.5877966],[7.3342017,1.5877962],[7.3354871,1.5816116],[7.3376649,1.5800669],[7.3384345,1.5782633],[7.3383083,1.5767169],[7.3388205,1.5767172],[7.3390781,1.5749132],[7.3395903,1.5749136],[7.339849,1.5715632],[7.3392104,1.5689854],[7.3413093,1.5662569],[7.3411101,1.5649422],[7.3395994,1.5633154],[7.3395997,1.5628],[7.3385755,1.5625415],[7.3390889,1.5612533],[7.3380652,1.5602215],[7.3381939,1.5586751],[7.3396039,1.5576453],[7.3414003,1.5528781],[7.3424247,1.5530081],[7.3429373,1.5524931],[7.3445148,1.5523689],[7.3460045,1.5529394],[7.3460087,1.5548152],[7.3462648,1.5548154],[7.3458787,1.556877],[7.3465183,1.5581661],[7.3477995,1.5573941],[7.3480548,1.5584253],[7.3498467,1.5594576],[7.3536882,1.5597184],[7.3536878,1.5602338],[7.3544561,1.5602344],[7.3542005,1.559461],[7.3559936,1.559333],[7.3571463,1.5584323],[7.3572754,1.5576592],[7.3591964,1.5568876],[7.3597093,1.5558569],[7.3597103,1.5545682],[7.3603514,1.5543109],[7.3600958,1.5535375],[7.3608641,1.5535381],[7.362403,1.5507042],[7.3629151,1.5508331],[7.3631716,1.5501894],[7.3639401,1.5499322],[7.3640684,1.5491592],[7.3648373,1.5483865],[7.3647101,1.5478709],[7.3659906,1.5480002],[7.3662461,1.5486453],[7.3680395,1.5478734],[7.3680393,1.5481312],[7.3690637,1.5481319],[7.3706018,1.5464574],[7.3721372,1.5478766],[7.371625,1.5478762],[7.3716246,1.5483916],[7.3731616,1.5481352],[7.3739287,1.5495528],[7.3754653,1.5498118],[7.3767469,1.5483956],[7.3767473,1.5478802],[7.3777715,1.5481387],[7.3780291,1.5463347],[7.3811079,1.5391202],[7.3829011,1.5383484],[7.3825171,1.537575],[7.3826466,1.5362862],[7.3846953,1.536674],[7.3862311,1.5377061],[7.3875118,1.5375788],[7.3877675,1.5382229],[7.3887917,1.5383529],[7.3895594,1.5392552],[7.3903279,1.538998],[7.3921204,1.5395149],[7.3954498,1.5395173],[7.3967308,1.5390029],[7.3969864,1.5396479],[7.3981387,1.5393909],[7.3980126,1.5373289],[7.3985248,1.5373293],[7.3985254,1.5365561],[7.3980134,1.5362979],[7.3982695,1.5362981],[7.3985284,1.5324321],[7.3995532,1.5321752],[7.3999374,1.5314022],[7.3995553,1.5293399],[7.3990431,1.5293395],[7.4000695,1.5266336],[7.401862,1.527022],[7.4021175,1.5277954],[7.4036537,1.5283121],[7.404165,1.5296011],[7.4046773,1.5296016],[7.4046747,1.53321],[7.4053131,1.5350148],[7.4049289,1.5357876],[7.4041602,1.5360448],[7.4041595,1.5370758],[7.403391,1.5373329],[7.4015959,1.5404245],[7.400954,1.5419705],[7.4009531,1.5432593],[7.4005689,1.5437745],[7.3990321,1.544031],[7.3992878,1.5445468],[7.3990313,1.545062],[7.3997878,1.5461268]]]}},{"type":"Feature","properties":{"district_id":"43174148B36740863505441","district":"Água Grande"},"geometry":{"type":"Polygon","coordinates":[[[6.6939706,0.3963767],[6.6902921,0.3838464],[6.6915499,0.3776536],[6.6957424,0.3736289],[6.6979464,0.3694126],[6.7039357,0.3645733],[6.706571,0.3605965],[6.7082705,0.3563662],[6.7082882,0.3514887],[6.7027568,0.348131],[6.7021206,0.3472121],[6.703379,0.3413594],[6.7055473,0.3379714],[6.706496,0.3351594],[6.7060894,0.3279383],[6.7055493,0.3272002],[6.7054401,0.3255897],[6.7046885,0.3243616],[6.7050593,0.3222068],[6.7032709,0.3208349],[6.7023534,0.3171785],[6.6997732,0.3151399],[6.7007088,0.3146087],[6.7022049,0.3154581],[6.7059402,0.3162034],[6.7096671,0.3168048],[6.7134363,0.3167159],[6.7143383,0.3174527],[6.7155185,0.3163126],[6.7173233,0.3154029],[6.7243884,0.3134696],[6.7321132,0.3144606],[6.7388724,0.316197],[6.740253,0.314647],[6.7425353,0.3144103],[6.742884,0.3129405],[6.7453885,0.3125139],[6.7454636,0.3112962],[6.7465955,0.310572],[6.7485885,0.3105623],[6.7488061,0.3119054],[6.7478361,0.3134877],[6.746659,0.3145059],[6.7465916,0.3152134],[6.7457221,0.3158397],[6.7447501,0.3151519],[6.7434569,0.3156026],[6.7416091,0.3182632],[6.7413108,0.3203124],[6.7408742,0.3207681],[6.7405761,0.3229623],[6.7417179,0.3273407],[6.742274,0.3328755],[6.7406879,0.3332509],[6.7403946,0.3329798],[6.7397998,0.3345263],[6.7398254,0.336912],[6.7406687,0.3387556],[6.7408067,0.3405827],[6.7406651,0.3427591],[6.7396853,0.34623],[6.739118,0.3462965],[6.7386722,0.3455541],[6.7374155,0.3484737],[6.7365057,0.3460347],[6.7368485,0.3450682],[6.735240726625912,0.343794658250123],[6.7354841,0.3423308],[6.7348398,0.3408745],[6.7341214,0.3402494],[6.7322753,0.3397068],[6.7284094,0.3407212],[6.7262694,0.3418253],[6.7228975,0.3464798],[6.7218812,0.3501681],[6.7223869,0.3524801],[6.7233678,0.3532945],[6.724052,0.3549457],[6.7251969,0.3556135],[6.7262392,0.3570586],[6.7257555,0.3588709],[6.724116399664331,0.360975905330724],[6.721852109296589,0.361460649875427],[6.7212049,0.3604923],[6.720125341942906,0.359978234915352],[6.7198433,0.3592531],[6.7173388,0.3594301],[6.7148379,0.3610857],[6.7134945,0.3635752],[6.7124629,0.3689028],[6.7131801,0.3718447],[6.7150982,0.3719215],[6.7161151,0.37248],[6.7171259,0.3733198],[6.7175365,0.3747011],[6.7194105,0.3757071],[6.7217828,0.3751085],[6.7220644,0.3764576],[6.7211893,0.376686],[6.7197059,0.3781613],[6.7193037,0.3812074],[6.7180727,0.3807252],[6.7152607,0.3805912],[6.7139252,0.3816236],[6.7129632,0.3832569],[6.7109354,0.3831384],[6.7104261,0.382624],[6.7087398,0.38271],[6.7074867,0.3817012],[6.707106,0.3818569],[6.7070325,0.3826679],[6.7053251,0.3841123],[6.7034638,0.3843722],[6.7027851,0.3834122],[6.701718,0.3842942],[6.7006888,0.3865181],[6.6996932,0.3868692],[6.6987855,0.3884119],[6.6969717,0.3889422],[6.6949,0.3908043],[6.6939706,0.3963767]]]}},{"type":"Feature","properties":{"district_id":"43174148B25004726463593","district":"Lobata"},"geometry":{"type":"Polygon","coordinates":[[[6.6939706,0.3963767],[6.6926903,0.3989528],[6.6923061,0.4017867],[6.6917943,0.4017867],[6.691538,0.4028171],[6.6907703,0.4030745],[6.6907701,0.4035897],[6.6889786,0.4041045],[6.6889784,0.4046198],[6.6838597,0.405262],[6.6802766,0.4061631],[6.6802764,0.4066784],[6.6784851,0.4068063],[6.6746459,0.4080932],[6.6697834,0.4084788],[6.6697834,0.408994],[6.6685036,0.409509],[6.6679913,0.4113123],[6.6644084,0.4115687],[6.6641521,0.4123415],[6.6608249,0.4133712],[6.6605692,0.4125982],[6.6577544,0.4116952],[6.6536598,0.4122092],[6.6513566,0.4119509],[6.6505891,0.4114355],[6.6477741,0.4113062],[6.6475184,0.4105332],[6.6446159,0.4088167],[6.6434243,0.4091146],[6.6429125,0.4085992],[6.6403532,0.4093714],[6.6388178,0.4089849],[6.6385626,0.4066663],[6.6372829,0.4070518],[6.6354918,0.4067936],[6.6329321,0.4080811],[6.6321646,0.4076948],[6.6316524,0.4087252],[6.6301168,0.4092399],[6.6301168,0.4097553],[6.6283254,0.4096254],[6.6267898,0.4102695],[6.6267896,0.4107848],[6.6255103,0.4102692],[6.6249987,0.4092384],[6.6232075,0.4089802],[6.6232077,0.4082074],[6.6226959,0.4082072],[6.6226961,0.407692],[6.6219284,0.4074342],[6.6219286,0.4069189],[6.6201372,0.4070467],[6.6193693,0.4075617],[6.6180898,0.4075614],[6.616652,0.4069442],[6.6156957,0.4074606],[6.6129718,0.4070446],[6.6106128,0.4060649],[6.609976,0.4065273],[6.6105017,0.4071278],[6.610123699506183,0.407691355555444],[6.6088773,0.406915],[6.608843,0.4044391],[6.6072155,0.400474],[6.6055744,0.3987776],[6.6053688,0.3971244],[6.6045491,0.3953959],[6.6019588,0.3955109],[6.6008665,0.3945906],[6.6009379,0.3938053],[6.5992437,0.3924867],[6.5991193,0.3916553],[6.5969445,0.391183],[6.5966735,0.390121],[6.5961926,0.3900102],[6.5962147,0.389393],[6.5955757,0.38862],[6.5928134,0.3877393],[6.5921958,0.3862466],[6.5916221,0.3863349],[6.5911636,0.3856017],[6.5891305,0.3846601],[6.5902679,0.3729332],[6.5947311,0.3602305],[6.5902679,0.3558875],[6.5854614,0.3519909],[6.5844314,0.3420347],[6.5850408,0.3287913],[6.5902401,0.32424],[6.6195679,0.321053],[6.6239142,0.3272687],[6.6270041,0.3297577],[6.6275835,0.3338775],[6.6317685,0.3428857],[6.6400501,0.3535016],[6.6434819,0.3589856],[6.6518105,0.3534648],[6.6546215,0.3529927],[6.6582727,0.3501094],[6.6596782,0.3487254],[6.6612268,0.3439034],[6.66203,0.3427079],[6.6660022,0.3402952],[6.6709249,0.339163],[6.6760993,0.3366039],[6.6764169,0.3358567],[6.6748588,0.33264],[6.6748308,0.3312391],[6.6755718,0.3298464],[6.6771593,0.3285452],[6.6818794,0.3272512],[6.6834569,0.326253],[6.6874007,0.3216684],[6.6876225,0.3204114],[6.6886824,0.3193515],[6.6914581,0.3185106],[6.6920598,0.3172082],[6.6932136,0.3164437],[6.6944381,0.316019],[6.6958963,0.3165782],[6.696774,0.3164579],[6.6973757,0.3157996],[6.6997732,0.3151399],[6.7023534,0.3171785],[6.7032709,0.3208349],[6.7050593,0.3222068],[6.7046885,0.3243616],[6.7054401,0.3255897],[6.7055493,0.3272002],[6.7060894,0.3279383],[6.706496,0.3351594],[6.7055473,0.3379714],[6.703379,0.3413594],[6.7021206,0.3472121],[6.7027568,0.348131],[6.7082882,0.3514887],[6.7082705,0.3563662],[6.706571,0.3605965],[6.7039357,0.3645733],[6.6979464,0.3694126],[6.6957424,0.3736289],[6.6915499,0.3776536],[6.6902921,0.3838464],[6.6939706,0.3963767]]]}},{"type":"Feature","properties":{"district_id":"43174148B76706884828518","district":"Mé-zóxi"},"geometry":{"type":"Polygon","coordinates":[[[6.7007088,0.3146087],[6.6973757,0.3157996],[6.696774,0.3164579],[6.6958963,0.3165782],[6.6944381,0.316019],[6.6932136,0.3164437],[6.6920598,0.3172082],[6.6914581,0.3185106],[6.6886824,0.3193515],[6.6876225,0.3204114],[6.6874007,0.3216684],[6.6834569,0.326253],[6.6818794,0.3272512],[6.6771593,0.3285452],[6.6755718,0.3298464],[6.6748308,0.3312391],[6.6748588,0.33264],[6.6764169,0.3358567],[6.6760993,0.3366039],[6.6709249,0.339163],[6.6660022,0.3402952],[6.66203,0.3427079],[6.6612268,0.3439034],[6.6596782,0.3487254],[6.6582727,0.3501094],[6.6546215,0.3529927],[6.6518105,0.3534648],[6.6434819,0.3589856],[6.6400501,0.3535016],[6.6317685,0.3428857],[6.6275835,0.3338775],[6.6270041,0.3297577],[6.6239142,0.3272687],[6.6195679,0.321053],[6.5902401,0.32424],[6.5850408,0.3287913],[6.5845311,0.3109902],[6.5830977,0.3020124],[6.5817845,0.2845633],[6.5804112,0.2734054],[6.578008,0.2680925],[6.5900243,0.2549778],[6.6011994,0.2505404],[6.6089671,0.251948],[6.61852,0.2465664],[6.6266568,0.2425281],[6.6355145,0.2422749],[6.6400893,0.2457081],[6.645531,0.2464548],[6.6485361,0.2453128],[6.6491732,0.2457658],[6.6497394,0.2455535],[6.6502491,0.2437698],[6.6514241,0.2448315],[6.652527,0.2439243],[6.653491,0.2450014],[6.653944,0.2449448],[6.6545386,0.2437698],[6.6554866,0.2444284],[6.6582349,0.2445911],[6.6620727,0.2433064],[6.6632273,0.2422006],[6.6646258,0.2425909],[6.6654389,0.2435666],[6.6666423,0.2430137],[6.667683,0.2433226],[6.6686262,0.2430462],[6.669423,0.2419079],[6.6716879,0.2450472],[6.6713445,0.2500254],[6.6688297,0.255806],[6.6691344,0.2666892],[6.6699712,0.2722252],[6.6741426,0.2765768],[6.6797999,0.2787974],[6.6843596,0.2787437],[6.6860226,0.2797415],[6.6874924,0.2785291],[6.6890159,0.278454],[6.6902176,0.2792802],[6.6921917,0.2790119],[6.6952279,0.2775314],[6.6961292,0.2778854],[6.6974917,0.2753427],[6.6980067,0.2750423],[6.6998199,0.2762332],[6.7009571,0.278969],[6.7023411,0.2797951],[6.7027488,0.2807178],[6.7055062,0.2808036],[6.7053559,0.2814795],[6.7043474,0.2818443],[6.7043904,0.2821769],[6.7055062,0.2825739],[6.7053881,0.2830352],[6.7044225,0.2835609],[6.7047229,0.2842797],[6.7068258,0.2845587],[6.7079523,0.2857388],[6.7103127,0.2858139],[6.7119756,0.2865113],[6.7130056,0.2874125],[6.713703,0.2873481],[6.7140463,0.2883996],[6.7157093,0.2885927],[6.715956,0.2881313],[6.7169646,0.2882386],[6.7181984,0.289687],[6.7198986,0.2888003],[6.7204514,0.2902664],[6.7219321,0.2895151],[6.7225421,0.2903285],[6.7230844,0.2903593],[6.7252843,0.2893302],[6.7260792,0.2906859],[6.7274472,0.291795],[6.7286488,0.2918197],[6.7282852,0.2902545],[6.728544,0.2899711],[6.7301955,0.2907228],[6.7308795,0.2904579],[6.7308856,0.289361],[6.7312923,0.2891638],[6.7314402,0.2926331],[6.7320503,0.2914623],[6.7326049,0.2922757],[6.7339728,0.2917211],[6.7363268,0.2936991],[6.7372819,0.2919737],[6.7376578,0.2919306],[6.7381754,0.2921894],[6.7385266,0.2942352],[6.7413242,0.294685],[6.7430681,0.2962871],[6.7447935,0.2965891],[6.7452926,0.2974025],[6.7464634,0.2973039],[6.7472953,0.2959359],[6.7484723,0.296244],[6.7486263,0.2994914],[6.7493904,0.3002062],[6.7504996,0.300163],[6.7510295,0.2993558],[6.751806,0.3000706],[6.7533238,0.300116],[6.7524159,0.3003192],[6.7517075,0.3009896],[6.7518148,0.3030605],[6.7512738,0.304321],[6.7487544,0.3057908],[6.7482824,0.3077491],[6.7485885,0.3105623],[6.7465955,0.310572],[6.7454636,0.3112962],[6.7453885,0.3125139],[6.742884,0.3129405],[6.7425353,0.3144103],[6.740253,0.314647],[6.7388724,0.316197],[6.7321132,0.3144606],[6.7243884,0.3134696],[6.7173233,0.3154029],[6.7155185,0.3163126],[6.7143383,0.3174527],[6.7134363,0.3167159],[6.7096671,0.3168048],[6.7059402,0.3162034],[6.7022049,0.3154581],[6.7007088,0.3146087]]]}},{"type":"Feature","properties":{"district_id":"43174148B99779095511190","district":"Cantagalo"},"geometry":{"type":"Polygon","coordinates":[[[6.6266568,0.2425281],[6.6233235,0.2253387],[6.6223536,0.2135542],[6.6279026,0.2020487],[6.6421376,0.1879468],[6.6613079,0.1770163],[6.6642962,0.1690991],[6.6658588,0.1660267],[6.6654941,0.1647393],[6.6659125,0.1626579],[6.6675784,0.1618311],[6.6684683,0.1607351],[6.672833243477639,0.15846584055188],[6.6748949,0.1613862],[6.6758288,0.1607371],[6.6769631,0.1614206],[6.6776374,0.160673],[6.6780948,0.1611416],[6.6786505,0.1608661],[6.6810253,0.1589275],[6.6815677,0.1592992],[6.6822006,0.1581501],[6.6824626,0.1583443],[6.6818345,0.1595762],[6.681931,0.1611051],[6.6814793,0.1623767],[6.6823224,0.1623289],[6.6826123,0.1633203],[6.6818355,0.1633265],[6.6812968,0.1644651],[6.6817959,0.1650608],[6.6811633,0.1658065],[6.6804572,0.1654763],[6.6799451,0.1671154],[6.6786093,0.1683223],[6.6790449,0.1691382],[6.6799594,0.1700551],[6.6818599,0.170555],[6.6831396,0.1691386],[6.686636,0.1694652],[6.6871799,0.1691612],[6.6871408,0.1684472],[6.6875843,0.1683942],[6.6879552,0.1686424],[6.6874504,0.1695628],[6.6910342,0.1709959],[6.6912211,0.1719474],[6.689835,0.1739415],[6.6866313,0.1755736],[6.6868489,0.1771258],[6.6878724,0.1786718],[6.6896341,0.1800416],[6.690708,0.1802892],[6.6916702,0.1793214],[6.6928164,0.1792796],[6.6931678,0.1802557],[6.6941552,0.1808637],[6.6945456,0.1834714],[6.6954823,0.1842473],[6.6972342,0.1848408],[6.6985017,0.1843973],[6.6992255,0.1845926],[6.6990694,0.1857221],[6.6981943,0.1867579],[6.6992618,0.1870915],[6.6994989,0.1877358],[6.6984644,0.1890702],[6.7021211,0.1922564],[6.702204,0.1929162],[6.7014062,0.1943461],[6.7014803,0.1954997],[6.7023396,0.1970319],[6.703303,0.1976569],[6.7045768,0.1976609],[6.7056303,0.1984881],[6.7053574,0.2007377],[6.706744,0.2018633],[6.7086418,0.2023788],[6.7092168,0.2013761],[6.7100382,0.2011863],[6.7128595,0.201478],[6.7136253,0.2026203],[6.7132645,0.2033022],[6.7135591,0.2038092],[6.7143607,0.2034608],[6.7143409,0.2038829],[6.7158336,0.2041803],[6.7173858,0.2053473],[6.7193035,0.2055342],[6.7197567,0.2045513],[6.7206433,0.2045145],[6.722899746155548,0.208875835799934],[6.722423,0.2111387],[6.7228039,0.2131069],[6.7239742,0.2136651],[6.7257347,0.2138528],[6.7261931,0.2132705],[6.7266117,0.2135347],[6.7282474,0.2132064],[6.7288079,0.2151751],[6.7281068,0.215527],[6.7269289,0.2149543],[6.7259042,0.2157001],[6.7255561,0.216703],[6.7262246,0.2171334],[6.7268373,0.2167388],[6.7275098,0.2168972],[6.7311419,0.2206918],[6.7332913,0.2213048],[6.7333128,0.2230694],[6.7327452,0.2238405],[6.7346317,0.2268826],[6.7351189,0.22669],[6.7349348,0.2280326],[6.7359145,0.2291255],[6.7390078,0.2316886],[6.7412682,0.2319262],[6.7414291,0.2326488],[6.7429312,0.2335237],[6.7441328,0.2317645],[6.7450126,0.2315188],[6.745498,0.2321108],[6.7446907,0.2341412],[6.7436178,0.2343566],[6.7437465,0.2355568],[6.7425556,0.2357191],[6.743371,0.2374676],[6.7431243,0.2383364],[6.7441757,0.2389053],[6.7450501,0.2387548],[6.74549,0.2393285],[6.7462356,0.238975],[6.7465039,0.2398593],[6.7468794,0.2397046],[6.7471422,0.2403901],[6.748376,0.2406645],[6.7490278,0.2423185],[6.7486366,0.2450207],[6.7474156,0.2455529],[6.7473013,0.2448811],[6.7460081,0.2451842],[6.7449109,0.2466381],[6.7448518,0.2487385],[6.7438294,0.2490868],[6.7438077,0.2498812],[6.7456889,0.2510476],[6.7453104,0.2514393],[6.7442033,0.2515168],[6.7436499,0.252298],[6.7447069,0.2545558],[6.7454317,0.2551432],[6.7452959,0.256059],[6.7443011,0.2570594],[6.7436158,0.2566507],[6.7433661,0.25686],[6.7428052,0.2594456],[6.7437272,0.2605669],[6.7452359,0.2605692],[6.7471323,0.261795],[6.747245,0.2639139],[6.7467034,0.2646099],[6.7462493,0.2645555],[6.7461497,0.2650486],[6.7466109,0.266508],[6.7491568,0.2669933],[6.7497912,0.2678257],[6.7496463,0.2700739],[6.747501,0.2709447],[6.746415833045818,0.273606475828675],[6.7453313,0.2751663],[6.7453113,0.2763273],[6.7471235,0.2800772],[6.7483302,0.2813565],[6.7506195,0.2827723],[6.7506964,0.2845881],[6.7500819,0.2857715],[6.7501332,0.2871204],[6.7511953,0.2885664],[6.7537771,0.2881391],[6.7574478,0.2868975],[6.7581562,0.2874093],[6.7579245,0.2880008],[6.7587268,0.288263],[6.7599515,0.2900139],[6.7593142,0.2922673],[6.7605256,0.2940401],[6.7606077,0.2955126],[6.7597261,0.2961052],[6.7569991,0.2959475],[6.7552691,0.2972993],[6.7549241,0.2986186],[6.7535549,0.3000708],[6.751806,0.3000706],[6.7510295,0.2993558],[6.7504996,0.300163],[6.7493904,0.3002062],[6.7486263,0.2994914],[6.7484723,0.296244],[6.7472953,0.2959359],[6.7464634,0.2973039],[6.7452926,0.2974025],[6.7447935,0.2965891],[6.7430681,0.2962871],[6.7413242,0.294685],[6.7385266,0.2942352],[6.7381754,0.2921894],[6.7376578,0.2919306],[6.7372819,0.2919737],[6.7363268,0.2936991],[6.7339728,0.2917211],[6.7326049,0.2922757],[6.7320503,0.2914623],[6.7314402,0.2926331],[6.7312923,0.2891638],[6.7308856,0.289361],[6.7308795,0.2904579],[6.7301955,0.2907228],[6.728544,0.2899711],[6.7282852,0.2902545],[6.7286488,0.2918197],[6.7274472,0.291795],[6.7260792,0.2906859],[6.7252843,0.2893302],[6.7230844,0.2903593],[6.7225421,0.2903285],[6.7219321,0.2895151],[6.7204514,0.2902664],[6.7198986,0.2888003],[6.7181984,0.289687],[6.7169646,0.2882386],[6.715956,0.2881313],[6.7157093,0.2885927],[6.7140463,0.2883996],[6.713703,0.2873481],[6.7130056,0.2874125],[6.7119756,0.2865113],[6.7103127,0.2858139],[6.7079523,0.2857388],[6.7068258,0.2845587],[6.7047229,0.2842797],[6.7044225,0.2835609],[6.7053881,0.2830352],[6.7055062,0.2825739],[6.7043904,0.2821769],[6.7043474,0.2818443],[6.7053559,0.2814795],[6.7055062,0.2808036],[6.7027488,0.2807178],[6.7023411,0.2797951],[6.7009571,0.278969],[6.6998199,0.2762332],[6.6980067,0.2750423],[6.6974917,0.2753427],[6.6961292,0.2778854],[6.6952279,0.2775314],[6.6921917,0.2790119],[6.6902176,0.2792802],[6.6890159,0.278454],[6.6874924,0.2785291],[6.6860226,0.2797415],[6.6843596,0.2787437],[6.6797999,0.2787974],[6.6741426,0.2765768],[6.6699712,0.2722252],[6.6691344,0.2666892],[6.6688297,0.255806],[6.6713445,0.2500254],[6.6716879,0.2450472],[6.669423,0.2419079],[6.6686262,0.2430462],[6.667683,0.2433226],[6.6666423,0.2430137],[6.6654389,0.2435666],[6.6646258,0.2425909],[6.6632273,0.2422006],[6.6620727,0.2433064],[6.6582349,0.2445911],[6.6554866,0.2444284],[6.6545386,0.2437698],[6.653944,0.2449448],[6.653491,0.2450014],[6.652527,0.2439243],[6.6514241,0.2448315],[6.6502491,0.2437698],[6.6497394,0.2455535],[6.6491732,0.2457658],[6.6485361,0.2453128],[6.645531,0.2464548],[6.6400893,0.2457081],[6.6355145,0.2422749],[6.6266568,0.2425281]]]}},{"type":"Feature","properties":{"district_id":"43174148B20195011652309","district":"Lemba"},"geometry":{"type":"Polygon","coordinates":[[[6.5891305,0.3846601],[6.5880058,0.3837733],[6.5861975,0.3799468],[6.5788141,0.374992],[6.5776231,0.3717927],[6.5767358,0.3719051],[6.5770239,0.3707944],[6.5762743,0.3708317],[6.5767719,0.3698086],[6.5762031,0.3697638],[6.5761259,0.3690033],[6.5752637,0.3692411],[6.5751776,0.3679977],[6.5743654,0.3680351],[6.5740043,0.3664517],[6.5724316,0.3661573],[6.5719018,0.3650336],[6.571084,0.3651586],[6.5697243,0.3639901],[6.5689621,0.3643279],[6.566348,0.3621859],[6.5642566,0.3618798],[6.5640259,0.3607565],[6.5607818,0.3588854],[6.5584788,0.3587262],[6.5584786,0.3592414],[6.5564314,0.3598844],[6.5495221,0.3602694],[6.5495221,0.3607846],[6.5461955,0.3607839],[6.5461955,0.3602686],[6.5451721,0.360139],[6.5423579,0.357949],[6.5423579,0.3574338],[6.5415903,0.3574336],[6.5392894,0.3491895],[6.535963,0.3482866],[6.5346839,0.3475134],[6.5321252,0.3469974],[6.5287286,0.3446109],[6.527969,0.3445753],[6.5225373,0.3320218],[6.5208701,0.3315382],[6.5201023,0.3320532],[6.5147285,0.3325671],[6.5129375,0.3317939],[6.5106348,0.3314072],[6.5106348,0.330892],[6.5101231,0.330892],[6.5093564,0.3272853],[6.5044957,0.3223896],[6.5032163,0.3225176],[6.4998901,0.3214864],[6.498611,0.3204558],[6.4942611,0.3195535],[6.4942613,0.3187807],[6.4932379,0.3189088],[6.4924704,0.3185227],[6.4913192,0.3154312],[6.488928,0.3125827],[6.488728,0.3104289],[6.4891594,0.3100213],[6.4895306,0.3038387],[6.4883681,0.3036239],[6.488444,0.300615],[6.4878323,0.2998349],[6.4882085,0.2963681],[6.4872641,0.2928367],[6.4866522,0.2929617],[6.4860576,0.2903212],[6.4855013,0.2904286],[6.4857461,0.2897453],[6.4850757,0.2900135],[6.4852579,0.2891626],[6.484252,0.2858315],[6.4834498,0.2856268],[6.4828887,0.2842325],[6.4828583,0.282447],[6.4822049,0.2825178],[6.4821264,0.2813713],[6.4826557,0.2811412],[6.4820475,0.2805418],[6.4820478,0.2792043],[6.4811466,0.2791687],[6.4815364,0.2773654],[6.4807239,0.2771353],[6.4809225,0.2758473],[6.4793474,0.2726736],[6.4779491,0.2716328],[6.477109,0.2727417],[6.4743747,0.2726058],[6.4737488,0.2714611],[6.4704759,0.2693166],[6.4691971,0.2669979],[6.4686853,0.2669977],[6.4684297,0.2654523],[6.4679179,0.2654521],[6.4667665,0.263391],[6.4661287,0.2564358],[6.4656169,0.2564358],[6.4649778,0.2510263],[6.4644662,0.2502533],[6.4648507,0.2499958],[6.4653621,0.2507687],[6.4653625,0.2497382],[6.4656488,0.2498208],[6.4657742,0.2492858],[6.4653625,0.2489654],[6.466642,0.2479354],[6.4698208,0.2475683],[6.4676658,0.2470335],[6.4655301,0.2480556],[6.4643388,0.2496088],[6.4630597,0.2492226],[6.4626758,0.2471618],[6.4628047,0.2440707],[6.4617813,0.2438129],[6.4617813,0.2432977],[6.460246,0.2438127],[6.4606295,0.2430399],[6.4622933,0.242525],[6.4612702,0.239949],[6.4633173,0.2394341],[6.4628059,0.2381461],[6.4635734,0.2382746],[6.4647246,0.2373737],[6.4648531,0.2368584],[6.4653647,0.2368586],[6.4647252,0.234025],[6.465237,0.2335097],[6.4653657,0.2319643],[6.4648539,0.2319641],[6.4645983,0.2304187],[6.4640865,0.2304185],[6.4638308,0.2296456],[6.4628074,0.2293878],[6.4634468,0.2281],[6.4633196,0.2273272],[6.4628078,0.2273272],[6.4628079,0.2265544],[6.4622961,0.2265542],[6.4615288,0.2250085],[6.4628081,0.2247511],[6.4629359,0.2239785],[6.4642154,0.2226906],[6.4646,0.2201148],[6.4656237,0.2201149],[6.4647278,0.2185693],[6.4643447,0.216766],[6.4635772,0.2167659],[6.4638333,0.2157356],[6.4648567,0.2157358],[6.464601,0.214963],[6.4640892,0.2149628],[6.4649847,0.2134173],[6.464985,0.2105839],[6.4657527,0.2098112],[6.4662647,0.2082658],[6.4660094,0.2049169],[6.4667771,0.2044019],[6.4666497,0.203629],[6.4671616,0.2036292],[6.4672893,0.2013108],[6.4666503,0.1995075],[6.4651153,0.1992497],[6.4651153,0.1987345],[6.4638359,0.1984767],[6.4630686,0.1966735],[6.4653713,0.1974467],[6.4653713,0.1979619],[6.4674184,0.1969318],[6.4688257,0.1938407],[6.4686987,0.1912648],[6.4681869,0.1912648],[6.4678026,0.1904918],[6.4681871,0.1894616],[6.4674195,0.1892038],[6.4678032,0.1868855],[6.4684435,0.1855977],[6.4689554,0.1855979],[6.4689554,0.1850827],[6.4703623,0.1840524],[6.4704908,0.1832796],[6.4724095,0.1822495],[6.4724097,0.1817343],[6.4748412,0.1801891],[6.4748412,0.1796739],[6.475353,0.179674],[6.4754806,0.1778708],[6.4763768,0.1770982],[6.476377,0.1760677],[6.4771445,0.1760679],[6.4771445,0.1755527],[6.4785516,0.1745225],[6.4788075,0.1734922],[6.4784246,0.1706586],[6.4779128,0.1706584],[6.477529,0.1683401],[6.4785526,0.1673099],[6.4784252,0.1657642],[6.4776577,0.165764],[6.4775293,0.1647336],[6.4786813,0.1637034],[6.4793209,0.1621579],[6.4798332,0.1559757],[6.4797061,0.1544301],[6.4791942,0.1544301],[6.4786828,0.1523692],[6.4791944,0.1523692],[6.4791946,0.151854],[6.4799621,0.1518542],[6.4797064,0.1505662],[6.4802182,0.1503085],[6.4794507,0.1500509],[6.4797066,0.1490205],[6.4791948,0.1490205],[6.479195,0.1479901],[6.4784275,0.1477323],[6.4782991,0.1464444],[6.4786836,0.1456716],[6.4809863,0.1454142],[6.4809865,0.144384],[6.4838011,0.1441265],[6.4838013,0.1425811],[6.4843131,0.1425811],[6.4838013,0.1423235],[6.4838015,0.1418083],[6.484569,0.1418083],[6.4848251,0.1402628],[6.4853369,0.1401335],[6.4855928,0.13949],[6.4878956,0.140263],[6.488535,0.1384599],[6.4881519,0.1361415],[6.4861048,0.1362696],[6.4853373,0.1356261],[6.4853373,0.1351109],[6.4843139,0.1348531],[6.4844414,0.1338228],[6.4853377,0.1326631],[6.4861052,0.1326633],[6.4882798,0.1307319],[6.4884084,0.1299591],[6.4901995,0.1302169],[6.4901995,0.1307321],[6.4939094,0.1289292],[6.4942938,0.1276414],[6.4953173,0.1271262],[6.4955734,0.1262243],[6.4968527,0.1260959],[6.5004823,0.1278683],[6.5251243,0.1437469],[6.5359733,0.1546388],[6.5427883,0.1677451],[6.5461529,0.1865762],[6.5469253,0.2072527],[6.5498092,0.22538],[6.5536974,0.2382116],[6.5548218,0.24658],[6.5534313,0.2534636],[6.5559547,0.2592056],[6.5603922,0.2632053],[6.5686662,0.2635658],[6.5745027,0.2669989],[6.578008,0.2680925],[6.5804112,0.2734054],[6.5817845,0.2845633],[6.5830977,0.3020124],[6.5845311,0.3109902],[6.5850408,0.3287913],[6.5844314,0.3420347],[6.5854614,0.3519909],[6.5902679,0.3558875],[6.5947311,0.3602305],[6.5902679,0.3729332],[6.5891305,0.3846601]]]}},{"type":"Feature","properties":{"district_id":"43174148B37019359222323","district":"Caué"},"geometry":{"type":"MultiPolygon","coordinates":[[[[6.578008,0.2680925],[6.5745027,0.2669989],[6.5686662,0.2635658],[6.5603922,0.2632053],[6.5559547,0.2592056],[6.5534313,0.2534636],[6.5548218,0.24658],[6.5536974,0.2382116],[6.5498092,0.22538],[6.5469253,0.2072527],[6.5461529,0.1865762],[6.5427883,0.1677451],[6.5359733,0.1546388],[6.5251243,0.1437469],[6.5004823,0.1278683],[6.4963409,0.1258383],[6.4967246,0.1242929],[6.4963413,0.1224896],[6.4958295,0.1224894],[6.4955737,0.1206862],[6.4963415,0.1206864],[6.4959572,0.1199136],[6.4960857,0.1188831],[6.4955739,0.1188831],[6.49583,0.1160495],[6.4953184,0.1160495],[6.4953184,0.1152766],[6.4948066,0.1152766],[6.4948068,0.1147614],[6.4935274,0.1143744],[6.4922479,0.1150188],[6.4923755,0.1139884],[6.4917363,0.1137308],[6.4919922,0.112958],[6.4914806,0.112958],[6.4917365,0.1119276],[6.4912247,0.1119276],[6.4912247,0.1111547],[6.4922483,0.1117983],[6.4932717,0.1117985],[6.4935274,0.112443],[6.4953186,0.1125715],[6.4978775,0.1119281],[6.4978776,0.1106401],[6.4987727,0.1098673],[6.4986454,0.1088368],[6.5003082,0.108837],[6.5001806,0.1078066],[6.499669,0.1078066],[6.4999249,0.1071621],[6.5006926,0.107034],[6.5006926,0.1065188],[6.5037631,0.1061321],[6.5047865,0.1069049],[6.5119512,0.1075499],[6.5120787,0.1065195],[6.5133583,0.1052317],[6.5143819,0.103171],[6.5145104,0.101883],[6.5150222,0.101883],[6.5150222,0.1005949],[6.5163016,0.1005951],[6.5166852,0.0975038],[6.5163019,0.0957006],[6.5157903,0.0957006],[6.5152787,0.0938973],[6.5142551,0.0938971],[6.5141269,0.0913211],[6.5136153,0.090033],[6.5152789,0.0896463],[6.5160466,0.0892604],[6.5160466,0.0887452],[6.5165584,0.0887452],[6.5164301,0.0879724],[6.5171978,0.0869421],[6.5170704,0.0848813],[6.5165586,0.0848811],[6.5163029,0.0835931],[6.5157911,0.0835931],[6.5156627,0.0828202],[6.5179659,0.0789563],[6.5180944,0.0774107],[6.5170708,0.0771531],[6.5174543,0.0763803],[6.517071,0.0756074],[6.5163033,0.075865],[6.5161751,0.0725161],[6.51528,0.0712281],[6.513233,0.0712279],[6.513233,0.0707127],[6.5137448,0.0709703],[6.5134889,0.0701975],[6.5155359,0.0704553],[6.5159194,0.0696825],[6.515792,0.0678792],[6.5152802,0.0678792],[6.5152804,0.0655608],[6.515792,0.0653031],[6.5147686,0.0650455],[6.5152804,0.0629847],[6.5159198,0.0627271],[6.5160481,0.061439],[6.5152806,0.0613098],[6.514257,0.0602793],[6.5132335,0.060151],[6.5138729,0.0593782],[6.5141288,0.0573173],[6.5150478,0.0553488],[6.5140729,0.052762],[6.5125633,0.0517123],[6.5115424,0.0517747],[6.509955,0.0529733],[6.5091414,0.0523875],[6.5074167,0.0523821],[6.5067946,0.0515116],[6.5077042,0.0495401],[6.5062603,0.0480789],[6.5063425,0.0477857],[6.5078332,0.0478837],[6.5087276,0.04739],[6.5103995,0.0450498],[6.5118264,0.0421187],[6.5120823,0.0400579],[6.5131232,0.0382763],[6.5130609,0.0365842],[6.5121905,0.0341703],[6.5128015,0.0328073],[6.5120747,0.0318957],[6.5126116,0.0312821],[6.5125656,0.0305765],[6.5136087,0.0299322],[6.5126883,0.0291958],[6.5126423,0.0281834],[6.5114304,0.028076],[6.5112003,0.0272169],[6.5118599,0.0270175],[6.5117526,0.026634],[6.5121974,0.0263579],[6.511323,0.0246858],[6.5115685,0.0236119],[6.5122281,0.0241335],[6.512673,0.0235813],[6.5124582,0.0221853],[6.5161859,0.0218478],[6.5159405,0.0211268],[6.5166768,0.0198382],[6.5164789,0.0190359],[6.5178734,0.0196848],[6.517878,0.0217431],[6.5190712,0.0243899],[6.5211644,0.0249429],[6.52332543686754,0.024226447658984],[6.5234969,0.0250407],[6.5242345,0.0257349],[6.5266024,0.0266909],[6.5284187,0.0262577],[6.5290596,0.0255391],[6.530223447182609,0.025860389878261],[6.5308787,0.0270971],[6.5315362,0.0273097],[6.531553757342657,0.026869921328671],[6.5320254,0.0282811],[6.5327343,0.0285707],[6.533294583166671,0.028323290696815],[6.5332559,0.0293304],[6.533890775516022,0.029149475116341],[6.5333193,0.0301728],[6.5336881,0.0309646],[6.5332,0.0324832],[6.5334712,0.0327978],[6.5348229,0.0331308],[6.535351942660373,0.032299745280054],[6.5350711,0.0331827],[6.5355609,0.0334736],[6.536605697101785,0.032603146694029],[6.535967036595949,0.035306417613483],[6.535087,0.0350966],[6.5339608,0.0367095],[6.5345508,0.0379446],[6.5342037,0.0398103],[6.5344966,0.0408082],[6.5359651,0.0421182],[6.5347414,0.0429135],[6.5340503,0.0447268],[6.5370675,0.0473329],[6.5392583,0.0477667],[6.540484,0.0473111],[6.5411045,0.0451023],[6.5423694,0.0442355],[6.5424799,0.0427552],[6.5452351,0.041139],[6.5463199,0.0377113],[6.5456907,0.0354876],[6.547231,0.0342618],[6.5481317,0.0347176],[6.548178,0.0362946],[6.5485439,0.0368545],[6.5497693,0.0372231],[6.5506304,0.0362272],[6.551234487785706,0.036303147233488],[6.5515384,0.037293],[6.5527722,0.0380711],[6.5537115,0.0371683],[6.5535275,0.0356412],[6.554313079531704,0.034848245148493],[6.5547762,0.036095],[6.5555076,0.0356565],[6.5567411,0.0362454],[6.5569564,0.035589],[6.557505095207651,0.035521634870594],[6.5577653,0.0367575],[6.5568855,0.0397508],[6.5581348,0.0404112],[6.5587827,0.0412388],[6.5569288,0.0434511],[6.5574453,0.0458341],[6.5581421,0.0469641],[6.5581259,0.0496892],[6.5600656,0.0517836],[6.5625026,0.0525025],[6.5638271,0.0518298],[6.5628342,0.053952],[6.5631674,0.0557579],[6.5649288,0.0567199],[6.566698350344924,0.056764961623044],[6.5651225,0.0580834],[6.5640633,0.0615191],[6.5653081,0.0645932],[6.5654105,0.0678334],[6.5635901,0.0703712],[6.5646586,0.074195],[6.5669925,0.076975],[6.568345,0.0793391],[6.5677345,0.083562],[6.5684984,0.0841478],[6.5739728,0.0860993],[6.5784829,0.0865592],[6.5795066,0.0861733],[6.5788666,0.0848853],[6.5792508,0.0830818],[6.5800186,0.0833396],[6.5800186,0.0828242],[6.5810422,0.0828244],[6.5809729,0.0837028],[6.5817471,0.0844165],[6.5826688,0.0843366],[6.5830085,0.0833889],[6.5834402,0.0843685],[6.5838758,0.0844529],[6.5851566,0.0837924],[6.585407,0.0832577],[6.5848861,0.0824502],[6.5852437,0.0819853],[6.5852339,0.0804525],[6.5873113,0.0797333],[6.5871839,0.0779301],[6.5861603,0.0779299],[6.5871839,0.0767703],[6.5892312,0.0762551],[6.5898704,0.0779301],[6.5897428,0.0794759],[6.5918938,0.0788282],[6.5933487,0.0788447],[6.5941522,0.0774094],[6.5953356,0.0771412],[6.5960622,0.0774314],[6.5961403,0.0769],[6.5973047,0.0768265],[6.5971616,0.0772825],[6.5977939,0.077521],[6.598619,0.0759324],[6.5987194,0.0770237],[6.5977493,0.0799274],[6.5979632,0.0810636],[6.5984788,0.0822637],[6.5992108,0.0829539],[6.6000107,0.0828953],[6.6000609,0.0833423],[6.6009147,0.083327],[6.6010164,0.0843144],[6.6017809,0.0847024],[6.6028008,0.0844162],[6.6043734,0.082507],[6.6049299,0.0826502],[6.6050962,0.0838563],[6.6061887,0.0832361],[6.6068324,0.0835312],[6.6066283,0.084362],[6.6079648,0.0825521],[6.6088611,0.0828764],[6.6090331,0.0835355],[6.6099383,0.0823003],[6.6105451,0.0824107],[6.6103271,0.0828739],[6.611857,0.0817788],[6.6137968,0.0821818],[6.6137968,0.0830839],[6.6128537,0.0829319],[6.6118285,0.084364],[6.6111872,0.0844651],[6.6106478,0.0852473],[6.610869,0.0859761],[6.612918,0.0874582],[6.613514,0.0868842],[6.6148203,0.0873343],[6.6163553,0.0908129],[6.6185896,0.0920502],[6.6192975,0.0944197],[6.6206348,0.0960032],[6.6212214,0.097645],[6.6219195,0.0979776],[6.6223972,0.0972756],[6.6232421,0.0972303],[6.6234739,0.0985851],[6.6242423,0.0990242],[6.6257347,0.097586],[6.6264474,0.0975707],[6.627042,0.0970342],[6.6270933,0.0977249],[6.6262009,0.0979883],[6.6259447,0.0992425],[6.6263994,0.1002201],[6.6268771,0.1003754],[6.6267271,0.1008368],[6.6277177,0.1015835],[6.6287004,0.1012289],[6.6296542,0.1015618],[6.6316291,0.1005282],[6.6324773,0.1011479],[6.6329236,0.1010506],[6.6339466,0.1021355],[6.6363453,0.1015663],[6.6366443,0.1021843],[6.6349934,0.1053107],[6.6355293,0.1058632],[6.6362382,0.1056218],[6.6382384,0.1071781],[6.6433378,0.1079031],[6.6452169,0.1070439],[6.6483385,0.1077142],[6.6486765,0.1082078],[6.6500404,0.1077837],[6.6513093,0.1081233],[6.6515156,0.1090071],[6.6523409,0.108712],[6.6525667,0.1093026],[6.6532566,0.1095526],[6.6538593,0.1127023],[6.6534559,0.11393],[6.6537515,0.1139034],[6.6536611,0.1152021],[6.6527652,0.1156906],[6.6529519,0.1162906],[6.6539475,0.1165526],[6.6537995,0.1170687],[6.6545918,0.1189344],[6.6543268,0.1204115],[6.6526738,0.1204112],[6.6515105,0.1219565],[6.6497834,0.122965],[6.6482486,0.1245418],[6.6463225,0.124515],[6.6455546,0.1270089],[6.646018,0.1293246],[6.6477399,0.131119],[6.6487057,0.1312231],[6.650899,0.1302326],[6.652159,0.1301259],[6.6527537,0.1307592],[6.6545996,0.1308552],[6.6561204,0.1318087],[6.6550759,0.1334146],[6.6535999,0.1345293],[6.6539827,0.1352698],[6.6537075,0.1361011],[6.6542184,0.1365039],[6.6540403,0.1369822],[6.6551738,0.1382307],[6.655758,0.137974],[6.6572812,0.1387192],[6.6586087,0.1382297],[6.6593152,0.1384622],[6.6591108,0.1390576],[6.6604956,0.1405747],[6.6619601,0.1404738],[6.6644609,0.1429861],[6.6652288,0.1427287],[6.6668668,0.1433863],[6.6680208,0.1434023],[6.6710903,0.1465147],[6.6733053,0.1465413],[6.6730202,0.1474148],[6.6716413,0.147432],[6.6701462,0.1465037],[6.6690551,0.146508],[6.6675694,0.1489644],[6.6676523,0.1530003],[6.6688918,0.1545036],[6.6704372,0.1554885],[6.6724502,0.1550259],[6.6734167,0.153937],[6.6741036,0.1537272],[6.674742,0.1536526],[6.6756649,0.1543602],[6.6756433,0.1548391],[6.675091379348792,0.155194614638546],[6.6726909,0.1558453],[6.672833243477639,0.15846584055188],[6.6684683,0.1607351],[6.6675784,0.1618311],[6.6659125,0.1626579],[6.6654941,0.1647393],[6.6658588,0.1660267],[6.6642962,0.1690991],[6.6613079,0.1770163],[6.6421376,0.1879468],[6.6279026,0.2020487],[6.6223536,0.2135542],[6.6233235,0.2253387],[6.6266568,0.2425281],[6.61852,0.2465664],[6.6089671,0.251948],[6.6011994,0.2505404],[6.5900243,0.2549778],[6.578008,0.2680925]]],[[[6.527428,0.0042535],[6.524223499999982,0.0014562],[6.523337400000029,0.002344400000038],[6.522748399999967,0.002205199999978],[6.52196220000002,0.000713600000019],[6.5205814,0.0012876],[6.519466700000043,0.0011523],[6.517946700000044,-0.000768],[6.51709789999998,-0.001315600000012],[6.514938500000012,-0.001197800000035],[6.512418499999962,-0.003511],[6.513051400000014,-0.0040958],[6.512379400000013,-0.006233200000021],[6.5130599,-0.0065979],[6.512012699999959,-0.008220499999961],[6.512697599999962,-0.008308100000014],[6.5137759,-0.007667799999971],[6.516685,-0.00962909999998],[6.514948599999959,-0.011553899999988],[6.516429099999977,-0.01269310000001],[6.51743760000002,-0.012403500000029],[6.517078299999957,-0.013497599999961],[6.517338399999984,-0.01392159999996],[6.518864599999963,-0.011781199999965],[6.519431,-0.0127359],[6.5199803,-0.012876700000013],[6.520281499999959,-0.012005],[6.5209744,-0.011861500000037],[6.52145970000001,-0.012285300000019],[6.521536,-0.011437899999982],[6.52233,-0.012006500000044],[6.522051,-0.01272530000001],[6.523596,-0.0129184],[6.52513020000004,-0.0107834],[6.525516799999965,-0.009058800000044],[6.529766799999981,-0.004738499999984],[6.529365399999987,-0.004221700000034],[6.5281408,-0.004645],[6.526542600000019,-0.002691900000023],[6.526550300000034,-0.00186469999997],[6.525632400000026,-0.0014442],[6.525885099999973,-0.000954],[6.527585399999969,-0.000228699999965],[6.5285464,0.002452899999956],[6.5295578,0.003316199999976],[6.529386400000037,0.004114500000036],[6.527428,0.0042535]]]]}}]}