{"type":"FeatureCollection","features":[{"type":"Feature","properties":{"region_id":"UG1","region":"Central"},"geometry":{"type":"Polygon","coordinates":[[[32.2711955960001,1.664501824000183],[32.19842812900015,1.673371113000144],[32.182980537000105,1.670778689000031],[32.17591787500015,1.673338479999984],[32.13995233200018,1.670129590000045],[32.12675550600005,1.66412607500007],[32.10806334700004,1.648892916000136],[32.10138953799998,1.646456471000022],[32.09557515600011,1.648208775000057],[32.090491899000085,1.640897159000133],[32.08377265300015,1.639084843000091],[32.09123561100017,1.618092168000032],[32.08416564800007,1.611087260000033],[32.09082278600005,1.605183132000036],[32.089775277000115,1.591152093000062],[32.081079920000036,1.585666257000184],[32.07434865800013,1.587273441000093],[32.07282071399999,1.575467588000038],[32.063750993000156,1.578882917000044],[32.062785984000186,1.571573249000096],[32.05695486400015,1.571814847000041],[32.05485786600019,1.560660103000089],[32.049861311000086,1.557862606000185],[32.04724252900007,1.550841689000038],[32.04736144200007,1.543722511],[32.03986970800014,1.54218129100002],[32.03754703300007,1.545129233000068],[32.02959444500004,1.540946338000083],[32.02310259200016,1.54286109300017],[32.01674273800012,1.538099966000118],[32.012868641000125,1.539880215000096],[32.00879270300004,1.534704033000082],[32.00084210100016,1.542868763000058],[32.000877164000144,1.535143570000116],[31.997415785000157,1.532554808000157],[31.999485223000136,1.526911136000024],[31.995262787000172,1.527017701000034],[31.99300312800017,1.530960644000061],[31.987995585000192,1.527502742000138],[31.986936596000078,1.519152896000094],[31.98983850500008,1.516087711000011],[31.985473174000106,1.511273249000112],[31.98751870400008,1.506841731000122],[31.971878087000164,1.504174870000156],[31.975953252000068,1.496252640000137],[31.968371167000043,1.48623533000017],[31.975152560000083,1.466102462000038],[31.96205653100003,1.459094923000123],[31.958329586000104,1.459554521000143],[31.957799858000158,1.46438473],[31.95066993900008,1.457189983000092],[31.932225399000174,1.453689595000185],[31.930366242000105,1.445981756000037],[31.920822827000165,1.451467935000039],[31.918532892000144,1.447812377000105],[31.91219341100009,1.448053552000033],[31.91297506500007,1.439840465000032],[31.90357988900007,1.436181491000184],[31.901121721000095,1.429640309000035],[31.89474990200017,1.431310663000033],[31.890199881,1.421159287000137],[31.8855399790001,1.424639574000082],[31.877663235000114,1.418321918000117],[31.87873437100012,1.414441895000152],[31.87255340700011,1.411915168000064],[31.868584143000135,1.40388079100012],[31.867649563999976,1.394816715000161],[31.862113241000145,1.393484331000025],[31.86378361800007,1.388048788000162],[31.831415541000013,1.359476504000042],[31.825193,1.360387043000173],[31.807443186000114,1.354127931999983],[31.793467660000033,1.354663674999983],[31.775644472000067,1.343004399000051],[31.772925314000133,1.334500513000023],[31.76633589000005,1.333719301000087],[31.753476998000167,1.324305802000026],[31.7442005850001,1.325657849000095],[31.738765852000142,1.32313147800005],[31.725506590000123,1.327213010000037],[31.717805203000182,1.33345911300006],[31.688841447000186,1.3368446180001],[31.679658932000052,1.334614611000063],[31.654740422000145,1.346721027000058],[31.610401371000137,1.341650723000157],[31.57761421200007,1.361898489000168],[31.564684030000137,1.36537571100007],[31.532553840000162,1.362026465000099],[31.51415362500012,1.345979048000061],[31.50081165100005,1.326166569000065],[31.45923076300005,1.302630241000088],[31.455690411000035,1.297309332000111],[31.456971579000026,1.283381091000081],[31.44932721000015,1.274199490000058],[31.438775139000086,1.269515195000167],[31.402455072000066,1.270566928000051],[31.39294148600004,1.267639623000036],[31.37814447400018,1.256852592000087],[31.36896106800009,1.238891382000077],[31.321438230000183,1.23816298600002],[31.29242357300012,1.209423035000157],[31.297113412000158,1.207174481000095],[31.302726930000063,1.197673487000031],[31.319468651000193,1.197801461000097],[31.33313889100009,1.19266415200002],[31.342035074000137,1.186113029000069],[31.351513747000013,1.172101235000127],[31.378073050000125,1.157918314000028],[31.38324584200018,1.156510479000133],[31.397679465000124,1.16299407200006],[31.417487990000097,1.157551908000073],[31.42262805600012,1.147914030000038],[31.426152951,1.122719715000073],[31.439208719000078,1.108677275000161],[31.450794543000143,1.101284001000181],[31.462870444000032,1.078809863000174],[31.467190316000085,1.074144659000183],[31.476910782000175,1.0716983370001],[31.48610962500004,1.057552025000064],[31.51316657899997,1.047209923000025],[31.51532366400005,1.039903184000025],[31.524998407,1.032292452000036],[31.528554090000114,1.018691447000094],[31.518062764000035,0.996980311000129],[31.511694294000108,0.994472151000082],[31.509222181000155,0.987796369000023],[31.4904439820001,0.982361308000179],[31.48524007900005,0.973460531000114],[31.46928545800006,0.967741500000045],[31.455162000000144,0.957188702000167],[31.44666583000003,0.956493592000186],[31.432580357000177,0.949199569000029],[31.43030906600012,0.93835607799997],[31.43484579000011,0.929293112000096],[31.435675699000114,0.916100811000035],[31.45422828900007,0.893199308000078],[31.44925078600005,0.877634475000036],[31.450255850000076,0.86704908400003],[31.437390826000183,0.850157896000042],[31.437561512000116,0.836973377000106],[31.444975953000096,0.825354834000052],[31.434761508000065,0.81689470300006],[31.429178267000054,0.818475187000104],[31.42152564100013,0.811237046000088],[31.409406357000137,0.80796742900003],[31.40438737000011,0.801282067000045],[31.40872889400015,0.74513969000003],[31.406191410000133,0.742163347000087],[31.402229301000148,0.744142495000062],[31.39256967800003,0.733051365000051],[31.382785857000044,0.707422743000109],[31.374837168000056,0.703398308000089],[31.369545514000094,0.704718164000099],[31.28859358400007,0.739807852000126],[31.286774291000086,0.733527128000048],[31.289523031000158,0.714012782000111],[31.273974929000133,0.695947618000048],[31.273262626000076,0.682228810000026],[31.26252761400019,0.679285804000074],[31.236673951000057,0.641874436000137],[31.21554095100015,0.631838417000097],[31.235204344000067,0.614491646000033],[31.255431769999973,0.603746093000098],[31.258250003000057,0.582079651000072],[31.25679158700018,0.564770644000134],[31.250692381000192,0.546791104000022],[31.24353306600011,0.544510136000099],[31.241279991000113,0.537871869000185],[31.243203561000144,0.532609365000155],[31.24869382700018,0.530594337000082],[31.248356724000075,0.527474375],[31.24064138000017,0.52097021700007],[31.218295110000042,0.517192954000109],[31.20170315900009,0.507159684000044],[31.17035532200009,0.508000803000073],[31.154242739000154,0.502950381],[31.142313180000144,0.508146426000167],[31.141706671000122,0.499980818999973],[31.145276008000167,0.497115348000136],[31.138773579000087,0.475863520000189],[31.14146764200018,0.452642971000103],[31.11782482400008,0.427634464000107],[31.118734748000065,0.422209227000167],[31.11382904500016,0.411881586000163],[31.124812067000107,0.384277550000093],[31.12326584300007,0.381220853],[31.143136808000065,0.353600184000072],[31.138808830000073,0.336107430000084],[31.116236669000045,0.317144585000051],[31.11520037100007,0.308074921000127],[31.107493246000047,0.295251436000058],[31.078669513000193,0.276836433000028],[31.062950128000125,0.262149389000058],[31.059132493000163,0.25385715900012],[31.023754056000087,0.228615671000114],[31.02761473200013,0.209230264000098],[31.01932517900019,0.197438551000118],[31.013429904000134,0.19824255900005],[31.01637122800014,0.168911020999985],[31.033860332000188,0.151805400000171],[31.047256458000106,0.146652670000151],[31.051510210000174,0.128017316000125],[31.04762810800014,0.121931705000122],[31.056787441000097,0.116769342000111],[31.04702846200007,0.098630274000129],[31.049580348000177,0.093774836000023],[31.044406825000124,0.09155019200017],[31.04277532500015,0.08544672700009],[31.05203032900016,0.07804174600011],[31.05210981100015,0.063918011000112],[31.057130417000053,0.058990259000041],[31.053659890000063,0.050418226000033],[31.05889774500008,0.043935188000091],[31.054791975,0.035209447999989],[31.059333022000146,0.018192271000032],[31.056947070999968,0.011989352000057],[31.029924007000147,-0.009792982999898],[31.023539761000052,-0.025679627999978],[31.026449281000055,-0.036095989999922],[31.039934108000182,-0.035291521999966],[31.052583603000073,-0.027009215999954],[31.058538890000136,-0.030680402999906],[31.06947542400019,-0.030183264999835],[31.07560914900006,-0.023889985999972],[31.08313096000012,-0.029686161999905],[31.098553768000045,-0.054390052999963],[31.09894393000019,-0.07742994299997],[31.10259722000012,-0.090677160999974],[31.098458944000186,-0.12598724299994],[31.079663276000076,-0.192798945999868],[31.070653797000034,-0.209453633999885],[31.075151366000114,-0.221010126999943],[31.06843302500016,-0.242113685999925],[31.07401914400009,-0.273852596999916],[31.089870987000097,-0.322728667999968],[31.103237226000147,-0.33910686999991],[31.115364902000124,-0.37519752299994],[31.124676185000055,-0.39115946599992],[31.124809204000144,-0.405003516999898],[31.13233724300011,-0.420232827999826],[31.152944923000064,-0.440845838999962],[31.15279282800003,-0.519525529999953],[31.140706325000167,-0.538836845999924],[31.134922749000168,-0.559877001999894],[31.124399491000077,-0.575074002999827],[31.124869726000156,-0.588538384999936],[31.10612501000014,-0.60732206299997],[31.098631267000144,-0.621552033999876],[31.090996217999987,-0.663568744999964],[31.092801462000182,-0.671400072999973],[31.13963202700006,-0.693382467999925],[31.154377214000192,-0.705451100999881],[31.170528404000038,-0.729284980999978],[31.18740013300004,-0.739441565999869],[31.19581972800006,-0.749219854999978],[31.199953414000163,-0.758016931999975],[31.19973322000004,-0.777793514999928],[31.195008381000036,-0.790930697999954],[31.192329788000166,-0.822043636999865],[31.22174149400007,-0.837345690999939],[31.227649940000106,-0.847526667999887],[31.22706202300003,-0.855683147999912],[31.203729475000046,-0.873067506999973],[31.206274987000143,-0.877891767999927],[31.203490464000083,-0.887747117999936],[31.209893715000078,-0.901043266999864],[31.270841449000045,-0.949707013999955],[31.26432291300017,-0.984393210999826],[31.27080049400007,-0.9993087819999],[31.562886666000054,-1.001629843999922],[33.52357513700014,-0.99918449799992],[33.52216583300009,-0.026934334999964],[33.55606861400008,0.085972084000105],[33.54521567500012,0.097698662000141],[33.5338052080001,0.126066133000052],[33.538650002,0.140440108],[33.538240852000115,0.151951685000085],[33.52978887800015,0.148181381000086],[33.52731221,0.139952166000171],[33.47634777899998,0.159888908000028],[33.426224433000016,0.210017077000089],[33.42622440400015,0.216063813],[33.41759598600015,0.229924231000041],[33.42204949200004,0.250461021000149],[33.39619294300019,0.278940810000165],[33.392285376000075,0.30074659200011],[33.38555191100011,0.310719254000162],[33.34434161400014,0.331794816000127],[33.30056257800004,0.335243361999972],[33.292645871,0.344422124000062],[33.289414728999986,0.353716929000029],[33.290368673000046,0.379015891],[33.282177607,0.388869507000152],[33.27255845500014,0.394551494000154],[33.24637367600013,0.403047701000162],[33.20555429700016,0.408151524000118],[33.19703140200011,0.41263015100003],[33.1933140970001,0.429377844999976],[33.184783707000065,0.441744663000065],[33.182452096000134,0.451217246000169],[33.17481351800012,0.455722994000155],[33.16760424100005,0.467837514000109],[33.16042119000019,0.473338450000142],[33.159751257000096,0.480485841000075],[33.154712552000035,0.478224130000058],[33.15029032500013,0.489632894000067],[33.141659952000055,0.491306839000117],[33.13696964500019,0.496681046000106],[33.13798837100012,0.50121373200011],[33.13474524200012,0.50566508300011],[33.119387860000074,0.515834581999968],[33.11638598600018,0.52160683000011],[33.10520944500013,0.527198283000075],[33.08915503100013,0.547030294000081],[33.08267386300014,0.54661420900004],[33.08152555800007,0.553562579000129],[33.07526236700011,0.556448768999985],[33.07661107500019,0.56184096200019],[33.0731010720001,0.566654190000179],[33.072167423,0.580786145],[33.05067231700019,0.59531640900002],[33.053775073000054,0.61370962500007],[33.05139544500014,0.618079511000133],[33.05448938600006,0.62391501400009],[33.04414483,0.638517522000029],[33.04328661500017,0.64775486100001],[33.05596446900017,0.671589376000099],[33.058422386000075,0.696893791000093],[33.04727617800012,0.731274577000079],[33.05328059300018,0.738844836000055],[33.04661137900007,0.760737997000035],[33.048459496000135,0.764818328000047],[33.040958877000094,0.772915770000168],[33.0443339630001,0.780406929000151],[33.03815130100014,0.789174207000087],[33.03057177799997,0.828881084000159],[33.01077492300004,0.846565233000092],[33.010566878000134,0.858145140000147],[33.005364961000055,0.866164311000091],[33.00414888299997,0.875488560000178],[32.96887778000013,0.916253375000053],[32.96405206700007,0.936723792000123],[32.954515860000186,0.939325856000096],[32.94928809700008,0.946091443000057],[32.95026443400013,0.964248868000084],[32.94561102800003,0.975293587000067],[32.945208382000146,1.006519691],[32.93498232400009,1.022248204000107],[32.93509701900007,1.032252122999978],[32.94371385000011,1.056712734000143],[32.93785342399997,1.08828567],[32.94158747800003,1.09667052900005],[32.96078114700015,1.116792303000125],[32.961188298000025,1.133535592000158],[32.96784185800004,1.154857734000075],[32.96390361700003,1.174471243000141],[32.965804539000146,1.189984429000106],[32.960033092000174,1.202422212999977],[32.93939081000019,1.209843372000023],[32.93597682300003,1.216715406],[32.93503202800014,1.236593001000017],[32.91292327300005,1.269051717000025],[32.9049762030001,1.286113853000074],[32.86471150500017,1.332367093000073],[32.842337841000074,1.387691481000161],[32.82636768700013,1.440499782000131],[32.82026492200015,1.475008012000046],[32.739882443,1.456245140000135],[32.69522051600012,1.450467400000093],[32.65483395700011,1.436175586000104],[32.625361034000036,1.438001880000058],[32.580624550000095,1.484257770000113],[32.56835056600005,1.514843257999985],[32.562350853000055,1.521073522],[32.54566124800016,1.522627909999983],[32.53164024500012,1.515277651000133],[32.521497130000114,1.521727315000021],[32.51047952700003,1.521634353000138],[32.49782175399997,1.537861644000145],[32.469333898000116,1.551244116000021],[32.43637810400003,1.576458155000182],[32.42318136600005,1.580887460000099],[32.41066244800004,1.590383068999984],[32.377285125000185,1.595529840000154],[32.35976834600007,1.602029015000085],[32.34436682800009,1.614020024000069],[32.3250656300001,1.619866848000129],[32.312549047000175,1.64322101700003],[32.29738827400013,1.654505862000178],[32.2711955960001,1.664501824000183]]]}},{"type":"Feature","properties":{"region_id":"UG2","region":"Eastern"},"geometry":{"type":"Polygon","coordinates":[[[34.21197248300007,2.118646702000149],[33.734725438000055,2.416878944000075],[33.707083053000076,2.395159340000134],[33.70709421100014,2.389485734000175],[33.696120799000084,2.386152292000077],[33.68802698500008,2.374710102000108],[33.678755582000065,2.37110679400007],[33.672645449000186,2.359918146000155],[33.67413420500009,2.355646613000147],[33.659029107000094,2.353782463000073],[33.632038809000164,2.358412596000107],[33.63264705600011,2.355988284999967],[33.62529867300009,2.351502178000146],[33.621889021000015,2.339657461000058],[33.61750751300008,2.340150956000116],[33.61690309500017,2.336202470000046],[33.612243382000145,2.333697634000146],[33.607211259999985,2.336370569000053],[33.59448625500005,2.328445737000152],[33.58775983500004,2.33059500700017],[33.583930450000025,2.326991916000054],[33.58030081300018,2.333793193000133],[33.57614378500011,2.332479035000119],[33.57103351300009,2.336615233000032],[33.568735841000034,2.334338655000124],[33.56859193300005,2.341023800000187],[33.56089212100011,2.353397623000035],[33.53745326100005,2.357159102000139],[33.53453850600016,2.352840396000033],[33.54616652000004,2.329229039000154],[33.543860592000044,2.318019465000077],[33.54923453500015,2.289663972000085],[33.53871107000009,2.269950537000113],[33.508693779000055,2.251268549000145],[33.49171352500019,2.230972682000129],[33.48497370600006,2.234491777000073],[33.4722785730001,2.234998778000033],[33.46154262400006,2.241616395000165],[33.44488388200017,2.2462453280001],[33.441197552000176,2.241071020000049],[33.44238789499997,2.229318658000068],[33.4628955500001,2.211797445000116],[33.47481174300009,2.207333523999978],[33.47867016600003,2.196204571000123],[33.47772962300013,2.188460715000133],[33.47094077100007,2.178628863000029],[33.46640824900004,2.156383869000138],[33.45586730700006,2.144300359000056],[33.45513397499997,2.127608949000148],[33.43749243000002,2.111028249000128],[33.41574590700009,2.142831417000025],[33.40221294800011,2.123473147000084],[33.36545380100017,2.105096746000072],[33.34760319999998,2.063576825999974],[33.363461594000114,2.042111551000062],[33.36402771400003,2.027862290000087],[33.348730247000105,2.030718603000082],[33.3243804710001,2.05263876600003],[33.31451210400013,2.053442901000039],[33.309323800000186,2.047370296000054],[33.29122373500013,2.040062921000185],[33.28201240800013,2.021864718000188],[33.283947519000094,2.010619287999987],[33.27442429600006,1.98988158100002],[33.271452115000045,1.957131858000025],[33.24931080500005,1.952085537000073],[33.2515570490001,1.941337395000176],[33.24482985900016,1.933767127000124],[33.242133160000094,1.923860852000189],[33.230027703000076,1.921564554000099],[33.221311949000096,1.910026684000059],[33.21109373200011,1.911189876000037],[33.200379998000074,1.907789419000153],[33.165159114000176,1.874037981000129],[33.1549596430001,1.874328432000084],[33.14611137200012,1.87058364100011],[33.141773559000114,1.857022186999984],[33.132389607000164,1.853838290000112],[33.119189040000094,1.858118583000135],[33.11390374400014,1.853812442999981],[33.11202279500003,1.83057017200008],[33.11519932500016,1.822698858000024],[33.10163056500011,1.791604252000127],[33.1039781340001,1.777255164],[33.08394694500015,1.748069705000091],[33.0867072690001,1.738081390000104],[33.08381923000013,1.731875092000109],[33.04679846500011,1.708054896000078],[33.02599324900012,1.7060648960001],[33.00424406500008,1.713357174000066],[32.99993860400008,1.712280552000152],[32.994053085000075,1.688413811999965],[32.996451377000085,1.671641695000062],[32.945131844,1.642146440000033],[32.95189073600005,1.631650567000179],[32.96404596000019,1.621237395000094],[32.96684830200007,1.611593034000123],[32.967322161000084,1.582388389000016],[32.97450535100006,1.557535577000181],[32.973680078000086,1.477186524],[32.89454644,1.481228294000118],[32.82026492200015,1.475008012000046],[32.82636768700013,1.440499782000131],[32.842337841000074,1.387691481000161],[32.86471150500017,1.332367093000073],[32.9049762030001,1.286113853000074],[32.91292327300005,1.269051717000025],[32.93503202800014,1.236593001000017],[32.93597682300003,1.216715406],[32.93939081000019,1.209843372000023],[32.960033092000174,1.202422212999977],[32.965804539000146,1.189984429000106],[32.96390361700003,1.174471243000141],[32.96784185800004,1.154857734000075],[32.961188298000025,1.133535592000158],[32.96078114700015,1.116792303000125],[32.94158747800003,1.09667052900005],[32.93785342399997,1.08828567],[32.94371385000011,1.056712734000143],[32.93509701900007,1.032252122999978],[32.93498232400009,1.022248204000107],[32.945208382000146,1.006519691],[32.94561102800003,0.975293587000067],[32.95026443400013,0.964248868000084],[32.94928809700008,0.946091443000057],[32.954515860000186,0.939325856000096],[32.96405206700007,0.936723792000123],[32.96887778000013,0.916253375000053],[33.00414888299997,0.875488560000178],[33.005364961000055,0.866164311000091],[33.010566878000134,0.858145140000147],[33.01077492300004,0.846565233000092],[33.03057177799997,0.828881084000159],[33.03815130100014,0.789174207000087],[33.0443339630001,0.780406929000151],[33.040958877000094,0.772915770000168],[33.048459496000135,0.764818328000047],[33.04661137900007,0.760737997000035],[33.05328059300018,0.738844836000055],[33.04727617800012,0.731274577000079],[33.058422386000075,0.696893791000093],[33.05596446900017,0.671589376000099],[33.04328661500017,0.64775486100001],[33.04414483,0.638517522000029],[33.05448938600006,0.62391501400009],[33.05139544500014,0.618079511000133],[33.053775073000054,0.61370962500007],[33.05067231700019,0.59531640900002],[33.072167423,0.580786145],[33.0731010720001,0.566654190000179],[33.07661107500019,0.56184096200019],[33.07526236700011,0.556448768999985],[33.08152555800007,0.553562579000129],[33.08267386300014,0.54661420900004],[33.08915503100013,0.547030294000081],[33.10520944500013,0.527198283000075],[33.11638598600018,0.52160683000011],[33.119387860000074,0.515834581999968],[33.13474524200012,0.50566508300011],[33.13798837100012,0.50121373200011],[33.13696964500019,0.496681046000106],[33.141659952000055,0.491306839000117],[33.15029032500013,0.489632894000067],[33.154712552000035,0.478224130000058],[33.159751257000096,0.480485841000075],[33.16042119000019,0.473338450000142],[33.16760424100005,0.467837514000109],[33.17481351800012,0.455722994000155],[33.182452096000134,0.451217246000169],[33.184783707000065,0.441744663000065],[33.1933140970001,0.429377844999976],[33.19703140200011,0.41263015100003],[33.20555429700016,0.408151524000118],[33.24637367600013,0.403047701000162],[33.27255845500014,0.394551494000154],[33.282177607,0.388869507000152],[33.290368673000046,0.379015891],[33.289414728999986,0.353716929000029],[33.292645871,0.344422124000062],[33.30056257800004,0.335243361999972],[33.34434161400014,0.331794816000127],[33.38555191100011,0.310719254000162],[33.392285376000075,0.30074659200011],[33.39619294300019,0.278940810000165],[33.42204949200004,0.250461021000149],[33.41759598600015,0.229924231000041],[33.42622440400015,0.216063813],[33.426224433000016,0.210017077000089],[33.47634777899998,0.159888908000028],[33.52731221,0.139952166000171],[33.52978887800015,0.148181381000086],[33.538240852000115,0.151951685000085],[33.538650002,0.140440108],[33.5338052080001,0.126066133000052],[33.54521567500012,0.097698662000141],[33.55606861400008,0.085972084000105],[33.52216583300009,-0.026934334999964],[33.52357513700014,-0.99918449799992],[33.52012787400014,-0.999195844999974],[33.653551881000055,-0.99917192099997],[33.92961826800018,-0.995874038999943],[33.92932273700012,-0.539738482999951],[33.941225228000064,-0.421467092999876],[33.971855530000084,-0.250059637999925],[33.98777549000016,-0.131184344999895],[33.94258013000007,-0.002714147999939],[33.91113751100005,0.10412570900013],[34.00820534500008,0.240794546000132],[34.0226547530001,0.252835950000133],[34.02399667000003,0.267065210000055],[34.02868472000017,0.268932721000112],[34.03005985400006,0.26672175200008],[34.041196074000084,0.273554313999966],[34.03952224800014,0.284318372000143],[34.043215749000126,0.285535112000105],[34.03963352100004,0.288271083000041],[34.04873974000003,0.291463667000073],[34.05118317400007,0.305960477000156],[34.06124095400003,0.310833029000094],[34.05693262200003,0.321046546000048],[34.07266289800003,0.3223797550001],[34.0751777640001,0.327567849000047],[34.08247075000014,0.329745656],[34.08163940600008,0.334342225000114],[34.08470404000013,0.333718524000119],[34.09228989300016,0.343846824000025],[34.099798759000066,0.347270633999983],[34.09805167200017,0.352158079],[34.10847380000007,0.367384770000172],[34.10934444399999,0.37816271600002],[34.10111266400014,0.411144278999984],[34.09074087500005,0.424189618000185],[34.09231723900007,0.43975703000018],[34.08891746700016,0.454081109000072],[34.12006358100007,0.481038192000028],[34.117621243000144,0.508229105000169],[34.12334999900003,0.515353134000122],[34.11679867300012,0.520358852000072],[34.12687594200003,0.536521498000127],[34.12819311100003,0.555788338000127],[34.138344139000026,0.582913965000046],[34.14277569700005,0.580344126000114],[34.149246826000024,0.585516833000099],[34.153615802,0.58460233],[34.153753623000114,0.588455684000166],[34.16643555600007,0.599868383000057],[34.173956,0.60096125400014],[34.17524691099999,0.605357052000045],[34.18643282600016,0.603970643000025],[34.184674083,0.609741995000036],[34.191521057000045,0.612906348000138],[34.19216400300013,0.620142501000146],[34.197019099000045,0.618549410000014],[34.19597917400006,0.621606979000148],[34.20035826100013,0.625920605000033],[34.20351722800007,0.621898429000112],[34.20785789700017,0.625906438000186],[34.21640010100015,0.621871777000024],[34.22083107200018,0.63007805500007],[34.229652651000094,0.62527739300009],[34.23364713900003,0.627633089000142],[34.236285391000024,0.62545097900005],[34.24127142500009,0.632929856000089],[34.250486426,0.628471397000055],[34.26153471500015,0.636892764000038],[34.277468602,0.639985954000167],[34.279726347000064,0.648733624000101],[34.27686940799998,0.655774499000131],[34.28012523000007,0.656347237000091],[34.278364891000024,0.661004411000135],[34.28146712600011,0.664089465000131],[34.27810518400008,0.670428666000134],[34.278528907000066,0.67884275199998],[34.295965486000114,0.684586738000064],[34.294962428000076,0.68820896800014],[34.30365455000003,0.690829621000148],[34.305530096000155,0.694944637999981],[34.31271580600014,0.694182776000048],[34.31431901299999,0.69799024800011],[34.308905259000085,0.706099979000101],[34.31064259900012,0.71258080400014],[34.30775534800006,0.721603969],[34.314729785000054,0.761118523000107],[34.31949935100016,0.764736043000084],[34.33481812700006,0.765611194000087],[34.34598099400006,0.771925269],[34.354807296000104,0.771201733],[34.35938132700011,0.775679251000099],[34.36177345100015,0.773938732999966],[34.373109020000186,0.783261208000113],[34.37252075300012,0.787853095],[34.376983260000145,0.793611879000082],[34.37960789300013,0.795200422000164],[34.381565772000044,0.789792706000185],[34.38392873100008,0.790254085000072],[34.38576875200016,0.800793255999963],[34.39171835000019,0.802995687000077],[34.3955032130001,0.799626660000115],[34.41405019000018,0.807599246],[34.410991981000166,0.81320437100004],[34.414221630000156,0.817185241000118],[34.40641313400016,0.826048180000043],[34.41600416300014,0.832380645000057],[34.41493770700015,0.839644265000118],[34.42140518700006,0.843087411999988],[34.42130171600013,0.847311248000096],[34.44082946300017,0.853901148000148],[34.446882348000145,0.860696488000031],[34.44757458700013,0.876451620000125],[34.45242882800005,0.888325033000115],[34.45122005600007,0.897568904000138],[34.46498901400014,0.908932118000109],[34.480641838999986,0.937261443000068],[34.490074376,0.98006385400015],[34.487724846000106,0.997800704999975],[34.48941792300013,1.014965926000116],[34.49973286100004,1.059042592000026],[34.503338136000025,1.067809247000184],[34.51438819700013,1.078642810000133],[34.52300052500004,1.099369204000141],[34.52713603300009,1.104046886999981],[34.57519114000007,1.099430984000094],[34.57984215500005,1.147088160000123],[34.611959460000094,1.156168182000158],[34.62107173700008,1.16472322900006],[34.64914457700007,1.176081570000065],[34.664119664,1.189384557000039],[34.66975226300019,1.205073833000029],[34.70184702000017,1.213103822000164],[34.74325840100005,1.218162937000159],[34.768993539000064,1.215872460000071],[34.78354762600003,1.221716054000069],[34.79528184600014,1.219216437000057],[34.80655685100015,1.228611529000091],[34.813644756000144,1.245366930999978],[34.81913177100006,1.247863154000015],[34.82063557100014,1.26013107100016],[34.832264942000165,1.268237572999965],[34.82974129000007,1.272162440999978],[34.82981789400003,1.307003808000047],[34.78279842400019,1.36890948700011],[34.77685284600011,1.382098534000079],[34.77757288800018,1.39352758900003],[34.76491755100017,1.401278653000134],[34.75899891700004,1.409250040000188],[34.75487867099997,1.409316476000186],[34.75019333200004,1.413696879000156],[34.752162218000024,1.415919967999969],[34.74633780100015,1.41698382800007],[34.734577734000084,1.434750399000052],[34.72594008100015,1.439721477000148],[34.72324746400017,1.437519308000105],[34.71881513300019,1.442375170000048],[34.71808013700013,1.448132317999978],[34.72218731100014,1.454813841000089],[34.72012904100018,1.467002095000112],[34.72608697200013,1.469614620000016],[34.72312081000018,1.474791104000076],[34.71149280600014,1.478360526000131],[34.71161650400006,1.498705234000056],[34.70199237300005,1.501226836000114],[34.6999407350001,1.524198416000104],[34.686376634,1.524552814000117],[34.680493302000116,1.527783651],[34.67552926700017,1.524001360000113],[34.671265851000044,1.525107304000187],[34.67083993400007,1.521905433000029],[34.65923845499998,1.523666453000033],[34.65551405400015,1.533891122000057],[34.63071342300009,1.546071855000093],[34.62532843300005,1.555814452000163],[34.62253456000008,1.572001157000159],[34.61781723400003,1.576633399000116],[34.607362697000156,1.574298609000039],[34.59329900600011,1.579424191000101],[34.59328402200015,1.584667952000075],[34.58565666100009,1.585774794000031],[34.575019368000085,1.579196502000173],[34.5686628040001,1.580438601000026],[34.56254401000007,1.58809333500011],[34.546264731000065,1.593783471000165],[34.54528116300003,1.59818984900005],[34.521138639000185,1.599849168000105],[34.51661550200009,1.595865242000173],[34.49937394700004,1.59491567800012],[34.495290923000084,1.601974342000119],[34.488740515000075,1.598953591],[34.486271314000135,1.58621929200018],[34.47180937200011,1.58786812],[34.470036088000086,1.584293692000017],[34.46504472600009,1.58434510100011],[34.464006762,1.578617524000038],[34.459918664000156,1.578740023000137],[34.461224469000115,1.576658247000012],[34.4533901530001,1.572968473000117],[34.45388775100008,1.570743751000066],[34.44756720200013,1.573474849000092],[34.44522404700018,1.570666123000024],[34.43661970100004,1.570552538000129],[34.42558039000011,1.554893734000188],[34.41914956800002,1.552829197000165],[34.406945178000115,1.554141004000087],[34.393903161000026,1.564662129999988],[34.37051365800005,1.563744886000165],[34.36244046800016,1.558356513000092],[34.34755497200007,1.567802255],[34.34238423700009,1.566478108000183],[34.343285285000036,1.563033185000165],[34.339324667000085,1.558335634000059],[34.32806511500013,1.550963779000028],[34.2992942030001,1.554797019000091],[34.27730191800009,1.54648654600004],[34.27163313600016,1.547099946000117],[34.26749220500011,1.558739438000032],[34.2603747550001,1.561650021999981],[34.22956819000012,1.561541322000096],[34.229070001000025,1.639799611000115],[34.22221310400016,1.640185996000184],[34.223194413000044,1.980863587000101],[34.21197248300007,2.118646702000149]]]}},{"type":"Feature","properties":{"region_id":"UG3","region":"Northern"},"geometry":{"type":"Polygon","coordinates":[[[34.04811910900008,4.176446235000071],[33.988505263000036,4.231367005000095],[33.51525822400009,3.75219573600009],[33.48793866500017,3.751265922000073],[33.17956397500018,3.776032876000102],[33.02849989000015,3.890907270000071],[32.90190393800003,3.812892282],[32.72097231700019,3.765098197000157],[32.41601628000018,3.742908538000108],[32.197901204000175,3.597779028000048],[32.19559948800014,3.594689894000055],[32.20981472900007,3.589299926000137],[32.21520484700005,3.573869024000032],[32.21444263000012,3.566922364000106],[32.21867185000008,3.56152352800018],[32.20908259100008,3.547237423000183],[32.20909078800014,3.537590207000108],[32.20219244600014,3.520605183000043],[32.202683172000036,3.504984070000091],[32.20092045600006,3.504273824000109],[32.20117165300013,3.50417445000005],[32.2009542830001,3.50408867200008],[32.1032212130001,3.529333284000188],[32.085081050000156,3.530071883000119],[32.08404407600011,3.536154202000034],[32.087543634000156,3.533004267000081],[32.089749893000146,3.534998815000108],[32.0870222210001,3.542107674000022],[32.089173121000044,3.546137284000054],[32.082810039000094,3.545660962000056],[32.081856468000126,3.556105488000014],[32.086642908000044,3.559667495000156],[32.08158543700017,3.558969521000108],[32.08144308400006,3.56492842200015],[32.07295583000018,3.566332204000105],[32.073559969000144,3.570949416000076],[32.06882141600005,3.572054243000082],[32.07052405200005,3.575804398000116],[32.06778608000019,3.574005666000176],[32.06230886200012,3.580219993000185],[32.05777666300003,3.58055571500006],[32.06106149500005,3.584515470000042],[32.053309949000095,3.586664790000043],[32.053661017000024,3.590950697000039],[32.04683096500014,3.586716910000121],[32.04466746200012,3.592350156000066],[32.037960423000186,3.584817021000049],[32.00066570500013,3.57676212400014],[32.000412298000185,3.58584265900015],[31.95784913200015,3.58657542900005],[31.952704999000048,3.627070824000157],[31.96148905600006,3.64594063800007],[31.959178710000174,3.656826571000067],[31.950397934000193,3.666050430000041],[31.907123518000105,3.73442722700014],[31.87054019800007,3.782034142000157],[31.84252695400005,3.801009835000173],[31.828067436000026,3.815724620000083],[31.813491154000133,3.822097791999965],[31.796509066000112,3.819275289000132],[31.796783309000148,3.812770537000176],[31.80375754700009,3.805438982999988],[31.801411451000092,3.798879016000171],[31.756863231000125,3.766218582000022],[31.737883959000044,3.747172368000122],[31.73013046400007,3.752412471000184],[31.725484968000103,3.73435549900006],[31.71749620700018,3.727201097000147],[31.71212207800005,3.716514072000052],[31.708251021000137,3.71656821900001],[31.702839978000156,3.710876693000046],[31.700154847000135,3.71446234400014],[31.694797721000043,3.712659608000024],[31.692720505000125,3.707810560999974],[31.68861227600013,3.707206189999965],[31.680322619000037,3.71521055200003],[31.65658509400015,3.719093197000063],[31.643200841000066,3.728734441000029],[31.618218055000114,3.729084257000181],[31.613637246000053,3.72608578300003],[31.607641427000033,3.714051538000092],[31.600086137000176,3.709193768000148],[31.59765796900018,3.7006948450001],[31.580840472000034,3.697407561999967],[31.57571760500008,3.686999364000144],[31.566893051000193,3.686945833000095],[31.561275741000088,3.680745003000027],[31.553654282000025,3.680373675000055],[31.550394086000097,3.671155588000033],[31.539835468000092,3.66446807],[31.52212249900009,3.645176052000011],[31.51591681300016,3.64367911700009],[31.515954712000052,3.636822173000098],[31.50297188800016,3.640991847000123],[31.50857196800007,3.674170427000149],[31.450369398000078,3.699088974000176],[31.415286126000183,3.720141139000077],[31.35232412500011,3.75065071400013],[31.28984633000016,3.793813286000045],[31.16588196300006,3.79397168600002],[31.152977418000035,3.777301041000101],[31.135702524000124,3.768457686000033],[31.134206802000165,3.764847829000018],[31.129739956000094,3.765411327000095],[31.11802745500006,3.753238455000144],[31.11446322100005,3.754492072],[31.108101919000035,3.748918519000085],[31.10500827600015,3.749887951000176],[31.10037763300005,3.744151382000098],[31.10539497500008,3.740092581999988],[31.10049195800019,3.735846761000175],[31.094357959999968,3.739308054000105],[31.091538833000072,3.734418024000149],[31.088826529000187,3.741528026000083],[31.084706563000168,3.739422493000063],[31.076130938000176,3.74342759600006],[31.06593021000009,3.740067138000029],[31.05886904500005,3.733144048000099],[31.063709999000025,3.729573787000163],[31.060707758000035,3.719160539000086],[31.0531163390001,3.7127409470001],[31.048633970000026,3.71268755],[31.030494673000135,3.696606149],[31.020099391000144,3.693047343000103],[31.01679579600011,3.700077244000056],[31.00071650000018,3.70870156400008],[30.987360948,3.705188532000022],[30.97363535600016,3.693466961000183],[30.96737346500015,3.673008700000025],[30.95586016500016,3.668538978000072],[30.946699912000156,3.650525422000158],[30.949264966999976,3.633260930000063],[30.94036421600009,3.626375987000131],[30.939399756000057,3.619145277000143],[30.929455596000082,3.618756475000112],[30.921083204000126,3.599394195000173],[30.908902840000053,3.593647004000104],[30.90337774300008,3.574587874000031],[30.887707837000107,3.553856835000033],[30.862008080000066,3.482818476000034],[30.871062171,3.479672805000064],[30.87873511700019,3.481579740000029],[30.880499141000143,3.488466264000124],[30.89305668900016,3.499114496000118],[30.90314186400019,3.500265007000166],[30.91225538100008,3.505605127000081],[30.937493975000052,3.50614293600006],[30.940707925000027,3.499273154000093],[30.93826711800017,3.493056412000158],[30.94370638100014,3.466689237000139],[30.93741429400012,3.459757969000066],[30.935788687000183,3.441914356999973],[30.938589025000056,3.40130608100003],[30.91959252700019,3.386141484000063],[30.91871752200018,3.370084151000071],[30.91242299800018,3.365731611],[30.910537919999967,3.35957059600014],[30.9035867610001,3.357430985000121],[30.89507116900006,3.34281143100003],[30.88820623100014,3.338438882000162],[30.891596163000088,3.329260600000168],[30.888112499000158,3.325455912000109],[30.893443709000053,3.311592826000094],[30.887658628,3.313289889999965],[30.882882531000178,3.306290410000088],[30.875676751000128,3.30275869400009],[30.876259752000124,3.291854200999978],[30.86715295500005,3.283316595000031],[30.87139951300003,3.277765586000044],[30.86588171000011,3.273432271000047],[30.84268992700015,3.267026767000118],[30.838975329999982,3.260572757999967],[30.83687067800014,3.248327193000137],[30.84178930200011,3.236395052000034],[30.83040265900007,3.224355660000072],[30.82737532100009,3.215010244000098],[30.830398883000157,3.201482930000111],[30.82525408500004,3.195252052000058],[30.810384089000024,3.158732875000112],[30.80977532300011,3.139656158000093],[30.802790965000042,3.132812798000032],[30.80017186100008,3.101651041000139],[30.794249637000178,3.092665324000166],[30.795094742000174,3.066618942000161],[30.79116112000014,3.060917995000182],[30.77565595800013,3.057233302000043],[30.76873411700018,3.049444581000103],[30.769867085000158,3.042757313000152],[30.77865696800012,3.034112742000161],[30.778465508000068,3.024195878000114],[30.781451845000163,3.020206080000037],[30.792463239000142,3.014869721000025],[30.802923288999978,3.004355315000112],[30.809321051000154,3.002841855000156],[30.817663523000135,3.00576313199997],[30.823321500000134,3.001641835000157],[30.825955153000166,2.998604067000144],[30.826211624000166,2.98621535500007],[30.833216544000095,2.981286918000023],[30.838998520000132,2.971162431000153],[30.858745489000057,2.959208616000069],[30.85411242300006,2.948224051000068],[30.855238153000073,2.938473732999967],[30.86132850900009,2.931556410999974],[30.85817849400013,2.925822754000137],[30.86757780100004,2.919621540000037],[30.866144792000057,2.912112375000049],[30.870560608000176,2.907986663000088],[30.870025886000178,2.901387636000038],[30.875568773000055,2.899345326000173],[30.875050039000143,2.888494245],[30.887994192000065,2.87806956999998],[30.89088951200017,2.855801565000036],[30.88465256800015,2.83541793500018],[30.884889321000117,2.811687666000012],[30.868256933999987,2.791624934000026],[30.859952561000057,2.771139981000033],[30.847940482000183,2.7672055110001],[30.844905953000193,2.762514759999988],[30.842129726000053,2.765558038000108],[30.83805404900005,2.764570359000174],[30.83667209600003,2.754294981000157],[30.823494046000178,2.747267105000049],[30.822809981000148,2.734926247000033],[30.82727803400013,2.726736137000046],[30.822598278000157,2.717348005000076],[30.808960272000093,2.706228638000141],[30.811419504000185,2.692363683],[30.807327741999984,2.686993960000109],[30.805923992000032,2.675796074000118],[30.798063287000048,2.668694165000034],[30.79849655400011,2.657933964000108],[30.792615945000193,2.645116814000119],[30.787120622000145,2.643088486000181],[30.788055066000027,2.633784460000015],[30.79161203500007,2.6318639160001],[30.780835623000144,2.61408690900015],[30.77920319400016,2.601014467000141],[30.7732694770001,2.599434834000078],[30.772037967000188,2.59552863600004],[30.761301257000184,2.593629540000109],[30.75078434800014,2.583354066000084],[30.754640160000122,2.576044993999972],[30.753522305000104,2.569449821000092],[30.758292885000117,2.561988952000149],[30.75720843600004,2.538039248000075],[30.76250972100013,2.507159765000097],[30.759236872000145,2.494860058000029],[30.751866453000048,2.494027315000096],[30.747054546000072,2.488411056000018],[30.744932681000137,2.45704546200011],[30.740765932000045,2.451287736000097],[30.749196168000026,2.438157647000025],[30.752123767000057,2.417175414000098],[30.756158067000058,2.423840641000083],[30.77105154000003,2.428026521000049],[30.77862462500019,2.435788553000123],[30.80638866200013,2.421968953000146],[30.823571121999976,2.421035153000162],[30.83452312900016,2.424074990000065],[30.83318066200019,2.414309384000092],[30.838298658000156,2.411945422000088],[30.838584332000153,2.401086062000047],[30.84170423400019,2.401237655000102],[30.846408957000165,2.394380302000172],[30.848560214000088,2.382032343000162],[30.856449689000158,2.374334912000165],[30.865133683000124,2.373282246000144],[30.866854483000054,2.367062050000072],[30.873414091000143,2.366075458000125],[30.881904645000077,2.338665578000132],[30.911261920000015,2.328596826000137],[30.913174730000037,2.338643927000021],[30.93410551800008,2.332138767],[30.94246240200016,2.340804153000079],[30.95004804000007,2.359163746000092],[30.949598423000054,2.362484205000101],[30.94289191400003,2.364032408000014],[30.94249202900005,2.371498977000101],[30.950131374000193,2.383968392000043],[30.94886711600003,2.389807826000037],[30.955164642000113,2.397602160000076],[30.960253558000147,2.394233769000039],[30.965727019000155,2.400317420000079],[30.981173976000036,2.404347399000187],[30.994173579000176,2.402456588000121],[31.003392485000177,2.395699354000044],[31.007692453000118,2.39835015500006],[31.01246389100004,2.387337180000031],[31.02143066300016,2.385184399000025],[31.021923743000116,2.382026248000102],[31.026996260000146,2.384307196000179],[31.028457786000104,2.377776186000176],[31.037090091000152,2.370023220000121],[31.07367405600013,2.343440287000021],[31.069185125000047,2.335967237000034],[31.07010144300017,2.330559987000129],[31.073709737000115,2.321243697000057],[31.085708448,2.30820570200018],[31.078853880000054,2.301555083000096],[31.070029249000072,2.302523969000163],[31.075958176000086,2.299241638000069],[31.076521297000056,2.295604798000113],[31.08349103400002,2.295040106999977],[31.08862264600009,2.286180433000027],[31.095663806,2.285639669999966],[31.097921696000128,2.279145215000085],[31.11352122400018,2.270179870000163],[31.119495041000164,2.271121280999978],[31.12558103600003,2.26362664300018],[31.131358315000114,2.261767623000026],[31.141833064000025,2.280628501000024],[31.164697539000144,2.27528591100014],[31.175765218000038,2.282420540000089],[31.18528405100011,2.283174935999966],[31.203718743000024,2.291527755000175],[31.20383009000011,2.218125873000076],[31.249118202000034,2.196933432000151],[31.306432781000183,2.1541796140001],[31.33651384000018,2.247427379000101],[31.3569523970001,2.244765152000184],[31.370220243000063,2.246507598000107],[31.388925818000132,2.236791585000105],[31.397943294000186,2.235191791000091],[31.40305144200005,2.239516220000041],[31.414434691000167,2.235870779000152],[31.427993461000085,2.23754098400002],[31.446072463000064,2.229825616000085],[31.466866471000174,2.227199466000059],[31.49061811300004,2.247013640999967],[31.51223347100006,2.250758690000168],[31.52559358500008,2.256665874000078],[31.53529280500004,2.271396204000098],[31.551199340000096,2.282635790000143],[31.57161764300014,2.285908108000172],[31.588596320000136,2.28075190200002],[31.603025614000103,2.271930926000095],[31.62420378900009,2.274057219000099],[31.635755608000125,2.259665643000176],[31.647732582000117,2.258879038000032],[31.66637992900013,2.273591266000153],[31.686725224000156,2.278649353000048],[31.696101936000048,2.276247342000033],[31.69915656100011,2.288870459000066],[31.707940548000124,2.287112989000093],[31.742338789000087,2.296097353999983],[31.763497445000155,2.316209093000055],[31.770002048000038,2.327833550000037],[31.784791762000168,2.333226668000066],[31.784333155000127,2.339186430000041],[31.79623335300016,2.345335154000054],[31.808448625000096,2.357813],[31.833219591000102,2.369187156000066],[31.849796665000156,2.358863709000047],[31.85694083700008,2.36649860000017],[31.868710282,2.359199629000102],[31.882119854,2.363065016000121],[31.891073859000016,2.359769984000138],[31.900105084000074,2.362565645000075],[31.908940161000032,2.359270622000054],[31.91844740199997,2.365547087000039],[31.927125831000126,2.360325500000101],[31.936149956000122,2.34349852500003],[31.944109177000087,2.344870486000161],[31.942081076000022,2.338826437000023],[31.95569104000009,2.340672979000033],[31.966786312000124,2.325846239000043],[31.979551063000144,2.326796351000098],[31.979149791000168,2.318546309000169],[31.990105069000094,2.318255709000084],[31.996841977000088,2.310734402000151],[32.013098388,2.306476216000078],[32.02281789500017,2.289033425000014],[32.02562809400007,2.27652485700014],[32.03292623300001,2.277190157000121],[32.04191539300007,2.284053035000056],[32.05324771000005,2.282504688000131],[32.084756566000124,2.262687205000077],[32.095327120000036,2.252245642000048],[32.109859988000096,2.244845872000099],[32.12031861800017,2.245820184000081],[32.132913578000114,2.240644297000017],[32.14566107000019,2.231108077000044],[32.14848517299998,2.221547864000115],[32.165943344000084,2.222046390000173],[32.18922284500019,2.217002548000096],[32.193738471000074,2.22487533900005],[32.20084323900011,2.227457441000183],[32.21405980600008,2.241468387000168],[32.222866218000036,2.246376264000105],[32.24330265000003,2.241140132000112],[32.25279826100012,2.251638930000126],[32.2609134650001,2.253689516000179],[32.284179300000176,2.237714545000074],[32.29659441200016,2.220269714000096],[32.29698099500007,2.215372579000189],[32.30404840500006,2.21281437500005],[32.31687322900018,2.19482872500015],[32.32209047000009,2.166380069000127],[32.31878130200005,2.140587717000187],[32.332769735000056,2.124838709000073],[32.32848342200009,2.110117223999964],[32.33017595900003,2.103196730000093],[32.352774370000134,2.074426784000138],[32.35011624500004,2.052930896000021],[32.34381495600013,2.03541398100009],[32.34345584700014,2.01379232700009],[32.33671696100015,1.990449233000106],[32.338966096000036,1.976020732999984],[32.33355331200016,1.965180676000045],[32.3379139270001,1.955782952000163],[32.35852847800015,1.957148020000147],[32.363640958000076,1.949695502000111],[32.361075516000085,1.943198996000092],[32.344519161,1.929043620000016],[32.34234715100007,1.923343377000094],[32.34416015300013,1.895579855000108],[32.339234558000044,1.876679492000108],[32.343093977000024,1.858451916000092],[32.33761646000005,1.851918165000086],[32.30549048000012,1.83833587200013],[32.29287501699997,1.835689283000079],[32.283715126000175,1.838680021000073],[32.278958286000034,1.837094945000047],[32.27564509399997,1.831140968000057],[32.277996648000055,1.813682082000071],[32.27193558900012,1.806713800000068],[32.25692423999999,1.802654840000173],[32.233378653000045,1.789690473000121],[32.21675960500005,1.793338154000082],[32.20627328299997,1.781491860000074],[32.16629086400002,1.776896633000092],[32.151748495,1.761484145000111],[32.12742160100015,1.746257078000099],[32.107209797999985,1.739200542000106],[32.10100599700013,1.727889873000152],[32.09572141400014,1.699835236000183],[32.101379500000064,1.679764457000147],[32.09279425300019,1.657696909000151],[32.09394644300011,1.64996298300008],[32.099735193000186,1.646500950000075],[32.10532082900011,1.647435241000039],[32.12675550600005,1.66412607500007],[32.13995233200018,1.670129590000045],[32.17591787500015,1.673338479999984],[32.182980537000105,1.670778689000031],[32.19842812900015,1.673371113000144],[32.23025294600018,1.671126251000032],[32.23660766600017,1.66770329600007],[32.28017997000006,1.661764039000047],[32.30845205500009,1.647497658000134],[32.3250656300001,1.619866848000129],[32.34436682800009,1.614020024000069],[32.35976834600007,1.602029015000085],[32.377285125000185,1.595529840000154],[32.41066244800004,1.590383068999984],[32.42318136600005,1.580887460000099],[32.43637810400003,1.576458155000182],[32.469333898000116,1.551244116000021],[32.49782175399997,1.537861644000145],[32.51047952700003,1.521634353000138],[32.521497130000114,1.521727315000021],[32.53164024500012,1.515277651000133],[32.54566124800016,1.522627909999983],[32.562350853000055,1.521073522],[32.56835056600005,1.514843257999985],[32.580624550000095,1.484257770000113],[32.625361034000036,1.438001880000058],[32.65483395700011,1.436175586000104],[32.69522051600012,1.450467400000093],[32.739882443,1.456245140000135],[32.77637862800003,1.466544839000164],[32.83613046700003,1.477397722000092],[32.894624539000176,1.481228298000133],[32.973680078000086,1.477186524],[32.97450535100006,1.557535577000181],[32.967322161000084,1.582388389000016],[32.96684830200007,1.611593034000123],[32.96404596000019,1.621237395000094],[32.95189073600005,1.631650567000179],[32.945131844,1.642146440000033],[32.996451377000085,1.671641695000062],[32.994053085000075,1.688413811999965],[32.99993860400008,1.712280552000152],[33.00424406500008,1.713357174000066],[33.02599324900012,1.7060648960001],[33.04679846500011,1.708054896000078],[33.08381923000013,1.731875092000109],[33.0867072690001,1.738081390000104],[33.08394694500015,1.748069705000091],[33.1039781340001,1.777255164],[33.10163056500011,1.791604252000127],[33.11519932500016,1.822698858000024],[33.11202279500003,1.83057017200008],[33.11390374400014,1.853812442999981],[33.119189040000094,1.858118583000135],[33.132389607000164,1.853838290000112],[33.141773559000114,1.857022186999984],[33.14611137200012,1.87058364100011],[33.1549596430001,1.874328432000084],[33.165159114000176,1.874037981000129],[33.200379998000074,1.907789419000153],[33.21109373200011,1.911189876000037],[33.221311949000096,1.910026684000059],[33.230027703000076,1.921564554000099],[33.242133160000094,1.923860852000189],[33.24482985900016,1.933767127000124],[33.2515570490001,1.941337395000176],[33.24931080500005,1.952085537000073],[33.271452115000045,1.957131858000025],[33.27442429600006,1.98988158100002],[33.283947519000094,2.010619287999987],[33.28293686700016,2.025318275000188],[33.29440461400014,2.042795276000049],[33.309323800000186,2.047370296000054],[33.31451210400013,2.053442901000039],[33.32565743300006,2.052374959000133],[33.348730247000105,2.030718603000082],[33.36402771400003,2.027862290000087],[33.363461594000114,2.042111551000062],[33.34760319999998,2.063576825999974],[33.36118809100003,2.098529579000171],[33.36830621900015,2.10775590500009],[33.38703544600003,2.11372237400019],[33.40221294800011,2.123473147000084],[33.41592824000014,2.14287333700014],[33.43749243000002,2.111028249000128],[33.45513397499997,2.127608949000148],[33.45586730700006,2.144300359000056],[33.46640824900004,2.156383869000138],[33.47094077100007,2.178628863000029],[33.47772962300013,2.188460715000133],[33.47867016600003,2.196204571000123],[33.47481174300009,2.207333523999978],[33.4628955500001,2.211797445000116],[33.44238789499997,2.229318658000068],[33.441197552000176,2.241071020000049],[33.44488388200017,2.2462453280001],[33.46154262400006,2.241616395000165],[33.4722785730001,2.234998778000033],[33.48497370600006,2.234491777000073],[33.49171352500019,2.230972682000129],[33.508693779000055,2.251268549000145],[33.53871107000009,2.269950537000113],[33.54923453500015,2.289663972000085],[33.543860592000044,2.318019465000077],[33.54616652000004,2.329229039000154],[33.53453850600016,2.352840396000033],[33.53745326100005,2.357159102000139],[33.56089212100011,2.353397623000035],[33.56859193300005,2.341023800000187],[33.568459053000026,2.334650082000053],[33.57103351300009,2.336615233000032],[33.57614378500011,2.332479035000119],[33.58030081300018,2.333793193000133],[33.583930450000025,2.326991916000054],[33.58775983500004,2.33059500700017],[33.59448625500005,2.328445737000152],[33.607211259999985,2.336370569000053],[33.613009059000035,2.333926687000144],[33.61750751300008,2.340150956000116],[33.61990128200017,2.338544177000131],[33.623893502000044,2.341786596000077],[33.62529867300009,2.351502178000146],[33.63264705600011,2.355988284999967],[33.632038809000164,2.358412596000107],[33.659029107000094,2.353782463000073],[33.67413420500009,2.355646613000147],[33.672645449000186,2.359918146000155],[33.678755582000065,2.37110679400007],[33.68802698500008,2.374710102000108],[33.696120799000084,2.386152292000077],[33.70709421100014,2.389485734000175],[33.707083053000076,2.395159340000134],[33.73599414600005,2.417496766000056],[33.77849124400018,2.387208725000164],[34.21197248300007,2.118646702000149],[34.223194413000044,1.980863587000101],[34.22221310400016,1.640185996000184],[34.229070001000025,1.639799611000115],[34.22956819000012,1.561541322000096],[34.2603747550001,1.561650021999981],[34.26749220500011,1.558739438000032],[34.27163313600016,1.547099946000117],[34.27730191800009,1.54648654600004],[34.2992942030001,1.554797019000091],[34.32806511500013,1.550963779000028],[34.339324667000085,1.558335634000059],[34.343285285000036,1.563033185000165],[34.34238423700009,1.566478108000183],[34.34755497200007,1.567802255],[34.36244046800016,1.558356513000092],[34.37051365800005,1.563744886000165],[34.393903161000026,1.564662129999988],[34.406945178000115,1.554141004000087],[34.41914956800002,1.552829197000165],[34.42558039000011,1.554893734000188],[34.43661970100004,1.570552538000129],[34.44522404700018,1.570666123000024],[34.44756720200013,1.573474849000092],[34.45388775100008,1.570743751000066],[34.4533901530001,1.572968473000117],[34.461224469000115,1.576658247000012],[34.459918664000156,1.578740023000137],[34.464006762,1.578617524000038],[34.46504472600009,1.58434510100011],[34.470036088000086,1.584293692000017],[34.47180937200011,1.58786812],[34.486271314000135,1.58621929200018],[34.488740515000075,1.598953591],[34.495290923000084,1.601974342000119],[34.49937394700004,1.59491567800012],[34.51661550200009,1.595865242000173],[34.521138639000185,1.599849168000105],[34.54528116300003,1.59818984900005],[34.546264731000065,1.593783471000165],[34.56254401000007,1.58809333500011],[34.5686628040001,1.580438601000026],[34.575019368000085,1.579196502000173],[34.58565666100009,1.585774794000031],[34.59328402200015,1.584667952000075],[34.59329900600011,1.579424191000101],[34.607362697000156,1.574298609000039],[34.61781723400003,1.576633399000116],[34.62253456000008,1.572001157000159],[34.62532843300005,1.555814452000163],[34.63071342300009,1.546071855000093],[34.65551405400015,1.533891122000057],[34.65923845499998,1.523666453000033],[34.67083993400007,1.521905433000029],[34.671265851000044,1.525107304000187],[34.67552926700017,1.524001360000113],[34.680493302000116,1.527783651],[34.686376634,1.524552814000117],[34.6999407350001,1.524198416000104],[34.70199237300005,1.501226836000114],[34.71161650400006,1.498705234000056],[34.71149280600014,1.478360526000131],[34.72312081000018,1.474791104000076],[34.72608697200013,1.469614620000016],[34.72012904100018,1.467002095000112],[34.72218731100014,1.454813841000089],[34.71808013700013,1.448132317999978],[34.71881513300019,1.442375170000048],[34.72324746400017,1.437519308000105],[34.72594008100015,1.439721477000148],[34.734577734000084,1.434750399000052],[34.74633780100015,1.41698382800007],[34.752162218000024,1.415919967999969],[34.75019333200004,1.413696879000156],[34.75487867099997,1.409316476000186],[34.75899891700004,1.409250040000188],[34.76491755100017,1.401278653000134],[34.777542013000016,1.393568286000118],[34.77685284600011,1.382098534000079],[34.787452300000155,1.363597051],[34.80724289300008,1.381108552000057],[34.795013644000164,1.411884392000047],[34.80154319900009,1.420462899000086],[34.81821085100006,1.428908068999988],[34.83181691500016,1.449053023000033],[34.84498363200004,1.454386328000169],[34.86482208600012,1.525618239999972],[34.890976551999984,1.552533963999963],[34.907348041000034,1.55031272500014],[34.94441552100011,1.573883624000075],[34.99198496200006,1.661630180000088],[35.00105362800008,1.755821211000182],[35.0009509840001,1.95968318600012],[34.98530037600017,1.98244267400014],[34.980485492000184,2.050986504000093],[34.946262596999986,2.208623347000014],[34.92095384300012,2.370313099000043],[34.91853573400016,2.387403041000084],[34.92047280600019,2.390792887999964],[34.915874416,2.393767868000111],[34.915092881000135,2.400218411000139],[34.917843115000096,2.407211714000084],[34.917389513000046,2.421966532000056],[34.933103456000026,2.428199051000149],[34.93221903700015,2.436275293000108],[34.936539216000085,2.435314894000101],[34.94061447800016,2.447306526000034],[34.94444292700007,2.446452819],[34.94286721900011,2.45016568799997],[34.95464454200015,2.455131165000068],[34.95515768400014,2.469689884],[34.94928872600019,2.46948321900004],[34.93380558800004,2.51322186800013],[34.91374225700008,2.513861690000113],[34.898052401000086,2.585298591000083],[34.89461024200011,2.590136469000186],[34.881271527000024,2.586699391000025],[34.879093634000185,2.569680365000124],[34.86899271800007,2.567865048000158],[34.85293029100018,2.580855857000017],[34.832358874000136,2.618161200000031],[34.79993536100011,2.653115834000062],[34.791164982,2.680662570000095],[34.77615599100011,2.695158265000146],[34.784879059000104,2.745808112000077],[34.77612466800008,2.785077320000084],[34.767974975000186,2.799725946000081],[34.76773273200013,2.808456735000107],[34.76289540200008,2.818221641000036],[34.75575618500011,2.825679075000096],[34.74986382100019,2.823428633000105],[34.73709315700012,2.852267103000031],[34.71245561600006,2.862544839000066],[34.709100561000184,2.870720827000071],[34.702491361000114,2.874965761000112],[34.693129271000146,2.860157114000117],[34.66921382000015,2.860407708000082],[34.65364048100008,2.864846400000147],[34.64003642800009,2.904015676000085],[34.59978448700019,2.921962756000141],[34.58812758800019,3.001097718000153],[34.57731854700012,3.017774394000128],[34.573487209,3.047351413000115],[34.57559530800012,3.066173018000029],[34.57304547399997,3.088679916999979],[34.54656059000013,3.13381020700001],[34.51281511700017,3.146077983000055],[34.495584892000124,3.138636227000177],[34.48278828300016,3.162412492000044],[34.47131879400018,3.169895727000039],[34.46133483099999,3.171216465999976],[34.456138064000186,3.179280893000112],[34.44817694100004,3.28023480100012],[34.4387566690001,3.304685606000021],[34.43070271099998,3.33999552500012],[34.401361050000105,3.367869650000102],[34.40243834100016,3.412330761000078],[34.41054862900012,3.415373511000098],[34.42002793700016,3.430632788000139],[34.41735155500004,3.447946536000018],[34.40454537100004,3.467311927000139],[34.39172927200002,3.480228558000135],[34.389715611000156,3.489056227],[34.39680330500005,3.485312169],[34.42551921200004,3.489002379000169],[34.45224191600005,3.514416413000106],[34.457420804000094,3.572756978000029],[34.45386114500019,3.608435524000129],[34.463969091000024,3.666788257000064],[34.45654788800016,3.673588426000038],[34.40565163600019,3.690034154999978],[34.403598901000066,3.702529256999981],[34.39497223300003,3.715029288000153],[34.38309865700012,3.724820029000114],[34.365817253000046,3.732447595999986],[34.32623805800006,3.72538120500019],[34.31932067900016,3.718946372000062],[34.30603793200004,3.683238233000111],[34.30335241000006,3.682874390999984],[34.30866262700005,3.708989769000027],[34.26719093300005,3.745528389000071],[34.24632861900017,3.781179094000095],[34.23392345100012,3.7780596180001],[34.22971967300015,3.771408869000027],[34.22756301200013,3.77141192800002],[34.22676317600019,3.779838308000024],[34.221083732000125,3.781477039000151],[34.171620383000175,3.764997734000076],[34.166816015,3.770804945000179],[34.19088930800012,3.780117734000044],[34.18939077400012,3.792424087000143],[34.171312319000094,3.797541682000031],[34.164223673000095,3.795018100000107],[34.15981175600018,3.798697449000144],[34.154509203000146,3.797229647000052],[34.15391671900011,3.804254299000036],[34.16464518600009,3.807760843000096],[34.18080532700003,3.828852579000113],[34.226754867000125,3.82829675000005],[34.22580734000019,3.849411575000147],[34.2163158890001,3.878149435000125],[34.175738650000085,3.876979481000092],[34.167658896000034,3.867170307000094],[34.128552691000095,3.869433055000115],[34.110164038000164,3.865712292000183],[34.09340736800016,3.857180784000036],[34.089178351999976,3.85855659900011],[34.09218347400014,3.882538095000143],[34.120671594000044,3.89812967600011],[34.135384772000066,3.95863478800004],[34.106438854000146,3.973933014000124],[34.08286056600002,3.999554116000127],[34.06079583300004,4.006806364000113],[34.05957917400019,4.024990747000061],[34.088362625000116,4.033919460000106],[34.09236419900009,4.058572674000175],[34.080490534000035,4.082749203000105],[34.06388281000011,4.09148919900008],[34.05027512400005,4.118407823000155],[34.066429661000086,4.141301485000042],[34.04811910900008,4.176446235000071]]]}},{"type":"Feature","properties":{"region_id":"UG4","region":"Western"},"geometry":{"type":"Polygon","coordinates":[[[31.849796665000156,2.358863709000047],[31.833219591000102,2.369187156000066],[31.807008445000122,2.356823421000172],[31.79623335300016,2.345335154000054],[31.784333155000127,2.339186430000041],[31.784791762000168,2.333226668000066],[31.76912122500005,2.327118011000096],[31.763497445000155,2.316209093000055],[31.742338789000087,2.296097353999983],[31.707940548000124,2.287112989000093],[31.69915656100011,2.288870459000066],[31.696101936000048,2.276247342000033],[31.686725224000156,2.278649353000048],[31.66637992900013,2.273591266000153],[31.647732582000117,2.258879038000032],[31.635755608000125,2.259665643000176],[31.62420378900009,2.274057219000099],[31.603025614000103,2.271930926000095],[31.588596320000136,2.28075190200002],[31.57161764300014,2.285908108000172],[31.551199340000096,2.282635790000143],[31.53529280500004,2.271396204000098],[31.52559358500008,2.256665874000078],[31.51223347100006,2.250758690000168],[31.49061811300004,2.247013640999967],[31.466866471000174,2.227199466000059],[31.446072463000064,2.229825616000085],[31.427993461000085,2.23754098400002],[31.414434691000167,2.235870779000152],[31.40305144200005,2.239516220000041],[31.397943294000186,2.235191791000091],[31.388925818000132,2.236791585000105],[31.370220243000063,2.246507598000107],[31.3569523970001,2.244765152000184],[31.33651384000018,2.247427379000101],[31.306406806999973,2.154186778000167],[31.30628946000013,2.113618529000064],[30.55041134200013,1.263409357000171],[30.52045299800011,1.263317406000112],[30.476213223000116,1.209826130000181],[30.47049330600015,1.21101829700018],[30.453487137000025,1.199096445000123],[30.443329399000163,1.201786780000077],[30.421160485000144,1.190337232000047],[30.415695435000032,1.197552550000012],[30.41099981900004,1.197635426000147],[30.399942607000128,1.189464664000184],[30.39605636900012,1.190945375000013],[30.390705297000068,1.187703014000078],[30.384462711000083,1.192728363000128],[30.37737166400018,1.192788119999989],[30.371605224,1.199509902000159],[30.360696392000193,1.202372736000086],[30.341995318000045,1.17691165399998],[30.341421562000164,1.16387412500012],[30.336302363000186,1.151095242000167],[30.327912728000115,1.151723525000023],[30.323517064000043,1.157025373000124],[30.313044377000153,1.152984318000165],[30.309221149000166,1.167530874000079],[30.300170759000082,1.164337812000042],[30.293255035000016,1.172972807000122],[30.283029058000125,1.165633012000114],[30.274643355000023,1.166591755000127],[30.273364155000024,1.162824191000141],[30.26911543700004,1.161886459000186],[30.268816350000066,1.153017238000018],[30.264467649000096,1.151548928000068],[30.261700081000072,1.145799884000098],[30.24774047000011,1.142739188000178],[30.236214796000183,1.132175958000118],[30.234621566000158,1.125541014000021],[30.24001647700004,1.114476257000149],[30.24054374100018,1.097590904000072],[30.232340306000083,1.084501849000048],[30.228716048000024,1.085271005999971],[30.227572981000037,1.077993667000158],[30.230632856,1.073627089000126],[30.225874229,1.071572537000179],[30.229752713000096,1.06823723600013],[30.22503726400015,1.063996784000096],[30.22843777200012,1.056366202000106],[30.222763323000038,1.05422651300006],[30.221775811000043,1.045211079000183],[30.22923131100015,1.042938004000121],[30.22112155900004,1.03592057000003],[30.22305485000004,1.033112933000154],[30.22514588500013,1.037273631000176],[30.227405957000087,1.036033859999975],[30.227219458000036,1.027683615000171],[30.222940188000166,1.027609034000136],[30.224601254000106,1.023303843000178],[30.220198128000106,1.015681755000116],[30.22499956700011,1.016743316000088],[30.22753617000012,1.011318705000065],[30.223169787000074,1.003377313000101],[30.231628997000087,1.001849791000154],[30.224764412000127,0.999155460000054],[30.223898641000176,0.993687116000046],[30.227889208000192,0.990259753999965],[30.225029302000166,0.986586445000057],[30.22117483100004,0.990322689000152],[30.21949251300009,0.984591957000077],[30.214752718000057,0.987366834000056],[30.215642010000124,0.983593804000179],[30.210293749000186,0.980364437000048],[30.215596629000174,0.97666372700013],[30.21457582700009,0.974638755000058],[30.2011458180001,0.976582989000178],[30.200184476000118,0.96447192800008],[30.191726992000042,0.970777269000109],[30.19440812,0.963849605000178],[30.185684368000125,0.962470084000131],[30.19107110300007,0.960210347000157],[30.191960701000085,0.955957089000151],[30.1856884500001,0.957495683000047],[30.188541481000186,0.948612709000145],[30.18090353400015,0.953203448000124],[30.182529912000064,0.943942133000064],[30.174587472000155,0.945856753000044],[30.177452303000166,0.943354771000145],[30.170855288999974,0.925064366000129],[30.17716250400008,0.922187738000162],[30.168916316000036,0.920500139000069],[30.173435457000153,0.916112609000095],[30.173132714000076,0.911035098000013],[30.168563721000112,0.913844543000039],[30.170664798000132,0.907293808000077],[30.168518642000038,0.90612571700018],[30.162278673,0.910306060000096],[30.165179866000187,0.904716547000078],[30.163428176000025,0.90028974400002],[30.15974570900005,0.902619620000053],[30.158862694000106,0.898673796000082],[30.14896363800011,0.897190881000029],[30.15370250800015,0.894896154000151],[30.152513054000167,0.890572759000122],[30.15602731600012,0.885256071000185],[30.145522154000105,0.88764741100016],[30.143618060000108,0.883896716999971],[30.14033763900005,0.887553383000011],[30.137987789000135,0.882272686000022],[30.133293175000176,0.884488545000124],[30.132513208000034,0.891296432000047],[30.126229460000047,0.88712242600019],[30.125509435000083,0.893450423000161],[30.121771932,0.891018026999973],[30.11649536700014,0.894463046],[30.116143156000078,0.887624377000066],[30.110751747999984,0.88555062100005],[30.11105797200014,0.894038825000166],[30.108229528000038,0.891307237000092],[30.10375899800016,0.892833310000185],[30.103017803000057,0.888123883000162],[30.098353373000123,0.889979719000053],[30.095230267000147,0.883078987000033],[30.08977436100008,0.887423548000015],[30.087738329000047,0.881123571000046],[30.079189505000045,0.878177596000114],[30.077294331000076,0.882284989000027],[30.072351314000116,0.878592075000029],[30.069339933000094,0.881318932000113],[30.064084915000137,0.876606077000019],[30.061160642,0.86313759],[30.05810610300017,0.863974962000043],[30.057891564999977,0.871682579000151],[30.05239795700004,0.867329509],[30.048728914000094,0.872964951000029],[30.03939517100008,0.864530099000035],[30.033196896000163,0.866114717000073],[30.031660582000086,0.859234930000071],[30.027483981000103,0.86464849500004],[30.023506824000094,0.864331326000013],[30.027647093999974,0.855463534000137],[30.014622460000055,0.856316859000117],[30.011588061000054,0.847129513000027],[30.00994475400006,0.85435057900014],[30.000278069000046,0.849632779000046],[30.000632403000054,0.845236882000052],[29.985501860000056,0.846952086000044],[29.990266818000123,0.83675052100017],[29.984650873000078,0.838080695000087],[29.982940973000154,0.830543189000082],[29.979043008000133,0.828891646000159],[29.97020382000011,0.813027637000175],[29.97009669700003,0.799760903000106],[29.967213465000043,0.796854225000118],[29.96955433200003,0.794971946000089],[29.965736506000155,0.790416077000145],[29.96589861800004,0.781938132999983],[29.96227453500012,0.779030970000065],[29.966808281999988,0.763883643000099],[29.965251509999973,0.759800503000122],[29.968761198000152,0.759096488000012],[29.975843697000187,0.743003307000095],[29.973965342000156,0.729018043999986],[29.968857170999968,0.724281558000143],[29.96688705000014,0.714132955000025],[29.971716866000065,0.708865309000089],[29.96865830300004,0.701692058000162],[29.971388808000086,0.692873213000098],[29.966533719000097,0.682041539000068],[29.962047299000176,0.679636330000108],[29.962055416000055,0.666584779000175],[29.955053984000187,0.641230434000136],[29.962388335000128,0.615669562000107],[29.972584748000145,0.598464418000162],[29.96807184100004,0.578956161000121],[29.97197666200009,0.570173490000059],[29.969610378000027,0.565761920000057],[29.97313936400019,0.560349485000131],[29.97691328200017,0.563435110000114],[29.977592764000065,0.558128713000087],[29.981012236000026,0.557879496000169],[29.978561631000048,0.543965908000189],[29.97503647100001,0.541920307000169],[29.975306401000182,0.536290993000136],[29.979796169000053,0.532420734000084],[29.977003907000096,0.524710216000187],[29.97939081400017,0.516916613999967],[29.87254725700018,0.385153125000102],[29.823593707000043,0.172012412000186],[29.815241337000145,0.163046104000102],[29.789334641000096,0.169481057000098],[29.784797426000125,0.16524267300008],[29.780154429000106,0.167806093000081],[29.77320876800019,0.162699997000175],[29.76932123000006,0.163418537000098],[29.770528191000153,0.155897862000188],[29.76724115900015,0.148178730000097],[29.749922811000033,0.131463681000071],[29.744681926999988,0.131206427000109],[29.74278014500004,0.126236609000159],[29.7354921970001,0.124351139000112],[29.739906024000163,0.119973593000111],[29.73404039500008,0.109313909000093],[29.73505509800009,0.088820617000181],[29.729850361000103,0.079886805000115],[29.717140257000096,0.07352415500003],[29.721257416000128,0.063188609000179],[29.71657882800008,0.053505374],[29.719743115000142,0.041073448000077],[29.71583001200014,0.034821431000125],[29.72163117600013,0.030787712000063],[29.721126251000044,0.021481590000121],[29.72801768800008,0.017232128999979],[29.72298291300018,0.011329997000132],[29.728822730000104,0.007380310000087],[29.725411120000103,-0.003805299999897],[29.729175997000084,-0.004588207999859],[29.73239944500017,-0.010564741999929],[29.73231541000007,-0.021038718999932],[29.74129280799997,-0.023180007999827],[29.744287015,-0.029658592999851],[29.742104070000153,-0.029149993999965],[29.73813982700017,-0.037777121999852],[29.73217516300008,-0.036710103999951],[29.72803526900003,-0.040523635999818],[29.729746739000063,-0.056867411999917],[29.726608291000105,-0.058318718999942],[29.724908755000172,-0.068451889999835],[29.727812967000148,-0.0838976739999],[29.69934805200012,-0.21048408199988],[29.65138881300004,-0.46321775499996],[29.654548622000107,-0.469511227999931],[29.6709581610001,-0.474515901999951],[29.67091737400017,-0.48218786699988],[29.676372198000138,-0.494212861999813],[29.66810731300012,-0.501321136999877],[29.672003434000146,-0.505182115999958],[29.670999225000116,-0.517422156999828],[29.673851596000134,-0.522450599999956],[29.670980303000135,-0.527146406999975],[29.67322401000007,-0.537912894999977],[29.666974259000142,-0.543855213999962],[29.6701093100001,-0.557343110999966],[29.676581096000177,-0.555684750999944],[29.677300315000082,-0.560518438999964],[29.68315251100006,-0.563297548999856],[29.66885032600004,-0.591345862999958],[29.66250653300017,-0.595903576999945],[29.649269716000163,-0.595460705999869],[29.657368071000064,-0.619160139999963],[29.66320616400003,-0.624385502999928],[29.65111622800015,-0.64107796199994],[29.648680002,-0.649079144999916],[29.650900968000087,-0.657149123999829],[29.64064793200015,-0.673188376999974],[29.635561966000182,-0.67550483499997],[29.637503004000166,-0.678276748999906],[29.63454952900014,-0.694425680999814],[29.625817373000075,-0.705503993999912],[29.627596711000024,-0.716400694999948],[29.624555844000042,-0.724006514999871],[29.629528706000144,-0.728669836999813],[29.627912906000176,-0.736035511999944],[29.631284982000125,-0.741662030999919],[29.628342490000193,-0.757002407999892],[29.63091185000019,-0.772075141999835],[29.626655341000117,-0.777297277999878],[29.62941839500013,-0.787690291999979],[29.625572662000025,-0.792598371999929],[29.63235481800018,-0.796834329999911],[29.629934649000063,-0.805785258999947],[29.638381007000078,-0.816631977999918],[29.640038570000172,-0.829800549999959],[29.629923851000058,-0.847272361999899],[29.626068153000062,-0.86195107199984],[29.63011889300003,-0.881962183999974],[29.62820311100012,-0.885006068999871],[29.63732461800015,-0.899879728999963],[29.588110634000145,-0.899978960999817],[29.58134366000013,-0.904971093999961],[29.58209313400016,-0.918964758999948],[29.5891707240001,-0.923218941999949],[29.592701860000034,-0.932181198999956],[29.586386155000184,-0.94158514399993],[29.5898610430001,-0.945638552999924],[29.59425416600004,-0.966618849999975],[29.592803270000104,-0.972844158999919],[29.60096918200003,-0.980138032999889],[29.59703181100008,-0.987069007999878],[29.58958241500011,-0.980107191999934],[29.58538409200014,-0.981782495999823],[29.588988076000078,-0.990950100999953],[29.58241937300005,-1.020000083999946],[29.58971321200005,-1.052901915999882],[29.581962765000128,-1.104634451999971],[29.577847784000085,-1.110521792999918],[29.580027183000027,-1.11863160799993],[29.575640432000057,-1.128660957999898],[29.579719118000185,-1.147618053999906],[29.58525935700004,-1.155533348999882],[29.576743049000072,-1.170490558999973],[29.579197219000093,-1.179523790999951],[29.57216169200018,-1.186205705999953],[29.584201022000116,-1.204094909999924],[29.60737541700007,-1.221760153999981],[29.60257846000013,-1.224715980999861],[29.606548711000073,-1.232733725999935],[29.604173854000123,-1.244212178999874],[29.595069180000166,-1.251624928999831],[29.59215960100005,-1.270462836999911],[29.598567447000164,-1.302331159999881],[29.606278519000114,-1.317540804999965],[29.589582980999978,-1.388350259999811],[29.61510432000017,-1.386362429999906],[29.637697824000156,-1.388398758999926],[29.644210618000045,-1.383169078999913],[29.675173051000115,-1.382166164999887],[29.68064000100003,-1.377815897999938],[29.689224213000102,-1.361419289999958],[29.69850684400012,-1.357917528999963],[29.71082943099998,-1.344469819999972],[29.72775075200002,-1.340205753999953],[29.75566433199998,-1.344727196999884],[29.764839002000087,-1.351789511999868],[29.774239174000172,-1.365621143999931],[29.794889046000037,-1.37226644499998],[29.79459481200007,-1.349241365999887],[29.807840003000024,-1.329144995999968],[29.817708393000146,-1.327465446999838],[29.81747264700016,-1.314542017999827],[29.822476540000025,-1.307885695999914],[29.82788669200005,-1.314051445999894],[29.840677870000036,-1.319900165999968],[29.83846569400015,-1.331957187999933],[29.8487093330001,-1.338943790999906],[29.859455531000037,-1.360489651999956],[29.86894351000018,-1.355100265999909],[29.878873596000062,-1.355572239999958],[29.88120180300001,-1.405016281999963],[29.885489303000043,-1.41257499999989],[29.883245531,-1.422664051999959],[29.88835598300011,-1.427966261999927],[29.89106878900003,-1.450831544999971],[29.912611048000144,-1.481357189999869],[29.922825906000128,-1.479807439999888],[29.931629175000126,-1.471634724999944],[29.946351494999988,-1.465665752999882],[29.97626597700014,-1.459037913999964],[29.982707805000075,-1.45109996799988],[29.99303251900011,-1.44689256699985],[29.99793538900019,-1.436814538999897],[30.00859115300011,-1.429158107999854],[30.013808797000138,-1.416672714999947],[30.01964448299998,-1.414127303999919],[30.036471915000163,-1.42134096399991],[30.04250881200005,-1.428776507999885],[30.052797532000113,-1.432034703999932],[30.055480062000015,-1.421759842999961],[30.052142583000034,-1.401376405999883],[30.06992700500018,-1.391998441999931],[30.073130745000014,-1.378911323999887],[30.081851959000062,-1.373609448999957],[30.097849764999978,-1.376689916999965],[30.103323716000034,-1.372481109999967],[30.111191694000183,-1.375913177999962],[30.119258882999986,-1.385381873999961],[30.123832539999967,-1.38334354999995],[30.12801012500006,-1.364504518999979],[30.136909773000127,-1.361960384999975],[30.144997391000118,-1.350746273999903],[30.152393024000162,-1.351517333999936],[30.169822432000046,-1.345231259999935],[30.162431351000066,-1.334920710999938],[30.164589593000073,-1.327710031999914],[30.161896949000038,-1.317725096999936],[30.16765306500008,-1.305672336999919],[30.174394322000182,-1.301530270999876],[30.169386525000164,-1.274517412999899],[30.18746029500005,-1.270660339999893],[30.190736469000058,-1.281486113999904],[30.197764381000184,-1.280693551999946],[30.197529371000087,-1.273573010999939],[30.203859933000047,-1.27244034499995],[30.21076121700014,-1.276220266999928],[30.221116113000164,-1.260256159999869],[30.24271957500008,-1.241039734999845],[30.254784078000057,-1.219721700999969],[30.275821885000028,-1.210089106999931],[30.27809492600005,-1.198635328999956],[30.292330022000158,-1.18948031899987],[30.29733590700016,-1.159293701999957],[30.30728190000002,-1.144907623999927],[30.3367103060001,-1.131189246999952],[30.344798085000036,-1.131802208999943],[30.33840263500008,-1.105479153999966],[30.339608391000183,-1.096343329999968],[30.348830950000036,-1.086997667999867],[30.35208882000012,-1.063014773999896],[30.354486699000176,-1.064977999999883],[30.35823077200007,-1.060561821999954],[30.361363353,-1.065038147999871],[30.3656614840001,-1.06704820899995],[30.369308981000188,-1.065054009999869],[30.37334415300012,-1.069639604999963],[30.372325289000173,-1.065725386999929],[30.376627627000175,-1.061137883999947],[30.391480840000156,-1.068950192999921],[30.402579019000143,-1.061232189999942],[30.42829564500005,-1.064579813999956],[30.438805032000175,-1.048762680999971],[30.44457642200001,-1.050529880999932],[30.447583240000142,-1.047558755999944],[30.460664154000142,-1.053507642999932],[30.466798326000173,-1.052509394999959],[30.466084142000057,-1.055166104999842],[30.469625098000108,-1.052773814999966],[30.47274628500014,-1.057331739999881],[30.490100532000156,-1.058575129999895],[30.508865428000036,-1.072763312999939],[30.527451405000136,-1.076144355999929],[30.539692548000176,-1.074695664999865],[30.559031498000138,-1.064632642999925],[30.56382912700019,-1.067069660999948],[30.586706486000082,-1.061065646999907],[30.595680726000126,-1.065296251999939],[30.610111148000044,-1.064522334999936],[30.63314096800019,-1.071189816999947],[30.63314061000017,-1.066516371999967],[30.658993689000056,-1.062341806999882],[30.668939199000192,-1.050669965999873],[30.67233320100013,-1.037148965999904],[30.698539,-1.015011248999826],[30.717971327999976,-1.014075869999942],[30.736981088000107,-1.006233327999951],[30.75215631900005,-0.992072132999965],[30.767018822000125,-0.984904611999866],[30.799123362000103,-0.999043548999907],[31.04428938700005,-1.001369375999957],[31.27080049400007,-0.9993087819999],[31.26432291300017,-0.984393210999826],[31.270841449000045,-0.949707013999955],[31.209893715000078,-0.901043266999864],[31.203490464000083,-0.887747117999936],[31.206274987000143,-0.877891767999927],[31.203729475000046,-0.873067506999973],[31.22706202300003,-0.855683147999912],[31.227649940000106,-0.847526667999887],[31.22174149400007,-0.837345690999939],[31.192329788000166,-0.822043636999865],[31.195008381000036,-0.790930697999954],[31.19973322000004,-0.777793514999928],[31.199953414000163,-0.758016931999975],[31.19581972800006,-0.749219854999978],[31.18740013300004,-0.739441565999869],[31.170528404000038,-0.729284980999978],[31.153139218999968,-0.704157519999967],[31.133837340000184,-0.689157337999916],[31.099702587000138,-0.676204235999933],[31.092801462000182,-0.671400072999973],[31.09102153500004,-0.664879888999963],[31.094798797000124,-0.635855568999943],[31.10098919000012,-0.615829088999931],[31.124869726000156,-0.588538384999936],[31.124399491000077,-0.575074002999827],[31.134922749000168,-0.559877001999894],[31.140706325000167,-0.538836845999924],[31.15279282800003,-0.519525529999953],[31.152944923000064,-0.440845838999962],[31.13233724300011,-0.420232827999826],[31.124809204000144,-0.405003516999898],[31.124676185000055,-0.39115946599992],[31.115364902000124,-0.37519752299994],[31.103237226000147,-0.33910686999991],[31.089870987000097,-0.322728667999968],[31.07401914400009,-0.273852596999916],[31.06843302500016,-0.242113685999925],[31.075151366000114,-0.221010126999943],[31.070653797000034,-0.209453633999885],[31.079663276000076,-0.192798945999868],[31.098458944000186,-0.12598724299994],[31.10259722000012,-0.090677160999974],[31.09894393000019,-0.07742994299997],[31.098553768000045,-0.054390052999963],[31.08313096000012,-0.029686161999905],[31.07560914900006,-0.023889985999972],[31.06947542400019,-0.030183264999835],[31.058538890000136,-0.030680402999906],[31.052583603000073,-0.027009215999954],[31.039934108000182,-0.035291521999966],[31.026449281000055,-0.036095989999922],[31.023539761000052,-0.025679627999978],[31.029924007000147,-0.009792982999898],[31.056947070999968,0.011989352000057],[31.059333022000146,0.018192271000032],[31.054791975,0.035209447999989],[31.05889774500008,0.043935188000091],[31.053659890000063,0.050418226000033],[31.057130417000053,0.058990259000041],[31.05210981100015,0.063918011000112],[31.05203032900016,0.07804174600011],[31.04277532500015,0.08544672700009],[31.044406825000124,0.09155019200017],[31.049580348000177,0.093774836000023],[31.04702846200007,0.098630274000129],[31.056787441000097,0.116769342000111],[31.04762810800014,0.121931705000122],[31.051510210000174,0.128017316000125],[31.047256458000106,0.146652670000151],[31.033860332000188,0.151805400000171],[31.01637122800014,0.168911020999985],[31.013112086000092,0.192012668000189],[31.013429904000134,0.19824255900005],[31.01932517900019,0.197438551000118],[31.02761473200013,0.209230264000098],[31.023199255000122,0.22800074200012],[31.059132493000163,0.25385715900012],[31.062950128000125,0.262149389000058],[31.078669513000193,0.276836433000028],[31.107493246000047,0.295251436000058],[31.11520037100007,0.308074921000127],[31.116236669000045,0.317144585000051],[31.138808830000073,0.336107430000084],[31.143136808000065,0.353600184000072],[31.12326584300007,0.381220853],[31.124812067000107,0.384277550000093],[31.11382904500016,0.411881586000163],[31.118734748000065,0.422209227000167],[31.11782482400008,0.427634464000107],[31.14146764200018,0.452642971000103],[31.138773579000087,0.475863520000189],[31.145276008000167,0.497115348000136],[31.141706671000122,0.499980818999973],[31.142313180000144,0.508146426000167],[31.154242739000154,0.502950381],[31.17035532200009,0.508000803000073],[31.20170315900009,0.507159684000044],[31.218295110000042,0.517192954000109],[31.24064138000017,0.52097021700007],[31.248356724000075,0.527474375],[31.24869382700018,0.530594337000082],[31.243203561000144,0.532609365000155],[31.241279991000113,0.537871869000185],[31.24353306600011,0.544510136000099],[31.250692381000192,0.546791104000022],[31.25679158700018,0.564770644000134],[31.258250003000057,0.582079651000072],[31.255431769999973,0.603746093000098],[31.235204344000067,0.614491646000033],[31.21554095100015,0.631838417000097],[31.236673951000057,0.641874436000137],[31.26252761400019,0.679285804000074],[31.273262626000076,0.682228810000026],[31.273974929000133,0.695947618000048],[31.289523031000158,0.714012782000111],[31.286774291000086,0.733527128000048],[31.28859358400007,0.739807852000126],[31.369545514000094,0.704718164000099],[31.374837168000056,0.703398308000089],[31.382785857000044,0.707422743000109],[31.39256967800003,0.733051365000051],[31.402229301000148,0.744142495000062],[31.406191410000133,0.742163347000087],[31.40872889400015,0.74513969000003],[31.40438737000011,0.801282067000045],[31.409406357000137,0.80796742900003],[31.42152564100013,0.811237046000088],[31.429178267000054,0.818475187000104],[31.434761508000065,0.81689470300006],[31.444975953000096,0.825354834000052],[31.437561512000116,0.836973377000106],[31.437390826000183,0.850157896000042],[31.450255850000076,0.86704908400003],[31.44925078600005,0.877634475000036],[31.45422828900007,0.893199308000078],[31.435675699000114,0.916100811000035],[31.43484579000011,0.929293112000096],[31.43030906600012,0.93835607799997],[31.432580357000177,0.949199569000029],[31.44666583000003,0.956493592000186],[31.455162000000144,0.957188702000167],[31.46928545800006,0.967741500000045],[31.48524007900005,0.973460531000114],[31.4904439820001,0.982361308000179],[31.509222181000155,0.987796369000023],[31.527650326000128,1.013544810000155],[31.52708284900018,1.028160836000154],[31.514781421,1.040590291000115],[31.51316657899997,1.047209923000025],[31.48610962500004,1.057552025000064],[31.476910782000175,1.0716983370001],[31.467190316000085,1.074144659000183],[31.462870444000032,1.078809863000174],[31.450794543000143,1.101284001000181],[31.439208719000078,1.108677275000161],[31.426152951,1.122719715000073],[31.42262805600012,1.147914030000038],[31.417487990000097,1.157551908000073],[31.397679465000124,1.16299407200006],[31.38324584200018,1.156510479000133],[31.378073050000125,1.157918314000028],[31.351513747000013,1.172101235000127],[31.342035074000137,1.186113029000069],[31.33313889100009,1.19266415200002],[31.319468651000193,1.197801461000097],[31.302726930000063,1.197673487000031],[31.297113412000158,1.207174481000095],[31.29242357300012,1.209423035000157],[31.321438230000183,1.23816298600002],[31.36896106800009,1.238891382000077],[31.37814447400018,1.256852592000087],[31.39294148600004,1.267639623000036],[31.402455072000066,1.270566928000051],[31.438775139000086,1.269515195000167],[31.44932721000015,1.274199490000058],[31.456971579000026,1.283381091000081],[31.455690411000035,1.297309332000111],[31.45923076300005,1.302630241000088],[31.50081165100005,1.326166569000065],[31.51415362500012,1.345979048000061],[31.530872318000092,1.361556055000051],[31.564684030000137,1.36537571100007],[31.57761421200007,1.361898489000168],[31.610401371000137,1.341650723000157],[31.654740422000145,1.346721027000058],[31.679658932000052,1.334614611000063],[31.688841447000186,1.3368446180001],[31.717805203000182,1.33345911300006],[31.725506590000123,1.327213010000037],[31.738765852000142,1.32313147800005],[31.7442005850001,1.325657849000095],[31.753476998000167,1.324305802000026],[31.76633589000005,1.333719301000087],[31.772925314000133,1.334500513000023],[31.775644472000067,1.343004399000051],[31.793467660000033,1.354663674999983],[31.807443186000114,1.354127931999983],[31.83693627700012,1.362563685000111],[31.852940034000085,1.381096577],[31.86378361800007,1.388048788000162],[31.862113241000145,1.393484331000025],[31.867649563999976,1.394816715000161],[31.868584143000135,1.40388079100012],[31.87255340700011,1.411915168000064],[31.87873437100012,1.414441895000152],[31.877663235000114,1.418321918000117],[31.8855399790001,1.424639574000082],[31.890199881,1.421159287000137],[31.89474990200017,1.431310663000033],[31.901121721000095,1.429640309000035],[31.90357988900007,1.436181491000184],[31.91297506500007,1.439840465000032],[31.91219341100009,1.448053552000033],[31.918532892000144,1.447812377000105],[31.920822827000165,1.451467935000039],[31.930366242000105,1.445981756000037],[31.932225399000174,1.453689595000185],[31.95066993900008,1.457189983000092],[31.957799858000158,1.46438473],[31.958329586000104,1.459554521000143],[31.96205653100003,1.459094923000123],[31.975152560000083,1.466102462000038],[31.968371167000043,1.48623533000017],[31.975953252000068,1.496252640000137],[31.971878087000164,1.504174870000156],[31.98751870400008,1.506841731000122],[31.985473174000106,1.511273249000112],[31.98983850500008,1.516087711000011],[31.986936596000078,1.519152896000094],[31.987995585000192,1.527502742000138],[31.99300312800017,1.530960644000061],[31.995262787000172,1.527017701000034],[31.999485223000136,1.526911136000024],[31.997415785000157,1.532554808000157],[32.000877164000144,1.535143570000116],[32.00084210100016,1.542868763000058],[32.00879270300004,1.534704033000082],[32.012868641000125,1.539880215000096],[32.01674273800012,1.538099966000118],[32.02310259200016,1.54286109300017],[32.02959444500004,1.540946338000083],[32.03754703300007,1.545129233000068],[32.03986970800014,1.54218129100002],[32.04602431500018,1.542564014],[32.05695486400015,1.571814847000041],[32.062785984000186,1.571573249000096],[32.063750993000156,1.578882917000044],[32.07282071399999,1.575467588000038],[32.07434865800013,1.587273441000093],[32.081079920000036,1.585666257000184],[32.089775277000115,1.591152093000062],[32.09082278600005,1.605183132000036],[32.08416564800007,1.611087260000033],[32.09123561100017,1.618092168000032],[32.08336688300017,1.638749950000033],[32.090491899000085,1.640897159000133],[32.09557515600011,1.648208775000057],[32.092467952000106,1.656186052000123],[32.101379500000064,1.679764457000147],[32.09572141400014,1.699835236000183],[32.10100599700013,1.727889873000152],[32.107209797999985,1.739200542000106],[32.12742160100015,1.746257078000099],[32.151748495,1.761484145000111],[32.16629086400002,1.776896633000092],[32.20627328299997,1.781491860000074],[32.21675960500005,1.793338154000082],[32.233378653000045,1.789690473000121],[32.25692423999999,1.802654840000173],[32.27193558900012,1.806713800000068],[32.277996648000055,1.813682082000071],[32.27564509399997,1.831140968000057],[32.278958286000034,1.837094945000047],[32.30056724000008,1.836832202000039],[32.33942488200012,1.853067772000088],[32.34369409200008,1.862324117000128],[32.339234558000044,1.876679492000108],[32.34416015300013,1.895579855000108],[32.34234715100007,1.923343377000094],[32.344519161,1.929043620000016],[32.35652674300019,1.9379592250001],[32.363400538000064,1.947931304000122],[32.36325451900012,1.953657809000106],[32.35852847800015,1.957148020000147],[32.33982727300014,1.955412798000111],[32.33456576600008,1.958604172000037],[32.333544815000096,1.967469474000097],[32.339110124,1.977024970000059],[32.33671696100015,1.990449233000106],[32.34345584700014,2.01379232700009],[32.34381495600013,2.03541398100009],[32.35011624500004,2.052930896000021],[32.352774370000134,2.074426784000138],[32.33017595900003,2.103196730000093],[32.32848342200009,2.110117223999964],[32.332769735000056,2.124838709000073],[32.31878130200005,2.140587717000187],[32.32209047000009,2.166380069000127],[32.31687322900018,2.19482872500015],[32.30404840500006,2.21281437500005],[32.29698099500007,2.215372579000189],[32.29659441200016,2.220269714000096],[32.28261779700006,2.239143330000104],[32.25889127200003,2.253831307000098],[32.25279826100012,2.251638930000126],[32.24330265000003,2.241140132000112],[32.222866218000036,2.246376264000105],[32.21405980600008,2.241468387000168],[32.20084323900011,2.227457441000183],[32.193738471000074,2.22487533900005],[32.18922284500019,2.217002548000096],[32.165943344000084,2.222046390000173],[32.14848517299998,2.221547864000115],[32.14566107000019,2.231108077000044],[32.132913578000114,2.240644297000017],[32.12031861800017,2.245820184000081],[32.109859988000096,2.244845872000099],[32.095327120000036,2.252245642000048],[32.084756566000124,2.262687205000077],[32.05324771000005,2.282504688000131],[32.04191539300007,2.284053035000056],[32.03292623300001,2.277190157000121],[32.02562809400007,2.27652485700014],[32.02281789500017,2.289033425000014],[32.013098388,2.306476216000078],[31.996841977000088,2.310734402000151],[31.990105069000094,2.318255709000084],[31.979149791000168,2.318546309000169],[31.979551063000144,2.326796351000098],[31.966786312000124,2.325846239000043],[31.95569104000009,2.340672979000033],[31.942081076000022,2.338826437000023],[31.944109177000087,2.344870486000161],[31.936149956000122,2.34349852500003],[31.927125831000126,2.360325500000101],[31.91844740199997,2.365547087000039],[31.908940161000032,2.359270622000054],[31.900105084000074,2.362565645000075],[31.891073859000016,2.359769984000138],[31.882119854,2.363065016000121],[31.868710282,2.359199629000102],[31.85694083700008,2.36649860000017],[31.849796665000156,2.358863709000047]]]}}]}