{"type":"FeatureCollection","features":[{"type":"Feature","properties":{"area_code":"061"},"geometry":{"coordinates":[[[17.020049904968516,-22.48724116420567],[17.005348831763115,-22.493195882519487],[17.002999245644787,-22.504068964298497],[16.992417682030293,-22.50352865549482],[16.988319541083342,-22.518760692908444],[17.0018337837121,-22.531243094510188],[17.027690261714667,-22.534500740776508],[17.024164053935976,-22.54536357764998],[17.008887624929145,-22.542645059969118],[17.003014023100803,-22.56435065023979],[17.04235696622979,-22.587115927702058],[17.059922072731666,-22.627684039343535],[17.081603500004206,-22.640117632477967],[17.12080840268183,-22.62493100332371],[17.12200439655831,-22.597902295635777],[17.134309186517896,-22.570854324744744],[17.11265332945797,-22.555160592901345],[17.101585930367946,-22.532396793655494],[17.084637505805233,-22.505242833994956],[17.0658455315766,-22.487891863694358],[17.02945338854633,-22.48672608632802],[17.020049904968516,-22.48724116420567]]],"type":"Polygon"}},{"type":"Feature","properties":{"area_code":"062"},"geometry":{"coordinates":[[[16.520958330923975,-21.182155985006077],[16.525398810447747,-21.21745594892253],[16.528285167027843,-21.233557151138925],[16.508163678190826,-21.26517566325557],[16.56804567737563,-21.405272549213596],[16.502311706400903,-21.455227322672535],[16.432493214997873,-21.524190623017745],[16.423587794520763,-21.634152714114567],[16.39181015974834,-21.742087703983863],[16.44181805256442,-21.85567778804033],[16.429719474138793,-21.89406270298261],[16.45730725614728,-21.893263740274058],[16.46678299356256,-21.92085445834943],[16.444777199552746,-21.98105001720011],[16.470009834178335,-21.997537725184742],[16.454158339253667,-22.015349501416075],[16.45916457288027,-22.06910071538143],[16.409910280590765,-22.07586519171099],[16.446893585519692,-22.142868469444107],[16.41714774635806,-22.144649873224964],[16.410980018671726,-22.164639468573654],[16.32670766671292,-22.204736514311236],[16.378911669007937,-22.2829784450411],[16.411803303945298,-22.377320095534465],[16.338445159749405,-22.423180136114695],[16.344754521194233,-22.512498692205256],[16.259180296571884,-22.500305342686012],[16.22301122674432,-22.539678715096855],[16.22768579103007,-22.579371369029452],[16.160653168446274,-22.605315250409603],[16.084824475410223,-22.575077351206033],[15.96052034194827,-22.689608101796722],[16.07233046145437,-22.68842175272441],[16.068642207928356,-22.83228929653466],[16.003319552724818,-22.835701038932406],[15.981555122975285,-22.87015631405818],[15.90360973989764,-22.865496518184067],[15.873108740377889,-23.120643369566828],[15.888119244313483,-23.165129271361717],[15.946155337521246,-23.201832979280027],[15.806279789364027,-23.252189312263887],[15.835854194180072,-23.380359401729688],[15.805522788690077,-23.38846755159964],[15.741730877061247,-23.51030404403829],[15.84519330338558,-23.563821196933567],[15.846892719943526,-23.79536038730565],[15.776103960645685,-23.80652608857418],[15.743209640633694,-23.797628582491452],[15.724345556758351,-23.9602471745729],[15.795958094296225,-23.983296731561367],[15.928579960261601,-23.96790459405551],[15.928398149905163,-23.93691511339278],[15.996186087010564,-23.92915444125993],[16.135327799562493,-23.88004851728565],[16.190916427439795,-23.88746366727863],[16.261296513800414,-23.850855386011997],[16.24711490362388,-23.88790011292072],[16.258268380904454,-23.929697460602192],[16.21291405206675,-23.93043787002645],[16.16808373831813,-23.95276652523374],[16.25278466579932,-23.993811276642088],[16.275414538961336,-24.04167731932646],[16.335204836878475,-24.044426326778705],[16.305343961059084,-23.95951560190459],[16.370556873335623,-23.895503443044888],[16.383088591084338,-23.86025509954308],[16.41172616942606,-23.889780852731707],[16.438789090786603,-23.877887953507695],[16.439573461351365,-23.89692601934144],[16.476392155435384,-23.90478832294928],[16.48022605354793,-23.88705926290119],[16.520483970981395,-23.887649740333877],[16.507181606775262,-23.82971814183407],[16.40948377734863,-23.817434848099957],[16.397076748417412,-23.82796390466369],[16.31077528937474,-23.803210270133746],[16.320180322895386,-23.710354181571123],[16.34308750143581,-23.63225736565385],[16.373266810644395,-23.60749902087705],[16.406360109726545,-23.616488267105886],[16.402869936913476,-23.6743384479109],[16.470284597819084,-23.681547688558894],[16.51899437929344,-23.654158876991133],[16.560424618858633,-23.590077537043655],[16.587299230948286,-23.589451993208215],[16.578881164599068,-23.532383902716404],[16.481757000108114,-23.50891825400332],[16.558844439867613,-23.35524840952145],[16.622825192032902,-23.218270091609455],[16.67423987376197,-23.263053323826526],[16.721595873477877,-23.266619386109795],[16.733936959968972,-23.248762460851296],[16.767677011127052,-23.255910542344978],[16.801415146406406,-23.29523675758325],[16.941366563112904,-23.26508281471537],[16.99567940793758,-23.171302577796737],[17.116439680822335,-23.169035010021574],[17.190451765226015,-23.203676463599606],[17.192501068714236,-23.328322910762246],[17.35126792515066,-23.288708170533408],[17.415610115806412,-23.306639280187284],[17.49243574782181,-23.28702798513047],[17.47453738795387,-23.314744601484772],[17.426684977759116,-23.33039884881815],[17.439764801518177,-23.411471661504436],[17.372336581988563,-23.42524425126316],[17.402856942539522,-23.514264427619015],[17.451207531823254,-23.532021789171225],[17.440363434301204,-23.621196508040754],[17.650990437430032,-23.62653692654535],[17.655122402329933,-23.59533898015174],[17.836195822664962,-23.59040021892133],[17.899483847134448,-23.60220087642677],[17.96814313553532,-23.668739671657857],[18.025815689731235,-23.637818845954527],[18.040671017549585,-23.656820367884976],[18.0906799549997,-23.652875468423233],[18.149590761407367,-23.62279388117365],[18.244531996057674,-23.608084485922205],[18.238051652086966,-23.580422695432965],[18.22712415583507,-23.55366588565869],[18.302768167506827,-23.52961768194575],[18.403634037512802,-23.472686929470825],[18.43281905822468,-23.501341835929836],[18.5335642736691,-23.700347961706328],[18.59820789733763,-23.66956583363681],[18.67316851483872,-23.74769798039955],[18.784351214388124,-23.766634698994793],[18.960189170487013,-23.690878682862277],[19.03258646312304,-23.693244447194417],[19.011902371485746,-23.728758847820046],[19.14377238137186,-23.747694227252865],[19.218764708130948,-23.671938216162275],[19.270024206565893,-23.685095387157716],[19.270027857747095,-23.861657071861217],[20.00317461997858,-23.840484154021894],[20.01195560063283,-21.994436788348054],[21.000216917637374,-22.001658822326476],[21.00561356122759,-20.39317270704113],[20.903547056386998,-20.356747689428943],[20.806363968878856,-20.393161225787708],[20.631503707101928,-20.361293794524897],[20.330389730592856,-20.320315587810228],[20.058487250906012,-20.302102151153164],[19.752611061129244,-20.261118518177838],[19.631769835245848,-20.27291463670322],[19.408549031814488,-20.238527806251255],[19.37493380769368,-20.258599116018118],[19.34743662494793,-20.293001729075016],[19.063015551886593,-20.399090084951553],[19.01413583173627,-20.456362634473948],[18.86739715294658,-20.48786863291744],[18.828908593321756,-20.542185373355906],[16.520958330923975,-21.182155985006077]]],"type":"Polygon"}},{"type":"Feature","properties":{"area_code":"063"},"geometry":{"coordinates":[[[16.447065918079147,-28.650396420810225],[16.465641195100943,-28.587950809761402],[16.500181692292728,-28.564581500394027],[16.57505106652694,-28.552474520583857],[16.60773853213177,-28.535106647075686],[16.62115153245179,-28.50638978938355],[16.64528524936263,-28.48690537094413],[16.677663567674728,-28.470837885264373],[16.690327674287428,-28.470674633287498],[16.69610393234054,-28.477918808550562],[16.695124806989885,-28.494564097427677],[16.71012912382598,-28.504166307486425],[16.732572095132518,-28.50030473773272],[16.743862237513106,-28.488890965641673],[16.74945871552242,-28.46994768012355],[16.77704288758717,-28.44976699282509],[16.778123140194246,-28.430316598475503],[16.768064995553388,-28.417928062674605],[16.76797377109268,-28.39930671024932],[16.814818076235248,-28.36132585453497],[16.791982008266036,-28.346780929291967],[16.7822222749571,-28.321604359086432],[16.75716003584616,-28.300853359556776],[16.74962362032572,-28.284937640469497],[16.760594614965278,-28.26235264878941],[16.78121803733371,-28.25810813616711],[16.78985117548593,-28.272649281297973],[16.816861551091968,-28.277663523149698],[16.831202405243978,-28.260411108976676],[16.8253670874064,-28.243164096239013],[16.80520474409693,-28.232360271196935],[16.80142770598171,-28.221470529060788],[16.809736782437078,-28.21388624284556],[16.819940225846636,-28.217293783410156],[16.83284180275656,-28.217721511641443],[16.850402230410403,-28.21640647475945],[16.8591677600833,-28.205775890079792],[16.83836151511919,-28.188255727207054],[16.826071104604956,-28.175058784170403],[16.830293276510645,-28.167023254876725],[16.839537865626614,-28.1656546913848],[16.857747981995843,-28.171605154616152],[16.8696392046212,-28.1831100872771],[16.893402533874397,-28.171365717725553],[16.884519421137995,-28.149851495533106],[16.893300286683207,-28.126876123408415],[16.8824330794275,-28.097271654143952],[16.88934345724668,-28.08571220534232],[16.897004932063176,-28.080387704985306],[16.898813782833162,-28.07326685365489],[16.906678516344385,-28.070895502084525],[16.922668380285245,-28.07136904601783],[16.94071097686536,-28.077551442838793],[16.95726935583358,-28.07653907931244],[16.97309856730411,-28.05905433640394],[16.97969180977219,-28.060229898902367],[16.985673982275358,-28.063940181727773],[16.99041640370382,-28.07214038285626],[17.000421186881553,-28.076234955510444],[17.012988548982957,-28.069084256494886],[17.01902067713136,-28.056169366126504],[17.02905823240956,-28.05118892398181],[17.0493421410734,-28.049729089879786],[17.067031723628773,-28.041919605856144],[17.081889674591416,-28.03160609405141],[17.125390175640216,-28.068161567037556],[17.133472794686874,-28.091759145840594],[17.14609608211351,-28.099030228583388],[17.169246306637067,-28.102904949283953],[17.18693507533962,-28.101728318518752],[17.193053014867303,-28.10968440328287],[17.19293387774603,-28.129333669497797],[17.189251904758233,-28.16419276537819],[17.180824362151732,-28.184658227261522],[17.17895409411678,-28.20564761143568],[17.188662062539827,-28.222446674077084],[17.213452536507088,-28.250816217215725],[17.235097688477786,-28.25464809463795],[17.252247360145983,-28.240582930697375],[17.271409191349974,-28.246993920719845],[17.292123254955076,-28.242628269182845],[17.305910310957465,-28.225662761661923],[17.34288588974883,-28.23630069180838],[17.3545816868847,-28.251309907729098],[17.36075691304572,-28.276598627271248],[17.380950480201335,-28.296574664600637],[17.37769074569539,-28.30876763000453],[17.371539720390587,-28.31588230463928],[17.40797342373999,-28.368810331502715],[17.392680827251702,-28.43447957823721],[17.34183659003745,-28.43784259030855],[17.329140453563518,-28.463716797879957],[17.338696672398285,-28.49451633072004],[17.366358045842965,-28.511905286728037],[17.376011830647517,-28.564666439954642],[17.437201701786364,-28.576007621902452],[17.42139214028669,-28.59970543446147],[17.43012885731583,-28.61227619018358],[17.422224781386383,-28.635527048817906],[17.428349057509205,-28.649516766974187],[17.412508782462325,-28.671576538769795],[17.407752692890657,-28.713903806486663],[17.41811726771865,-28.72402912193118],[17.45067330561966,-28.710277577813663],[17.472940147021948,-28.705562019144228],[17.493365039527397,-28.694850037750754],[17.543858830970386,-28.70168095643603],[17.56242254220266,-28.68715942062537],[17.593743576779655,-28.691817030603925],[17.60611011085527,-28.730934031044868],[17.60905878870978,-28.767130351740782],[17.654613016412195,-28.77636758759954],[17.682329091389548,-28.76563872914494],[17.70354125590949,-28.74652847119799],[17.72430220180687,-28.76230026737136],[17.75208584409819,-28.74093544681198],[17.77174627222966,-28.75948038605532],[17.833782968530954,-28.756109771605644],[17.907405676440952,-28.77559520118122],[17.98851548969655,-28.808882657826942],[18.049269275510824,-28.877686295646654],[18.087373841921718,-28.871820556854484],[18.125292621201623,-28.89600933437321],[18.15750305001597,-28.892416769620638],[18.18609594308289,-28.91584088619467],[18.220261126449124,-28.8941658708449],[18.252737342667405,-28.896646774509556],[18.25581899337196,-28.87846217204867],[18.296360652198366,-28.887243479493524],[18.35229750246768,-28.88107280310829],[18.426220633476234,-28.90357839030059],[18.49928888739816,-28.88938651257274],[18.612691813676545,-28.85543319379019],[18.733065033407335,-28.834854681216573],[18.97629725875352,-28.871035443638114],[19.010838543659823,-28.927121234517504],[19.12141990641135,-28.972849489431766],[19.19526234299292,-28.95370804494195],[19.228057624214784,-28.9106510093059],[19.27939650382359,-28.907923642958885],[19.3010926278926,-28.8819209426836],[19.26584066521051,-28.86604453834166],[19.244178937895803,-28.78649217558185],[19.297642178296034,-28.73662457648461],[19.344665618543956,-28.74515621954416],[19.406383966755484,-28.73821388507288],[19.492016027271454,-28.683863566541635],[19.500723050970418,-28.604221189509907],[19.537381085832088,-28.58386655900277],[19.569487979010372,-28.527180674636494],[19.626616009288213,-28.507867872547017],[19.665368542336587,-28.534242908019607],[19.735723872596157,-28.485851924032264],[19.76711027231699,-28.488687269865437],[19.77609151337619,-28.508115346882615],[19.816463864426588,-28.51331396175096],[19.84044666638442,-28.481403512306343],[19.8540254268274,-28.455400845309683],[19.884734066786095,-28.441417696356208],[19.920964537079307,-28.445439890787704],[19.972747323955847,-28.42344935414927],[19.997566899513885,-28.42545989750142],[20.009712305070423,-23.83444784433398],[19.271095330060042,-23.866162556731524],[19.274213638879736,-23.682155537134413],[19.221023753607636,-23.670168543913135],[19.136722845875248,-23.743090839884857],[19.010151176660656,-23.73002013806193],[19.029419412229416,-23.6909691852601],[18.955264680700836,-23.690282787602072],[18.783450879191932,-23.766307587392635],[18.66993209715615,-23.750627904849715],[18.597904884288695,-23.663357203718245],[18.535365212846607,-23.697131957491898],[18.437590106655676,-23.502891114121685],[18.400849793870417,-23.472238618232055],[18.309856137206616,-23.526609863121973],[18.2300432749835,-23.55706006716219],[18.24559670200192,-23.607730384784556],[18.13895558703273,-23.624524574725058],[18.09007835716144,-23.653263736697895],[18.04077780053362,-23.662933227032468],[18.024173459737415,-23.634461494293156],[17.972321801228382,-23.67314375211226],[17.90012335474605,-23.598318828594653],[17.831728250324794,-23.591808860539558],[17.653970795716898,-23.59587622739658],[17.64861868985784,-23.627847548449157],[17.436722659477745,-23.62351965209629],[17.449505407168665,-23.528715107384887],[17.40636202749401,-23.514195417444178],[17.37972942702082,-23.42537512841061],[17.44577588149558,-23.405010604621374],[17.428796913315693,-23.330107537863437],[17.47316409622609,-23.313688479680813],[17.49486395716167,-23.284272533293052],[17.41615015955112,-23.306664387102337],[17.350185294522127,-23.288031996621378],[17.1927483342716,-23.328905539719862],[17.19445661668557,-23.195117103494226],[17.115207987115603,-23.168159708576678],[16.988684643323253,-23.170655281590008],[16.950679616694202,-23.262736106189976],[16.804832113267537,-23.295574171181116],[16.766528409563044,-23.255981011500516],[16.733960085930434,-23.249195359061446],[16.718756977313745,-23.267147067527773],[16.67834180475444,-23.26498103238059],[16.625866306599836,-23.218566274794387],[16.486456957457314,-23.50836196691518],[16.580640825071683,-23.534066946044323],[16.58751788579096,-23.58870294684315],[16.559439851146582,-23.58920361147376],[16.51741990969078,-23.65740100741919],[16.471848630744166,-23.681938567635104],[16.408637318153673,-23.670287453153584],[16.407732413714495,-23.61175169512931],[16.37462467970945,-23.600159649775144],[16.336437528448737,-23.637744568026577],[16.308818433920543,-23.799428326898635],[16.39649508058953,-23.832204692593535],[16.41130281463532,-23.814582177791234],[16.5074448300673,-23.824046917885873],[16.524925326072147,-23.89089070086958],[16.479084636770146,-23.8832609791696],[16.477937854096734,-23.903063318027378],[16.440656690956494,-23.90134493995262],[16.435724358336117,-23.875613055508914],[16.411974268425496,-23.890973671749993],[16.388739461996412,-23.85485111452747],[16.37017683774554,-23.900372282360063],[16.305136414835104,-23.956543943652626],[16.34193732025389,-24.040429566005585],[16.272095331563783,-24.044656995939057],[16.247634922875918,-23.98224514761529],[16.16699360248936,-23.949356924428308],[16.214381873720278,-23.92481781121171],[16.25750516024469,-23.930142675919498],[16.245550830065493,-23.886368701826868],[16.259515277855165,-23.84639416032944],[16.18814121522998,-23.888066449226514],[16.136707364756155,-23.873229891121284],[15.995319575349459,-23.929566265311127],[15.927114653174279,-23.93613733989107],[15.926948612721205,-23.97334681839709],[15.797584260819747,-23.983878602649256],[15.724858716352657,-23.96021158866354],[15.743583207748777,-23.797188978381776],[15.461997630295102,-23.704572231321706],[15.447562345686208,-23.678220861073186],[15.384149683209358,-23.682961542255384],[15.20542821091314,-23.651078204597553],[15.091043221606895,-23.60323969603141],[14.490290913067412,-23.558902984578395],[14.519401300701375,-23.909628309927008],[14.453498180049998,-23.92989893794505],[14.500991010762721,-24.141959959726094],[14.580038194300665,-24.147756731758832],[14.629951846820891,-24.426325356155658],[14.589395477466592,-24.52166135420093],[14.664438748870102,-24.549241089757118],[14.782437757769824,-24.80095822178317],[14.794353615088017,-24.930123061019756],[14.886621662687004,-25.06826261329638],[14.812268886154907,-25.21278050393795],[14.798159967315833,-25.37531569489594],[14.879430748391602,-25.533021661771723],[14.859559214231625,-25.603807381125904],[14.835448457618952,-25.747555770482066],[14.908444564571738,-25.82261623897239],[14.90211434684646,-25.913586849673187],[14.979397084158897,-26.04615344330493],[14.964433542254564,-26.137165962285597],[14.924199031747083,-26.13072090194438],[14.965867979866914,-26.188553136957616],[14.95666147031492,-26.245952694894008],[14.949722476459995,-26.3033522528304],[14.972989870816082,-26.34028025592706],[15.040181702029392,-26.365857563013073],[15.098303592436075,-26.40971996243414],[15.179433602090395,-26.617355831126826],[15.149158465493711,-26.685408483698815],[15.113749961662478,-26.628967200187574],[15.079083035184496,-26.667033203465184],[15.139410775864341,-26.855054303443033],[15.142560371637412,-26.922250997429558],[15.20145460741564,-26.913654030024528],[15.241500768560076,-26.95513522629644],[15.234326922303346,-26.996669887893646],[15.227189342964403,-27.04604579498787],[15.25752790288811,-27.09544893081333],[15.270033886878506,-27.170236764315277],[15.27093238468315,-27.288645172879544],[15.38655803883848,-27.464420327469334],[15.468471418959613,-27.57368215698368],[15.534293711079016,-27.66630424378687],[15.67410699467537,-27.90689332572714],[15.819947198307467,-28.105639871516857],[15.98607565906144,-28.226500117823903],[16.093325879907827,-28.333232366612478],[16.447065918079147,-28.650396420810225]]],"type":"Polygon"}},{"type":"Feature","properties":{"area_code":"064"},"geometry":{"coordinates":[[[13.629551370509802,-21.195564414131383],[13.7645645209839,-21.382218667383462],[13.848063143870865,-21.47710460652609],[13.885142725813218,-21.57196308810448],[13.968751623219454,-21.70150896313622],[13.986366834628747,-21.743420632361506],[13.95757059360708,-21.779164000448517],[14.21703726173019,-22.03649154680504],[14.33020422077657,-22.22573709435485],[14.380158826234162,-22.27434155322537],[14.41354551336875,-22.322942321762348],[14.450503961098024,-22.398719844862146],[14.484145787263856,-22.48677333484852],[14.533010711848188,-22.696449048709788],[14.544078792416707,-22.844406590250284],[14.540704503842328,-22.910178652372487],[14.388942260915563,-22.919334967940202],[14.417492324763657,-23.1002738831738],[14.499206404523722,-23.28119492708401],[14.504957629354246,-23.387990705029566],[14.421592247468197,-23.368178851029402],[14.483366112184928,-23.551346443279947],[15.089009979629878,-23.605112078451985],[15.218321046392576,-23.65221081854591],[15.387560385482292,-23.682988127748892],[15.448393815659692,-23.679436564394383],[15.458952219145644,-23.704124061197902],[15.774763386641306,-23.805495502451933],[15.839571749664163,-23.798291642374263],[15.845635917662099,-23.56756515426573],[15.740901116417813,-23.510613004294488],[15.803026418262611,-23.387999919486454],[15.834602753017478,-23.38170684409208],[15.80255705890022,-23.254146951109817],[15.945611330350317,-23.20357842955508],[15.887857319424626,-23.165692076888163],[15.872094947197041,-23.127048270445655],[15.900700828713497,-22.863519306136652],[15.981912738488688,-22.868328208579925],[16.00538140804889,-22.832069306774983],[16.065993045167772,-22.830536984571623],[16.073404136015625,-22.688334656778935],[15.955704878750566,-22.693234457344587],[16.083364406937875,-22.573270072844835],[16.156907929231238,-22.604817504811948],[16.22570128142496,-22.577743270595107],[16.22330002553113,-22.541536799100243],[16.260135568084593,-22.49619077022618],[16.343450553515083,-22.51422124866818],[16.336288574757504,-22.42361222539607],[16.412368256868234,-22.378199128372103],[16.387622005578635,-22.303224506277317],[16.35822738106151,-22.24645418048793],[16.327911513497213,-22.204357682244833],[16.410473458832485,-22.16616086885375],[16.417054099829528,-22.14318067364627],[16.448443392238715,-22.1447434552492],[16.40875054389477,-22.075810117272468],[16.459925732381095,-22.071234224008393],[16.451614427383106,-22.017634341769963],[16.469786604783877,-21.999292624444877],[16.44336378055118,-21.983975620093844],[16.466425692959803,-21.922739107033962],[16.454847972664936,-21.893645554494427],[16.43010390143297,-21.895176232461978],[16.44212643506461,-21.858540036165564],[16.391001426601576,-21.743728524754204],[16.422332432831865,-21.633210259957025],[16.430496727759476,-21.525730192686822],[16.561959725106732,-21.404917614305077],[16.50745902262969,-21.26647024182101],[16.527283122253266,-21.232630801663504],[16.52067997747011,-21.17259317876413],[16.449627652750593,-21.18479042538823],[16.388580626160604,-21.169549627556123],[16.39021981420325,-21.1448125087024],[16.353900177211642,-21.097117080433733],[16.320868021260395,-21.097138221888713],[16.244459111540294,-21.004628904045987],[16.18520997555666,-21.0431618623157],[16.11766763907866,-21.00628523267484],[16.101166137545533,-21.017029811342198],[16.03527437547814,-20.950932390366447],[15.829078160877117,-20.849373533510217],[15.730280312943194,-20.767860426728973],[15.717139590092813,-20.692429319070143],[15.661130951648886,-20.703358111677233],[15.570416618919154,-20.674164002263836],[15.573715109201316,-20.5583518266735],[15.492813301596726,-20.542951027204523],[15.446561905765122,-20.490390874955295],[15.387590334401722,-20.48873320201446],[15.365089506900603,-20.508708900267635],[15.354461047087085,-20.536446166505826],[15.33058243114877,-20.54094682137854],[15.32340794038646,-20.573139250308998],[15.297459053137345,-20.580870421342652],[15.29771701815966,-20.6041072335463],[15.283450655681975,-20.624091632255542],[15.268065110152207,-20.620756809121403],[15.264558819859388,-20.63628469031677],[15.24319723903767,-20.649604076084472],[15.18375194342866,-20.679572370102633],[15.160050553638627,-20.73279087060061],[15.128118593237105,-20.743888685478794],[15.123485293464569,-20.767201919117227],[15.093703766987375,-20.782678096751425],[15.079554510356616,-20.78160169066497],[15.059498966142854,-20.803837310257947],[15.051185188883323,-20.79384952920283],[14.985985367646236,-20.856048898329306],[14.962235127191377,-20.858257937101072],[14.95274878066553,-20.878254162340028],[14.926699410582273,-20.891661280606073],[14.92563005125831,-20.917114801565134],[14.901946785125915,-20.908261325460217],[14.883071089088276,-20.91933300029578],[14.852294404515021,-20.949222648909],[14.832121845484266,-20.953645803190895],[14.81553074806331,-20.9813113284537],[14.761208665787507,-21.00462819227694],[14.688841312769313,-21.01236543353815],[14.63663087930152,-21.015656286422015],[14.575001834207058,-20.988016696696974],[14.5228204228506,-20.97364234798009],[14.518075242021126,-20.985832143672866],[14.494346877058575,-20.980294557429588],[14.462246109554485,-20.99365600691806],[14.415960420894834,-20.964868245575815],[14.372089640885491,-20.97261823134471],[14.349585098267283,-20.984794354443835],[14.290352858305141,-20.986994100559542],[14.265457025569987,-20.980342992081873],[14.247702731285244,-20.962601991375763],[14.238210951462605,-20.967033950852468],[14.212131309756302,-20.96148204019181],[14.201428837233834,-20.948191640135093],[14.18839557394054,-20.95483124076884],[14.158758192302173,-20.95037709846561],[14.120793888881963,-20.960338008474338],[14.100595506330023,-20.970326624006447],[14.082796747177412,-20.97142710751592],[14.042407960499247,-20.970351392846112],[14.00799307967813,-20.984742628397086],[14.000871978086252,-20.995809798415266],[13.980683107227037,-20.991368092400748],[13.967613270680744,-21.00355505479726],[13.942667382314653,-21.001336590823342],[13.935552779534476,-21.022410867928826],[13.916533581896715,-21.01353465104789],[13.89513369371295,-21.03016399240262],[13.8558765821669,-21.04014171214297],[13.832102812957089,-21.071198843765174],[13.815402314978428,-21.080082145308538],[13.77969208770088,-21.098950364389722],[13.74153216412293,-21.13781387755016],[13.68435296495582,-21.155592808347166],[13.629551370509802,-21.195564414131383]]],"type":"Polygon"}},{"type":"Feature","properties":{"area_code":"065"},"geometry":{"coordinates":[[[13.030454012300652,-19.98262690503607],[14.752116264398296,-19.97857997253736],[14.706894881591495,-19.87664053068734],[14.662838764860254,-19.874295951136205],[14.658397740720716,-19.861225654264445],[14.67990243840913,-19.81227902837881],[14.648805295555718,-19.791895861808143],[14.63147787306616,-19.756000583661404],[14.60356391483694,-19.74214890428391],[14.582931170030037,-19.769870238043566],[14.54030788782481,-19.747042405919856],[14.578218463391266,-19.668259975843554],[14.513362944277674,-19.629155034321258],[14.477101299724723,-19.562449546290154],[14.468462520535525,-19.513539369582247],[14.489988689656315,-19.46530001557531],[14.4804874080925,-19.420337518593627],[14.590505359606425,-19.42270659879773],[14.590505821219892,-19.332064799559248],[14.544629152510197,-19.33206741202882],[14.549915403349672,-19.246340337246053],[14.917427608498144,-19.23248683194582],[15.073080795946282,-19.20258525141776],[15.203764697860748,-19.22301865881137],[15.323372232896645,-19.188591110660695],[15.324290839041169,-19.245803563347934],[15.842651957596416,-19.28598700036426],[15.94567235622577,-19.340724896704018],[16.199110912702395,-19.364853722278923],[16.356959426598763,-19.415949353230985],[16.483292019886193,-19.432420093228714],[16.598000585212702,-19.43407829510207],[16.70907990010116,-19.487823038215154],[16.995893103888278,-19.34573987864694],[17.144466250532503,-19.15030308182449],[17.012535538392058,-18.75007107776129],[17.20122644416736,-18.734441929009293],[17.16603449028881,-18.649132127845306],[17.069692379867604,-18.60310978819838],[16.803188648167605,-18.57256996059293],[16.818742852453283,-18.505871565423746],[16.781625581875375,-18.379206632376125],[17.01632073998522,-18.328067759517793],[17.01818689361062,-18.276044521017823],[17.314387821309055,-18.23646518881185],[17.42476339083339,-18.12815186679454],[17.169975263220266,-17.91854408341726],[17.011395301492144,-17.871532757755688],[17.01149559984043,-17.764088298697743],[18.000893789350755,-17.75094191825768],[18.00041807009424,-17.391003620060218],[14.217128431456956,-17.391326420527406],[14.21911403251437,-17.398432509853507],[14.21322241885639,-17.402242504903384],[14.209323221317561,-17.41127697084697],[14.185471651365418,-17.410805253175823],[14.160131592703408,-17.4150802007386],[14.151748443158482,-17.429361033482976],[14.144188582183432,-17.42856135134801],[14.122542614289017,-17.431976513692476],[14.1160061270582,-17.422941542016247],[14.101713649478882,-17.43899047297286],[14.057895308029913,-17.429135643649786],[14.048817994486967,-17.417674741303003],[14.03478857425523,-17.423332667783185],[14.011754003282846,-17.41471272477247],[13.99796779848117,-17.4328484490391],[13.977179005406668,-17.427222592640376],[13.961238626970442,-17.434825473704365],[13.932286584816097,-17.404370944611557],[13.917379511757105,-17.37587454510036],[13.867607202640215,-17.341665461479124],[13.787935139161192,-17.308394658133423],[13.777966629658437,-17.294122814102124],[13.742082566465484,-17.26937948807162],[13.726140813829062,-17.275086289842747],[13.699255967659838,-17.246551940121847],[13.680312506455692,-17.246544370440432],[13.637606960123378,-17.209271012688887],[13.544462310166097,-17.148060033572207],[13.515505877006802,-17.136612922927426],[13.505235868504514,-17.126799910910748],[13.515534709411725,-17.124562263330915],[13.522658906866496,-17.11174512228193],[13.52426480081212,-17.09138103929213],[13.498227370065223,-17.070255105610954],[13.485603010385518,-17.04005465208617],[13.477697027168318,-17.024947308048255],[13.465049623686014,-17.009839445684023],[13.442945159169938,-17.009086550399957],[13.424775373264396,-16.99775553492782],[13.395559240018713,-16.997002081979318],[13.353808539171808,-16.973281111917146],[13.333538760295085,-16.98141583540543],[13.310693764859906,-16.987663105249226],[13.293650684825963,-16.991020556297514],[13.272421130216827,-16.999341879733507],[13.25652193347679,-16.992051682669924],[13.246446307817479,-17.000491463598067],[13.238983142713238,-16.99686282922397],[13.239585444820051,-16.99090105611991],[13.227151025953674,-16.98247214700328],[13.202595233497902,-16.989758893711382],[13.197661166732729,-16.98073906016421],[13.200965916780092,-16.974060961101586],[13.185813595678951,-16.968156232789312],[13.175675068681926,-16.97300370684951],[13.166972443095062,-16.963401756515154],[13.14683683479646,-16.963443485843925],[13.128600592430814,-16.966192327068427],[13.106433525635367,-16.973405554790176],[13.097404024912407,-16.979431931766968],[13.087572744668222,-16.97661343851881],[13.065082158049222,-16.97258574811393],[13.051548095458855,-16.981023239949124],[13.036472007656897,-16.980620425263027],[13.031885265988222,-16.976604330357702],[13.019664390952585,-16.981825776090204],[12.982673533485581,-16.981032401670234],[12.975180180377095,-16.98824438287575],[12.968513366858332,-16.990654138809276],[12.963070502602989,-17.00993231217967],[12.94753595890893,-17.010338556933263],[12.947960117252137,-17.018780384183614],[12.939140946597348,-17.01678306833692],[12.913121266535825,-17.021527284709947],[12.903854528977774,-17.036038972211543],[12.89098728844462,-17.04457084977807],[12.87305771223339,-17.04759631898655],[12.87172655478895,-17.055644114031594],[12.87383209925207,-17.064739507287314],[12.846583303847325,-17.077367765176803],[12.835952635355824,-17.085964693115415],[12.826305563253953,-17.082927971086335],[12.809108647973574,-17.105201724559677],[12.80629915324721,-17.11477837452901],[12.797843045387793,-17.114274465682172],[12.792766669353966,-17.119897934420564],[12.781019377301448,-17.121385697050457],[12.758597406064638,-17.140025388810486],[12.73781448830752,-17.14455383680466],[12.734942356762645,-17.15310037015169],[12.715780361319759,-17.15962489990102],[12.713996876505774,-17.170155605430452],[12.70652327171905,-17.172141830045646],[12.70082415882166,-17.167135195287926],[12.688816977260558,-17.171704483814267],[12.680766176565612,-17.177391682002323],[12.672335448659481,-17.170835416369016],[12.66610661465998,-17.18301076071218],[12.659745571661716,-17.184521924939546],[12.646879159791752,-17.190696637077806],[12.644697207759037,-17.197184890723946],[12.632724112119718,-17.200005798129453],[12.625686682113752,-17.20550820688709],[12.611910253108618,-17.207508455311],[12.606395507478936,-17.21700366755134],[12.608773218472379,-17.22515813809818],[12.605972858194662,-17.23063842719114],[12.60185365016818,-17.227151109177754],[12.596986215642204,-17.23465832375274],[12.579395344047583,-17.22876059386455],[12.562983605127101,-17.24437390611314],[12.545797646857693,-17.23967024630788],[12.540230086717543,-17.247871897593086],[12.53394404789563,-17.24185237517206],[12.525128070689334,-17.24801370031045],[12.494667383627188,-17.247165548940444],[12.47977536225423,-17.24255018314986],[12.474209556171758,-17.253374270093033],[12.451245835369662,-17.255726832740606],[12.443978931431587,-17.266053287381382],[12.43713717710591,-17.25803266241661],[12.439196118806393,-17.244271300950388],[12.4334093558262,-17.24230916331595],[12.437129980822874,-17.221556527397638],[12.424355292626132,-17.207319204218905],[12.415301006977217,-17.208269468277877],[12.394527343664919,-17.20727332466963],[12.393454581669118,-17.222505930315307],[12.386656491508376,-17.217990741636953],[12.372955261995713,-17.227561877321477],[12.369753773059358,-17.23409397360078],[12.352469374144448,-17.217516022719877],[12.342694223009545,-17.22517065025255],[12.32158466198561,-17.227698519935856],[12.308866471324734,-17.235241454281663],[12.29512082180429,-17.233718324405274],[12.283900558580513,-17.24068988382001],[12.262657421848672,-17.232025644426415],[12.25125645900988,-17.23972985616689],[12.234950573091282,-17.237259004766557],[12.229225675026129,-17.222662412403736],[12.208788736954858,-17.21767274305479],[12.197816172353953,-17.206670232397883],[12.19302288805764,-17.19659647354203],[12.182944208324784,-17.195031880150736],[12.178249476734607,-17.18652400539436],[12.177159218062457,-17.175971612245263],[12.163102928342227,-17.161482091664453],[12.14800547097397,-17.161549494897727],[12.140012217567715,-17.16600851977357],[12.12898985329113,-17.16400593186586],[12.116397478000124,-17.15849398913585],[12.103782909951633,-17.160497726003072],[12.091131285792045,-17.148421259379134],[12.08058885240203,-17.142372326554337],[12.06792675551904,-17.152339367670464],[12.058504475644725,-17.156365795583056],[12.046986840350172,-17.155392899343354],[12.035974089126,-17.15038913904654],[12.020291472629566,-17.161623965418855],[11.998191026253437,-17.16951196516159],[11.974177692491509,-17.177407683346644],[11.961663811718864,-17.173851091090157],[11.954649038210789,-17.181211079825204],[11.94251623005772,-17.17972001937656],[11.89772092138574,-17.20740093647649],[11.882529752706375,-17.226461060055442],[11.857783335159866,-17.242546273671636],[11.846282931919148,-17.233470984197595],[11.83576948774541,-17.236983327636267],[11.817367878573094,-17.26411909226232],[11.798999869911711,-17.26661335692316],[11.794763143257114,-17.274669064460767],[11.775816178488185,-17.257552515651895],[11.751193842572548,-17.249767120926137],[11.753172768094004,-17.34050913061847],[11.747233616837377,-17.382078958973153],[11.735355505133981,-17.595445600614227],[11.747233856765462,-17.64261438701496],[11.761093616783086,-17.687909663179468],[11.775825395791998,-17.80356779301779],[11.801607452163353,-17.963977277753585],[11.86308193218045,-18.148759677707915],[11.966200899751044,-18.282494798392506],[11.954270725480058,-18.29940670184709],[12.003847833377279,-18.367174682969406],[11.995915349387644,-18.436798104609593],[12.029628406345495,-18.498870886919548],[12.31917812707357,-18.735668434720708],[12.386615645648874,-18.82764969788107],[12.45997806615756,-18.915827923818654],[12.475830630790512,-19.00213843358891],[12.568073476972017,-19.085900777649513],[12.621605654276266,-19.196432698395412],[12.710895253416567,-19.351835491780975],[12.70094870395613,-19.38550299425289],[12.716817431642056,-19.40608115865048],[12.85961716697301,-19.650931757652984],[12.891344420871746,-19.740560784332416],[12.923071482928975,-19.787233916273095],[12.964725940438484,-19.86742095429983],[13.030454012300652,-19.98262690503607]]],"type":"Polygon"}},{"type":"Feature","properties":{"area_code":"066"},"geometry":{"coordinates":[[[18.000728420465975,-17.389947125802067],[18.001375367580692,-18.738615369305805],[18.90898816220158,-18.783796268595637],[18.93279339659469,-18.198517596868328],[19.21816157061653,-18.2007878093858],[19.21731808547507,-18.67845695768122],[19.216472005394365,-19.16144358436084],[20.998898330223568,-19.16608164801069],[20.998219764052905,-18.7425684877835],[20.998237673577222,-18.319043570369743],[21.453481463076145,-18.316669207854375],[23.099827895809312,-17.991515083566654],[23.322286480254434,-17.99593498542258],[23.41035409890648,-18.202989876836796],[23.56331978427582,-18.339445947278676],[23.577223761740726,-18.497746592234776],[23.6328396715991,-18.497746592234776],[23.683820922302885,-18.427408733888754],[23.730167513851057,-18.427408733888754],[23.934092516666198,-18.251438373184556],[23.92018853920132,-18.194209520318708],[24.207545918181978,-18.022413688394764],[24.29560961934041,-18.031229763385966],[24.383655948653825,-17.943062277074787],[24.49025279658167,-17.99596520813654],[24.47630423729896,-18.048837216773506],[24.57820905234854,-18.08406682016232],[24.689429968521296,-17.929806676667752],[24.912046209466865,-17.810741673082276],[24.97231444826764,-17.77543957818733],[25.013944088400024,-17.832792565084787],[25.05652020083795,-17.80401409413689],[25.059448693300823,-17.83008227251281],[25.062379382256324,-17.843106900322027],[25.114261482871427,-17.827282575351305],[25.131904558147397,-17.801217680754945],[25.145593831250068,-17.80586014712506],[25.163210010242096,-17.776030579628284],[25.255247281451886,-17.795617299257685],[25.262081909880578,-17.785354697972835],[25.231753989031517,-17.76858458030702],[25.192587701126257,-17.76858019768291],[25.168120439914503,-17.74434366924899],[25.153440647039332,-17.70611286364759],[25.13302121115231,-17.694204608534122],[25.1068096921596,-17.706700116321528],[25.105347618305416,-17.68310318147691],[25.08932024612608,-17.660893290643315],[25.070377777213793,-17.62896279027892],[25.045607751068104,-17.5873086780515],[25.00865327297859,-17.59755807682241],[24.978596327423475,-17.550680121374313],[24.943080357983405,-17.563703616371455],[24.946936737011754,-17.552978250054338],[24.93960235379774,-17.54511132036272],[24.909348452599005,-17.558222923047737],[24.88276226176896,-17.525880469701292],[24.857093171560308,-17.53025157989825],[24.830507375448292,-17.518012735073015],[24.79750418871251,-17.53637072096386],[24.78100493510189,-17.508397223358514],[24.762667669926742,-17.517138491956786],[24.725997716911706,-17.501401556910537],[24.702161816156064,-17.49440675289965],[24.675575962271125,-17.501401421012943],[24.658157644208302,-17.496155445164746],[24.637989065398045,-17.499652779222473],[24.639822572562423,-17.513641442273496],[24.627904775992903,-17.51014437751101],[24.615986979423326,-17.53025157989825],[24.590317879119766,-17.533748257218136],[24.55914825732296,-17.53811900905619],[24.549063967917846,-17.512767182396217],[24.53531266418389,-17.50577295186116],[24.51331057821082,-17.513641442273496],[24.46702512511959,-17.48202359700028],[24.430353631725637,-17.479400251865684],[24.392774541052376,-17.46978259467417],[24.325862729191698,-17.491643759683328],[24.288289561793732,-17.48290128302179],[24.265367802711296,-17.493392871018827],[24.248883423870552,-17.474158771753395],[23.431664791757157,-17.637280893598387],[21.425112184317783,-18.027369580342793],[21.417791764693106,-18.013418817545713],[21.399441651151676,-18.00731908048394],[21.374687063788883,-18.010806793179924],[21.375588038690836,-17.995114856422234],[21.363670298728152,-17.98465111610352],[21.349927030897987,-17.984650616555783],[21.32976608983796,-17.99075375433445],[21.31876280031355,-17.986394217318548],[21.31050584144512,-17.97505863608569],[21.279401065303233,-17.96546636883592],[21.245405763561052,-17.957594495559277],[21.224313045252842,-17.93404855551735],[21.21056575264663,-17.92706815916334],[21.192223844565035,-17.93579289432489],[21.16013769944294,-17.92968589079095],[21.129877171347516,-17.941026794451915],[21.115208805945684,-17.932303608788757],[21.111542849765556,-17.941026148341763],[21.090464141877533,-17.950618543971544],[21.069379952344406,-17.943640502906447],[21.052886089974066,-17.952360428617908],[21.012563572990757,-17.953229562775192],[20.99787649853397,-17.964570660397385],[20.977723854897306,-17.95846282169795],[20.94010277937511,-17.973294820964043],[20.921766071493522,-17.98550357492455],[20.902510268634586,-17.995968134769697],[20.895173355244594,-17.9924807533708],[20.863991330058695,-18.004690669183972],[20.85940707726465,-18.016897595452022],[20.867676579973732,-18.02473921978263],[20.84163748656755,-18.036473492579333],[20.803023186969966,-18.03892003787321],[20.79186628564449,-18.027501489594343],[20.762688636195804,-18.015260144567776],[20.750674734504912,-18.020156407598904],[20.747247665711996,-18.00056868306305],[20.719787356287924,-18.01362598136548],[20.710350497606044,-18.007913201002864],[20.696624053386188,-18.011176807093534],[20.680315882624456,-17.994039931899493],[20.648558867052202,-17.975267445139366],[20.575888917681198,-17.97101117558958],[20.542073934400293,-17.98478273266815],[20.52275455374064,-17.96946857334123],[20.503433441870783,-17.952619814325786],[20.472846546012676,-17.949552307025797],[20.46319078476074,-17.920458307378937],[20.44065942542369,-17.90667822243485],[20.418126316266523,-17.908214101092625],[20.381103007724846,-17.892898491589676],[20.36500505601353,-17.895959886532523],[20.329594182192267,-17.863780691232392],[20.303843792545763,-17.863777876308845],[20.29740463320846,-17.876034063166998],[20.260387483106797,-17.866841860303893],[20.24589648661555,-17.89441795979404],[20.175081693571144,-17.876034063166998],[20.16220014687613,-17.891354024222352],[20.110696603152803,-17.912795775085186],[20.078503181960286,-17.891354024222352],[20.05275281500448,-17.886758085445592],[20.027002038064552,-17.906669063454586],[20.001243814330792,-17.892885901015035],[19.972275755979666,-17.88828979805696],[19.948142924889027,-17.876033606918924],[19.914347375902565,-17.859182471746323],[19.903072064409145,-17.872970742401947],[19.866043891392366,-17.88675841232252],[19.814581802044017,-17.869902771105615],[19.79332987949121,-17.87459944215236],[19.782207683875953,-17.880850990666815],[19.78018252094961,-17.890960921665453],[19.77310348375076,-17.89144116019264],[19.769064583454963,-17.90009331786409],[19.759469497360527,-17.911142676452215],[19.74327735522448,-17.908273598873578],[19.741753727324948,-17.902506469187685],[19.727097977046185,-17.877478975890824],[19.708033091387378,-17.87289238907497],[19.70913048141861,-17.88429483742412],[19.672912479645795,-17.84779016316601],[19.630603305857544,-17.8486103562408],[19.62320326927408,-17.86302754831322],[19.616241923298574,-17.85668990907894],[19.609020766046626,-17.865323787726048],[19.581139867179015,-17.854881129723594],[19.579100324262207,-17.86489039120202],[19.56753028541558,-17.87169476930972],[19.539162449242173,-17.873170089036286],[19.508616503024776,-17.859925493388232],[19.5035011610821,-17.868594326966914],[19.481038133246663,-17.867144280912214],[19.463057262597943,-17.858241816934978],[19.440391614181152,-17.862048004430463],[19.433786923900904,-17.867607954398345],[19.39582830288684,-17.862523513415738],[19.37386187686718,-17.844153538984912],[19.36199348729199,-17.847211006268623],[19.35633279084233,-17.85702307239113],[19.35255795987055,-17.85047314366652],[19.328247442519363,-17.853854167593937],[19.335509633995365,-17.84650640170706],[19.33781829698605,-17.832165443032725],[19.321853142520744,-17.832880295536597],[19.310774954570622,-17.836815324729592],[19.305899478784013,-17.829301849534694],[19.245058853176833,-17.81218938034144],[19.227538092577483,-17.828739182184954],[19.17269334924269,-17.799938094294273],[19.161945125578875,-17.814973981849228],[19.123486582840837,-17.812746400376966],[19.12009753806671,-17.83521567853644],[19.036987184295256,-17.83443252660775],[18.952710343956422,-17.81670023764948],[18.900080605233505,-17.816191620306917],[18.882476104132092,-17.796328014327994],[18.861419499255128,-17.80505993440145],[18.841937817888056,-17.77141407882968],[18.791655610787252,-17.76339242247418],[18.775979925338774,-17.733937742224988],[18.741814851382113,-17.739637023578638],[18.74123572826985,-17.716008280704745],[18.615624820182134,-17.6283670207635],[18.61873480415369,-17.59851371858767],[18.596685816847266,-17.581920219117727],[18.569511893890898,-17.578382212353628],[18.53490847904415,-17.541685897511265],[18.53351874061139,-17.519509109458397],[18.515156950625936,-17.49868813533937],[18.47983767978541,-17.483253850827833],[18.471340400836375,-17.448509325442195],[18.420406093439667,-17.387150968515698],[18.000728420465975,-17.389947125802067]]],"type":"Polygon"}},{"type":"Feature","properties":{"area_code":"067"},"geometry":{"coordinates":[[[13.629988452618818,-21.192105650771694],[13.686201920666917,-21.148605266357002],[13.739571837004291,-21.136773492358998],[13.828182398262925,-21.0721027139205],[13.855122528796308,-21.03705795208994],[13.934370601852365,-21.02046481094743],[14.001670696628175,-20.990658767949192],[14.103091054103405,-20.96915861743832],[14.20181783921531,-20.943906898569445],[14.252630401982294,-20.966863559788653],[14.28506393069449,-20.985775268266316],[14.356976813821337,-20.98360732130709],[14.412074501574608,-20.96610642100471],[14.456778002980968,-20.989524706963103],[14.524374453148468,-20.97229738374394],[14.638262558889814,-21.009723344582973],[14.76152992884963,-21.002120727924282],[14.81987063444646,-20.981341558363937],[14.901544517884162,-20.906024349535272],[14.92547749094723,-20.91725080322128],[14.926159948369403,-20.891172554477414],[15.053647012858015,-20.788165553544378],[15.060113834705826,-20.804051291558487],[15.073070868947813,-20.781536949755854],[15.094585535373422,-20.780188065062042],[15.123482610050827,-20.766967355630637],[15.125221000941643,-20.74320855567835],[15.155812191027476,-20.733964663069763],[15.1795092392704,-20.683114182936674],[15.26933249540133,-20.635182729207877],[15.29841257685889,-20.60279265593704],[15.294618043755081,-20.579325596624543],[15.321921010221637,-20.57169985909644],[15.335310674749408,-20.53589479056569],[15.359674289677109,-20.53520126970946],[15.363338141682686,-20.502477124620036],[15.38687856525027,-20.485584261842703],[15.442407920925362,-20.4877240849983],[15.48994156006544,-20.541708781820592],[15.574206468266453,-20.557320275442706],[15.57233619755209,-20.676432370222244],[15.660854806426102,-20.701466186146334],[15.714117501662628,-20.690869177406967],[15.726431540543274,-20.765579010684675],[15.82858794018189,-20.851769555691916],[16.03860249448558,-20.95523006905215],[16.095340371304587,-21.01542759565322],[16.113549275744518,-21.005421907183567],[16.18235420111435,-21.041351703398377],[16.243574089668414,-21.00355814440715],[16.320771834730323,-21.09807799375656],[16.355593617653824,-21.0964903770344],[16.391303528266576,-21.14604088183917],[16.38962339266918,-21.1681613069954],[16.45093156965479,-21.18456977662592],[16.52147345727772,-21.1714627903702],[16.52084361561674,-21.181903467862575],[18.828128618158246,-20.541260311493318],[18.869614140639356,-20.48849347625371],[19.019132145406502,-20.452289724618183],[19.064476160517287,-20.395861226889757],[19.351353343422403,-20.2915429684369],[19.372463503740207,-20.258977793382932],[19.4073410210097,-20.239313240158964],[19.634433775520392,-20.268865999970515],[19.749463729080034,-20.260308811651555],[20.056992909775534,-20.303373633684345],[20.33215361113775,-20.318174096564775],[20.805977399058747,-20.39338688388787],[20.90440147544109,-20.356995908345425],[20.99876719687748,-20.389499903256933],[21.001753238994638,-19.165032069102267],[19.217185202837385,-19.161843437939496],[19.21821623221058,-18.203176696965713],[18.933238804753643,-18.199355977869644],[18.909388587313714,-18.783030152346043],[18.001265153872623,-18.7370038099844],[17.998653508175437,-18.248207299265076],[17.999334721035694,-17.751797316838804],[17.840832855289108,-17.75539455312918],[17.0117685232982,-17.768173370872063],[17.011668272489118,-17.870804602357026],[17.1680078725161,-17.919128365653684],[17.29190251353748,-18.012902365885296],[17.423629803400743,-18.12780606473651],[17.313965692850683,-18.236969943242407],[17.01735691410196,-18.276188710665092],[17.01531978722419,-18.32886257488726],[16.779871742322086,-18.378487757250213],[16.81913445774734,-18.50664813567367],[16.803603405670202,-18.572080915052695],[17.06703782621514,-18.603375757387155],[17.16445280194513,-18.648324156544895],[17.200519606631595,-18.7347111591322],[17.01209016846993,-18.750010621530002],[17.14384459653118,-19.14808680547145],[16.99599341004418,-19.345719326182504],[16.707587941286363,-19.48689140508438],[16.598066517983426,-19.434338212556156],[16.4835791708502,-19.432855723181017],[16.354014404737754,-19.414288242901698],[16.19757528826193,-19.365749840898715],[15.942710023186123,-19.34120768304014],[15.839117225439054,-19.28650270684389],[15.567633349374404,-19.255621742241047],[15.322361781311173,-19.246342481500477],[15.322317965095039,-19.18767225926625],[15.201370141520812,-19.2247200862367],[15.073848036265076,-19.203095574818505],[14.907093950151193,-19.233970267765073],[14.5476024248905,-19.246284638133673],[14.54420944620665,-19.329638809645672],[14.590097057139758,-19.33270174809941],[14.590026388504242,-19.422174636134145],[14.477181260464022,-19.419778230750268],[14.489581712573766,-19.46345982475873],[14.467870150765705,-19.51058919507925],[14.479340439175331,-19.5626299372788],[14.513372261407767,-19.626961773773786],[14.579604688860343,-19.669863625637433],[14.539361844946995,-19.744140778417943],[14.580756036861146,-19.768904861149878],[14.604312019685153,-19.741508258059298],[14.630542614660811,-19.757128568188406],[14.649857686400509,-19.790975339084895],[14.677485880866158,-19.809182628023677],[14.65669808889669,-19.86264504767246],[14.66221924238235,-19.87696910087358],[14.70647103572017,-19.876894577792157],[14.750918768713206,-19.978341456114762],[13.026133763704394,-19.98484324309821],[13.058966332107588,-20.092171093590338],[13.209525620635105,-20.218008293496325],[13.209473144463686,-20.254831447305335],[13.245402834813262,-20.368300199865985],[13.235575228549806,-20.454114533872087],[13.336921917365032,-20.607237372778116],[13.376131830902011,-20.799967537478693],[13.473727648354554,-20.934349122400846],[13.555384979093247,-21.077677120654428],[13.568446374325674,-21.120347258282834],[13.629988452618818,-21.192105650771694]]],"type":"Polygon"}}]}