{"type":"FeatureCollection","features":[{"type":"Feature","properties":{"department_id":"PY00","department":"ASUNCIÓN"},"geometry":{"type":"Polygon","coordinates":[[[-57.56161801286705,-25.228361940524447],[-57.527239993514655,-25.244360058282883],[-57.54323890880788,-25.296287669643],[-57.58613474018363,-25.341443456897306],[-57.61602894700622,-25.31368237136431],[-57.64207956414273,-25.38038655199731],[-57.66783471271953,-25.3453146642883],[-57.67094044925288,-25.28354675140621],[-57.56161801286705,-25.228361940524447]]]}},{"type":"Feature","properties":{"department_id":"PY01","department":"CONCEPCIÓN"},"geometry":{"type":"Polygon","coordinates":[[[-57.99364721643678,-22.090523665485055],[-57.94158606004591,-22.083130708731517],[-57.92225695104737,-22.10717996431573],[-57.92972395401256,-22.12061574724862],[-57.86268226290329,-22.1374385654503],[-57.828071092614465,-22.12025048619584],[-57.80400876558508,-22.151049441351404],[-57.77925117667643,-22.124957987419695],[-57.73938564960469,-22.13452959738156],[-57.738173897299085,-22.102817073648854],[-57.71715756829826,-22.113530060870183],[-57.70729308561415,-22.090807500514046],[-57.65267411994982,-22.107065597137336],[-57.61152364571431,-22.094518368978292],[-57.612303310578355,-22.124535680329863],[-57.584286140413326,-22.140538331826768],[-57.58022602223193,-22.175270710551413],[-57.54028980644478,-22.181153674281532],[-57.52161863817286,-22.168304777847506],[-57.48866346341194,-22.19134004011716],[-57.40697327204073,-22.197689807525837],[-57.37760858624773,-22.212748281639442],[-57.37430802026428,-22.23219295079],[-57.3352417957565,-22.229129742521096],[-57.32031948924524,-22.245891156382672],[-57.29185817490767,-22.21854844976985],[-57.240103517176756,-22.24930432756374],[-57.20472288359645,-22.208603647311257],[-57.186498685865466,-22.234160963685937],[-57.11005559629291,-22.225363487904918],[-57.11224603404667,-22.241239769129976],[-57.08258315512739,-22.25106877784269],[-57.059661999602945,-22.229464247682266],[-57.044032019151615,-22.24264576305313],[-56.996415285231954,-22.22242386400835],[-56.98690158079357,-22.242538268867666],[-56.958761344950275,-22.2379208435906],[-56.947506210836146,-22.255852008581915],[-56.926451347684875,-22.24978437874468],[-56.90557968695537,-22.266386270904807],[-56.8833342253965,-22.247481768688452],[-56.88018515572738,-22.277451398401475],[-56.84384780775004,-22.301210882366988],[-56.60942574916505,-22.365285521025772],[-56.64488971515344,-22.384519336950962],[-56.64865837872008,-22.422149654983418],[-56.71682168591931,-22.458663422991968],[-56.73866690196677,-22.5436600090184],[-56.715341188742634,-22.622065780787096],[-56.72678373586143,-22.6514816130643],[-56.694170420938555,-22.682218701444693],[-56.69601214740189,-22.709264597615867],[-56.66559131756991,-22.722767937456915],[-56.669750362536554,-22.76646322212264],[-56.64907911557077,-22.801975267588585],[-56.67726671082255,-22.84357106064459],[-56.71319057116412,-22.84335074457911],[-56.71122748560575,-22.902896101535223],[-56.671001640890374,-22.896896483098587],[-56.664566781124094,-22.88112415422088],[-56.59676733995737,-22.913450829809626],[-56.587902476186585,-22.89837845215628],[-56.55949471508569,-22.899517246058302],[-56.538560440041834,-22.879354085444973],[-56.52601159302547,-22.80976446827552],[-56.504770589570235,-22.783037696354306],[-56.45236655691145,-22.76691795599746],[-56.44271067875165,-22.77791884527858],[-56.40887560118519,-22.75583697429893],[-56.41182410949523,-22.743675360142838],[-56.39806469789216,-22.74917964593444],[-56.385180365044775,-22.71353000797474],[-56.36385213920147,-22.720090645680905],[-56.32804890104245,-22.687636443845797],[-56.294892151647836,-22.687082815456797],[-56.126554139102296,-23.055646972211367],[-56.15210102721472,-23.098325411773416],[-56.1411127195227,-23.12038236866965],[-56.183700639465485,-23.121218203689956],[-56.18243616133173,-23.16054431327075],[-56.21375573614437,-23.174722432171627],[-56.201078959103306,-23.226587087768728],[-56.238602675329176,-23.226524922547668],[-56.2395130248787,-23.240832495634848],[-56.266793383676784,-23.248924453123546],[-56.29940574377722,-23.29625091543708],[-56.287647069206564,-23.317989125057096],[-56.311682059485214,-23.32684462805608],[-56.31397940471456,-23.345290270258538],[-56.35950972152661,-23.360228741227832],[-56.3529847788869,-23.379590001211707],[-56.36562655029135,-23.389757314969465],[-56.4179892921454,-23.421599639036387],[-56.47674827212172,-23.409300441724582],[-56.515072672726035,-23.42795113472951],[-56.52581252535344,-23.456901660295152],[-56.55624883900098,-23.443439508261225],[-56.60762607252791,-23.458558260843713],[-56.643188629463616,-23.441545856515503],[-56.6885987790618,-23.451401474973824],[-56.727131790693235,-23.432698902159558],[-56.75200215931075,-23.451157768186718],[-56.80430010796377,-23.42525528466322],[-56.81661258832952,-23.439839262909516],[-56.94880730997249,-23.435402932141617],[-56.997439499013474,-23.452258786386174],[-57.03292484132844,-23.442126268467604],[-57.0782541700044,-23.46366411712824],[-57.13544796441263,-23.46497371205292],[-57.14963050721972,-23.48312949711833],[-57.240845809192166,-23.47262182381256],[-57.2632207851275,-23.478985681684698],[-57.26773387299785,-23.498997853740637],[-57.295789738079044,-23.49125125999443],[-57.36204684666456,-23.50949146599062],[-57.45012723852622,-23.477481415148475],[-57.461903301181806,-23.42552442047863],[-57.522436884827734,-23.34721772186992],[-57.48914269835078,-23.317923382867537],[-57.49321446631394,-23.27969253511393],[-57.549047237877076,-23.212022485526877],[-57.62305753079945,-23.178352242922],[-57.642671584980015,-23.137169321713728],[-57.63191535012521,-23.09447799712228],[-57.71090153319675,-23.09388468075149],[-57.7341006133867,-23.05767424700456],[-57.78839488028714,-23.03007502132664],[-57.765954108764696,-22.971236659034847],[-57.821374574120256,-22.914973544318777],[-57.789506993743494,-22.877517362424808],[-57.81021515922348,-22.81903303721045],[-57.875318146962556,-22.802980493274653],[-57.885054123682316,-22.76183592774164],[-57.93488196635034,-22.725311999626555],[-57.93889761205137,-22.692593811656806],[-57.909427908563295,-22.65912505369823],[-57.782935354572786,-22.66361412075897],[-57.772045534087695,-22.64803943480001],[-57.827744308121225,-22.570730698970824],[-57.83960111152894,-22.447057356399206],[-57.8654385585146,-22.417255364940306],[-57.862889808035746,-22.40149671083387],[-57.82961405671229,-22.39696897563253],[-57.817486767993714,-22.37828175154766],[-57.877698506458024,-22.329258156351276],[-57.88863506342944,-22.26981215888957],[-57.94958912016203,-22.278460420477767],[-57.971349266026685,-22.225712400401857],[-57.95616622961598,-22.133552620533074],[-57.99364721643678,-22.090523665485055]]]}},{"type":"Feature","properties":{"department_id":"PY02","department":"SAN PEDRO"},"geometry":{"type":"Polygon","coordinates":[[[-56.22159440201445,-23.305838133584714],[-56.16389543083284,-23.309602292015],[-56.15428140819182,-23.42351945001067],[-56.16835331823357,-23.4563822185792],[-56.135331321381855,-23.512008042974134],[-56.135743544599286,-23.56528630835522],[-56.114045153247154,-23.60587605830702],[-56.06091022007901,-23.604190902979298],[-56.04899154581601,-23.57554137271514],[-56.02157609049675,-23.599061779666556],[-55.97841127293514,-23.66877669620511],[-55.973477713162424,-23.740602409395443],[-55.98784870813388,-23.783778901847178],[-56.01428532361294,-23.794253258479173],[-56.027789307268854,-23.82103432766858],[-55.97710721814805,-24.02861380971864],[-56.01392806262432,-24.02181742667793],[-56.07130863652922,-24.055982486213882],[-56.10576258262411,-24.10688870712097],[-56.14537000143646,-24.115035769134433],[-56.1616939974147,-24.162304324521426],[-56.14866847551389,-24.199980878537545],[-56.17172479721614,-24.2440008683837],[-56.15624597416404,-24.285366033548964],[-56.12649270085198,-24.30121961975305],[-56.12259409402555,-24.3856981471458],[-56.05869760476396,-24.40243147542072],[-56.02583192784417,-24.44091191617162],[-55.99087989505739,-24.528809768438013],[-55.94048116741274,-24.570570385536165],[-55.942781616261485,-24.62190274766334],[-55.91389582198728,-24.66044665855272],[-55.867035792576274,-24.684857259096752],[-55.83961893764166,-24.76187876911489],[-55.78252954537512,-24.782086361008474],[-55.70199130680426,-24.783969725653336],[-55.712113760143524,-24.81989961025697],[-55.77048167623137,-24.81964765194498],[-55.78116252869393,-24.83782173873488],[-55.846136139464846,-24.861453091616518],[-55.98201641662432,-24.834984187582968],[-55.98870549207936,-24.86322065654552],[-56.02349041915919,-24.88077797311146],[-56.02744393344687,-24.910316349911014],[-56.050658951250625,-24.906207883614066],[-56.08894135368147,-24.932729176773098],[-56.12579297525692,-24.91327455246495],[-56.128384069203875,-24.93516581986466],[-56.14461960485665,-24.938497326619395],[-56.25485496632174,-24.766172568386583],[-56.2782195945348,-24.808000623733587],[-56.19716325949075,-24.94044677539025],[-56.249550373555,-24.92555731264661],[-56.29384294305334,-24.940701488742082],[-56.32865023031771,-24.917174643354127],[-56.38810828145117,-24.91200088844519],[-56.51948038726508,-25.00388616305003],[-56.61560094014885,-24.979005338266983],[-56.68473730203628,-24.86878525338581],[-56.73301598023738,-24.89560712074246],[-56.76744735921778,-24.866964064542877],[-56.860323438898924,-24.875746770489474],[-56.949319252044866,-24.843278952257023],[-56.95657913010989,-24.86731900870192],[-56.98667720817753,-24.88132767106404],[-56.978921470550475,-24.90526854494464],[-57.01531368713685,-24.961470237087017],[-57.011849839941114,-24.978832897324658],[-57.05259456571176,-24.983037092675],[-57.04357702847386,-25.01497394668837],[-57.09597067215683,-25.005191289089804],[-57.10480316083425,-25.01902543946715],[-57.138881982362356,-24.980041966469283],[-57.1925713802823,-24.969397753847392],[-57.19254170104137,-24.95031957669314],[-57.210960419312386,-24.973789037125908],[-57.21903141009174,-24.95485724231346],[-57.26364019962841,-24.952405279036064],[-57.2757769553412,-24.942701807755622],[-57.2690821213827,-24.924028295629522],[-57.22867097228776,-24.935362648270235],[-57.21682373270089,-24.911077546911113],[-57.259756763803495,-24.885631409662604],[-57.25746794752423,-24.860140334359308],[-57.30013299197895,-24.83728854491876],[-57.23206552917561,-24.75679191338607],[-57.23034624931668,-24.699120215527785],[-57.169560321184555,-24.689627873387824],[-57.175974689986,-24.66508654674469],[-57.15744118901901,-24.618256191441294],[-57.194797106556784,-24.569148577697234],[-57.16153971762449,-24.52828372851377],[-57.19441918112744,-24.484676246507235],[-57.14930819054655,-24.448980043890515],[-57.181411447821844,-24.393309305581926],[-57.164041647641696,-24.355937376179874],[-57.204374274620186,-24.28478498286726],[-57.20626502527339,-24.230843657887572],[-57.27984551732727,-24.143644203000306],[-57.20751324967918,-24.085628989196465],[-57.26407739013994,-24.041686174692426],[-57.211330266716466,-24.004546274630382],[-57.215403499378205,-23.9875554599891],[-57.240834584813406,-23.98397699801125],[-57.22976286527596,-23.95175566912267],[-57.28630936497764,-23.93383058957586],[-57.30419173230474,-23.90779400550374],[-57.253541276267285,-23.875197127644658],[-57.27609424725829,-23.84306384629538],[-57.25148020376049,-23.811902843663816],[-57.252724198347295,-23.787086795662308],[-57.27804204365971,-23.77159021434814],[-57.25574185732084,-23.761376211606503],[-57.256660680028894,-23.735966165470494],[-57.34319022426974,-23.680226471592917],[-57.41909558386646,-23.65373966844855],[-57.47351675182598,-23.536198206842943],[-57.447049841816224,-23.477583287350082],[-57.36204684666456,-23.50949146599062],[-57.295789738079044,-23.49125125999443],[-57.26773387299785,-23.498997853740637],[-57.2632207851275,-23.478985681684698],[-57.240845809192166,-23.47262182381256],[-57.14963050721972,-23.48312949711833],[-57.13544796441263,-23.46497371205292],[-57.0782541700044,-23.46366411712824],[-57.03292484132844,-23.442126268467604],[-56.997439499013474,-23.452258786386174],[-56.94880730997249,-23.435402932141617],[-56.81661258832952,-23.439839262909516],[-56.80430010796377,-23.42525528466322],[-56.75200215931075,-23.451157768186718],[-56.727131790693235,-23.432698902159558],[-56.6885987790618,-23.451401474973824],[-56.643188629463616,-23.441545856515503],[-56.60762607252791,-23.458558260843713],[-56.55624883900098,-23.443439508261225],[-56.52581252535344,-23.456901660295152],[-56.515072672726035,-23.42795113472951],[-56.47674827212172,-23.409300441724582],[-56.4179892921454,-23.421599639036387],[-56.3529847788869,-23.379590001211707],[-56.36187364520368,-23.363976754656782],[-56.34974106572536,-23.35271175347016],[-56.29392371039025,-23.34375291162614],[-56.292355405886035,-23.32923875026181],[-56.241111521244015,-23.31357193831654],[-56.23152597316731,-23.329306508507756],[-56.22159440201445,-23.305838133584714]]]}},{"type":"Feature","properties":{"department_id":"PY03","department":"CORDILLERA"},"geometry":{"type":"Polygon","coordinates":[[[-56.949319252044866,-24.843278952257023],[-56.860323438898924,-24.875746770489474],[-56.76744735921778,-24.866964064542877],[-56.73301598023738,-24.89560712074246],[-56.68473730203628,-24.86878525338581],[-56.61675649317829,-24.977996847266674],[-56.56448447680817,-24.997336823025854],[-56.56167957156854,-25.16607418350896],[-56.61903325104186,-25.16677683931841],[-56.66414342578469,-25.267518211999466],[-56.619693953456775,-25.321819789464953],[-56.56136168480833,-25.30611103455787],[-56.6670396526147,-25.410335023806322],[-56.85507574567416,-25.514292177868917],[-56.85303486599211,-25.535367173162452],[-56.834052160122866,-25.533499455487355],[-56.72676170639012,-25.663172435096374],[-56.80546617165879,-25.62377408047514],[-56.877490848241024,-25.666670301181508],[-56.94337663051596,-25.652878187291876],[-56.909839539718256,-25.602666965502422],[-56.9209597448222,-25.575546181787082],[-56.90864355955953,-25.56369114226529],[-56.95662638961873,-25.562345117798916],[-57.01987494280726,-25.590999093070636],[-57.089181646313286,-25.582540117271616],[-57.130200702608185,-25.52682135605995],[-57.131783743341174,-25.45569104828305],[-57.18003455629216,-25.430486222181518],[-57.205562965861624,-25.35270873057796],[-57.23373189611622,-25.366862826274964],[-57.29626199812744,-25.35349053055507],[-57.34329888896725,-25.294014963836545],[-57.33350377552965,-25.237288807849815],[-57.39594435081715,-25.192541106756664],[-57.3965230297525,-25.168075298636165],[-57.43414613831087,-25.144458224052716],[-57.42640998077994,-25.13311547948947],[-57.47643915119853,-25.111889838469462],[-57.401882527668995,-25.062292009675605],[-57.379889224825725,-25.064499254956644],[-57.28732996224478,-24.919468648341606],[-57.26633074943074,-24.926715071900944],[-57.2757769553412,-24.942701807755622],[-57.26364019962841,-24.952405279036064],[-57.21903141009174,-24.95485724231346],[-57.212730249039424,-24.973646536961795],[-57.19204512720563,-24.950491808905188],[-57.1925713802823,-24.969397753847392],[-57.138881982362356,-24.980041966469283],[-57.10480316083425,-25.01902543946715],[-57.09597067215683,-25.005191289089804],[-57.04357702847386,-25.01497394668837],[-57.05259456571176,-24.983037092675],[-57.011849839941114,-24.978832897324658],[-57.01531368713685,-24.961470237087017],[-56.978921470550475,-24.90526854494464],[-56.98667720817753,-24.88132767106404],[-56.95657913010989,-24.86731900870192],[-56.949319252044866,-24.843278952257023]]]}},{"type":"Feature","properties":{"department_id":"PY04","department":"GUAIRÁ"},"geometry":{"type":"Polygon","coordinates":[[[-56.36982377195322,-25.578337365730345],[-56.29216273523762,-25.569038108750867],[-56.28436225416686,-25.586441503742122],[-56.20701971965089,-25.57542811596614],[-56.059974889268695,-25.622427137641782],[-55.93316139796839,-25.627229455061244],[-55.86007836471542,-25.656747154339325],[-55.864543673649315,-25.67524658628644],[-55.847122038532476,-25.68560179676558],[-55.79268390620739,-25.694745648289178],[-55.69394389611301,-25.67853228201509],[-55.66654199216249,-25.6457944702885],[-55.63341374399317,-25.65064356496354],[-55.67903831596454,-25.742217547192684],[-55.727799232648735,-25.70936247143916],[-55.762212956462214,-25.717974370175515],[-55.75655748856884,-25.774988513785594],[-55.84765919674372,-25.801638165410527],[-55.9123552603683,-25.876045005250162],[-55.935798723520115,-25.854337109521456],[-55.97420179647529,-25.853113237197082],[-56.03096195075669,-25.894694413856016],[-56.048453307018214,-25.89085994312619],[-56.099352312561436,-26.019183194353438],[-56.17205670263485,-26.060664794478242],[-56.28096145425309,-25.97618678535181],[-56.339916711423726,-26.0044726957287],[-56.352307652153016,-26.026330415615465],[-56.376127932334676,-26.01510769239175],[-56.41090556733334,-26.023868956943378],[-56.40269099854921,-26.138072879443545],[-56.439734935919596,-26.117866685657635],[-56.53465994471413,-26.119644546113378],[-56.55123525576423,-26.186718550559366],[-56.58542792005529,-26.188509633096494],[-56.60325002075256,-26.172947868263122],[-56.62263536983693,-26.178485425868562],[-56.62661361030545,-26.197213970730452],[-56.71105301850622,-26.134070340181918],[-56.70578957809985,-26.10898890748921],[-56.72200186706033,-26.091273255695317],[-56.701729010122705,-26.02955533452516],[-56.74768575529751,-25.951956191308327],[-56.60755622918924,-25.97908438175685],[-56.60882780001361,-25.915088975824844],[-56.66576256414008,-25.85044198350737],[-56.689540636729035,-25.76216528515865],[-56.66983500028235,-25.700155202583378],[-56.59753378073985,-25.67227823113605],[-56.53384831308431,-25.625326283347775],[-56.49811829127011,-25.62145141022372],[-56.47840465869913,-25.63658453062905],[-56.438789588006934,-25.62060351939826],[-56.41680169272651,-25.5808754604308],[-56.389794532093575,-25.56587473457155],[-56.36982377195322,-25.578337365730345]]]}},{"type":"Feature","properties":{"department_id":"PY05","department":"CAAGUAZÚ"},"geometry":{"type":"Polygon","coordinates":[[[-55.17491591375935,-24.467185940332485],[-55.138767141898064,-24.496782195642467],[-55.15745492763126,-24.52832732992585],[-55.251162583492935,-24.51515036353023],[-55.30208026212102,-24.567183896868897],[-55.29217818239151,-24.644896815676812],[-55.317816296713545,-24.692763958038014],[-55.301012277371576,-24.715972924898026],[-55.35008364437421,-24.846803482571026],[-55.325053431329046,-24.88355183047313],[-55.3453378693552,-24.918155143898172],[-55.3289114381142,-24.9262422019668],[-55.332831492949865,-24.968224304407908],[-55.30737259355624,-24.98345710953958],[-55.31113443255921,-25.010982778689343],[-55.2730489753493,-25.023343050561667],[-55.28122654592421,-25.038564980698034],[-55.23119025657281,-25.02903512597481],[-55.22129890957169,-25.051586943098773],[-55.19326725185293,-25.042969724145973],[-55.156490953909255,-25.10056327279591],[-55.09247577993547,-25.127843352484373],[-55.053798579723406,-25.17411663076006],[-55.009758820163114,-25.194072566718532],[-55.02851298207562,-25.225531544662076],[-55.00332308997079,-25.25196818627409],[-54.984112570998235,-25.24685949418233],[-54.98021046758301,-25.26369603437582],[-54.965133076347485,-25.249695443925372],[-54.97712118940564,-25.278778727318855],[-54.954814695668446,-25.304401365077304],[-54.96346386172079,-25.318332534858715],[-54.94094043475816,-25.32394119383286],[-54.95051259151774,-25.346624112044672],[-54.92337092629815,-25.365773415222574],[-54.93295617260282,-25.377512455597454],[-54.960397960570766,-25.36116850701893],[-54.9710211728797,-25.37982077382717],[-55.008410950594005,-25.38627166720167],[-55.050670524804936,-25.314637309723324],[-55.145009034832405,-25.325307017293323],[-55.22511591060214,-25.26280022481267],[-55.289862275472295,-25.251734423588882],[-55.328459532252396,-25.335260142871267],[-55.378435707512146,-25.361913937970918],[-55.42606227889199,-25.557541758473516],[-55.47787393137928,-25.523691853981315],[-55.49273346562466,-25.558054287076807],[-55.5340650754817,-25.580138012621227],[-55.5353618439583,-25.619099935459214],[-55.55536636060451,-25.635229889486858],[-55.58111249501293,-25.63726089470935],[-55.59665454243878,-25.658691449786456],[-55.66654199216249,-25.6457944702885],[-55.69394389611301,-25.67853228201509],[-55.746603563741964,-25.691246414416028],[-55.84695631713684,-25.68567271968796],[-55.864543673649315,-25.67524658628644],[-55.86007836471542,-25.656747154339325],[-55.93316139796839,-25.627229455061244],[-56.059974889268695,-25.622427137641782],[-56.20701971965089,-25.57542811596614],[-56.28436225416686,-25.586441503742122],[-56.29216273523762,-25.569038108750867],[-56.36982377195322,-25.578337365730345],[-56.38766811390573,-25.56568525275367],[-56.41680169272651,-25.5808754604308],[-56.430005212910096,-25.616171887051035],[-56.47840465869913,-25.63658453062905],[-56.49811829127011,-25.62145141022372],[-56.53384831308431,-25.625326283347775],[-56.60488991176053,-25.676316740494535],[-56.648580526381814,-25.685697949432033],[-56.66379682730339,-25.708381401094552],[-56.696854201214165,-25.7004125361207],[-56.70371999589478,-25.672555012861412],[-56.802285669500264,-25.582017231216895],[-56.834052160122866,-25.533499455487355],[-56.855325282305785,-25.532086894845833],[-56.851206865103315,-25.506612420363876],[-56.6670396526147,-25.410335023806322],[-56.56136168480833,-25.30611103455787],[-56.619693953456775,-25.321819789464953],[-56.66414342578469,-25.267518211999466],[-56.61903325104186,-25.16677683931841],[-56.56167957156854,-25.16607418350896],[-56.56442446552467,-24.997224280033773],[-56.51948038726508,-25.00388616305003],[-56.38810828145117,-24.91200088844519],[-56.32865023031771,-24.917174643354127],[-56.29384294305334,-24.940701488742082],[-56.249550373555,-24.92555731264661],[-56.19716325949075,-24.94044677539025],[-56.2782195945348,-24.808000623733587],[-56.25485496632174,-24.766172568386583],[-56.222757066369205,-24.80046199722246],[-56.15992541203611,-24.93090843521202],[-56.128384069203875,-24.93516581986466],[-56.12579297525692,-24.91327455246495],[-56.08894135368147,-24.932729176773098],[-56.050658951250625,-24.906207883614066],[-56.02744393344687,-24.910316349911014],[-56.02349041915919,-24.88077797311146],[-55.98870549207936,-24.86322065654552],[-55.98201641662432,-24.834984187582968],[-55.846136139464846,-24.861453091616518],[-55.78116252869393,-24.83782173873488],[-55.77048167623137,-24.81964765194498],[-55.716845409969075,-24.826134250100033],[-55.70199130680426,-24.783969725653336],[-55.736106286098035,-24.74318890522991],[-55.72920665240583,-24.72308875340588],[-55.70017394574253,-24.671635894240488],[-55.66226939228966,-24.674936871151413],[-55.66846548048249,-24.65318902607239],[-55.60123877311428,-24.636474132059675],[-55.609591662587626,-24.624659256263296],[-55.56419007204513,-24.58145362014124],[-55.54393161449213,-24.51353930485301],[-55.49370601618368,-24.533788458812115],[-55.484022022203895,-24.57158374571691],[-55.46047902828676,-24.54142731599234],[-55.43783839587585,-24.55125540510448],[-55.40189972170483,-24.535048022977172],[-55.39998730149393,-24.548949794093126],[-55.36976794874133,-24.53996418589242],[-55.34273356943157,-24.49364702286925],[-55.312670072143504,-24.51486728375825],[-55.296791773513,-24.487561643013937],[-55.28097868687555,-24.50076020944945],[-55.252525542392455,-24.467506951494848],[-55.17491591375935,-24.467185940332485]]]}},{"type":"Feature","properties":{"department_id":"PY06","department":"CAAZAPÁ"},"geometry":{"type":"Polygon","coordinates":[[[-55.47520002510341,-25.527216735880124],[-55.42860421412194,-25.54695222061785],[-55.40002246836716,-25.622898978480894],[-55.427326334433914,-25.659831720388308],[-55.45291926478694,-25.65411953646262],[-55.477073756831764,-25.68040653628803],[-55.46577174422251,-25.717281160284603],[-55.521865033956146,-25.80410353720524],[-55.53002420390773,-25.84589213936708],[-55.513143347931376,-25.861203541615655],[-55.5268003419681,-25.888937355749956],[-55.515844195966814,-25.90183064113614],[-55.5506397418801,-25.996946403476876],[-55.506749430784254,-25.985399967176196],[-55.45859705835282,-25.98951263042846],[-55.43123569347147,-26.009819806879534],[-55.409657717252585,-25.99850252454994],[-55.39264748005609,-26.035332273700632],[-55.37610625807276,-26.017602165297586],[-55.38157475750631,-25.999784310516198],[-55.364735532755354,-26.005801309008096],[-55.34716870233873,-25.989767242315413],[-55.30519716191457,-26.042380635096233],[-55.283039635254354,-26.05264925286859],[-55.257388538277546,-26.036932468190525],[-55.24909714522123,-26.05766244799597],[-55.250709858863594,-26.078521233061828],[-55.281398018636686,-26.09612305196674],[-55.288951175770386,-26.083543104109634],[-55.29745525167945,-26.103603040840188],[-55.31445772559029,-26.09216206925771],[-55.3179316402496,-26.106149858690046],[-55.34185875617454,-26.104969104232904],[-55.348424598135686,-26.185397074408993],[-55.36815377102077,-26.211711283137976],[-55.35965031285267,-26.26812535322092],[-55.37511362027378,-26.29743583498723],[-55.455124140418256,-26.325036218974866],[-55.507194017853635,-26.307912923455316],[-55.49823562654576,-26.35011097074438],[-55.56296516824221,-26.367225150823085],[-55.59589918518328,-26.417390547987466],[-55.68336624848508,-26.35815989426691],[-55.76186082832792,-26.37983228187846],[-55.76604398868274,-26.39383035953076],[-55.80526313835469,-26.387374007408674],[-55.83735125345021,-26.445382692598066],[-55.880531502117464,-26.452932033180158],[-55.91113990542877,-26.51341419445368],[-56.01369104554733,-26.51362294274167],[-56.03032405178749,-26.547065356895953],[-56.05612296783035,-26.52348470488484],[-56.10047104078963,-26.554702998958927],[-56.12251429565328,-26.596394101070157],[-56.11685249925925,-26.626654031638534],[-56.15492474581109,-26.637408020453805],[-56.18127507357281,-26.66701761360351],[-56.17617727649688,-26.70805397700669],[-56.260427931138736,-26.697814672758117],[-56.30748699402763,-26.72899742211508],[-56.356363943167025,-26.724790045702388],[-56.40799684038897,-26.766081619840868],[-56.468536553439165,-26.7724068844478],[-56.490716114386665,-26.794346716680465],[-56.540442318373664,-26.770256685851738],[-56.539552535015474,-26.757527813009222],[-56.64094096230136,-26.74360501609421],[-56.662085419313584,-26.718976628823835],[-56.63741762564666,-26.665582149637505],[-56.6975873934784,-26.658441093165933],[-56.73943714758002,-26.622155174955346],[-56.76964079801371,-26.638423416512772],[-56.77158502418062,-26.61689232279079],[-56.80552607062334,-26.622798101971327],[-56.821941180890136,-26.58487942376038],[-56.80710590076409,-26.568242033647852],[-56.82096625421786,-26.543601559511213],[-56.848434073524835,-26.541759860306872],[-56.84210373861728,-26.510646724911794],[-56.82474666631313,-26.512771747375034],[-56.79203018296605,-26.476702123719512],[-56.79584236053558,-26.43904478769006],[-56.76049413453332,-26.42090957197976],[-56.7632198310729,-26.378294941688022],[-56.73800528750578,-26.370623217869586],[-56.724957775820755,-26.31219544202406],[-56.699077247903475,-26.30078520661892],[-56.69933475164696,-26.26058535844971],[-56.67238840241208,-26.22561830404813],[-56.65040587477167,-26.21638989715516],[-56.639064466130556,-26.227473214255696],[-56.62263536983693,-26.178485425868562],[-56.55153210646061,-26.186949727152168],[-56.53465994471413,-26.119644546113378],[-56.439734935919596,-26.117866685657635],[-56.40269099854921,-26.138072879443545],[-56.41090556733334,-26.023868956943378],[-56.376127932334676,-26.01510769239175],[-56.352307652153016,-26.026330415615465],[-56.339916711423726,-26.0044726957287],[-56.28096145425309,-25.97618678535181],[-56.17205670263485,-26.060664794478242],[-56.099352312561436,-26.019183194353438],[-56.048453307018214,-25.89085994312619],[-56.03096195075669,-25.894694413856016],[-55.97420179647529,-25.853113237197082],[-55.935798723520115,-25.854337109521456],[-55.9123552603683,-25.876045005250162],[-55.84765919674372,-25.801638165410527],[-55.75655748856884,-25.774988513785594],[-55.762212956462214,-25.717974370175515],[-55.727799232648735,-25.70936247143916],[-55.67903831596454,-25.742217547192684],[-55.63594067436407,-25.650816168771943],[-55.59396437504078,-25.65809676112432],[-55.58111249501293,-25.63726089470935],[-55.5367266626457,-25.62094638959467],[-55.5340650754817,-25.580138012621227],[-55.495887689068695,-25.561066118896306],[-55.47520002510341,-25.527216735880124]]]}},{"type":"Feature","properties":{"department_id":"PY07","department":"ITAPÚA"},"geometry":{"type":"Polygon","coordinates":[[[-55.31367742458612,-26.092676533264306],[-55.299558436804354,-26.103185524643017],[-55.322635995688046,-26.13398174454638],[-55.29657745258071,-26.14882818700597],[-55.29038447366462,-26.1952266849133],[-55.25984493322988,-26.235964457312203],[-55.230367528501716,-26.244792934989206],[-55.18414736902587,-26.213548964362413],[-55.13960639095116,-26.20627260974642],[-55.06807362189529,-26.24321315017451],[-55.0593615960859,-26.23067539498019],[-55.035449594666076,-26.23790996783644],[-55.036863995508924,-26.22226863721782],[-55.01122984071515,-26.236123475981902],[-54.99097160851557,-26.22336291498595],[-54.98381627346257,-26.24290358232875],[-54.96926005275477,-26.22691639586572],[-54.950119231044305,-26.23889291978401],[-54.95108548500222,-26.209572084199632],[-54.91570849381834,-26.229213869931915],[-54.91748941535694,-26.21259589125682],[-54.90282653556961,-26.20785171368372],[-54.919577706598204,-26.20211090447349],[-54.91179121655862,-26.181910809070622],[-54.898277222608684,-26.199729682154253],[-54.87069565388613,-26.190632052082034],[-54.87439916995382,-26.17419667643395],[-54.85541770649404,-26.188875186026465],[-54.836856078683,-26.180564417130995],[-54.824216927510484,-26.211975071811548],[-54.808199451987306,-26.207626280119904],[-54.81519725039125,-26.19001152887464],[-54.803343657517146,-26.193284094621387],[-54.76265741032572,-26.249422578693075],[-54.74371513771926,-26.25044112058186],[-54.74052176575978,-26.234782455880715],[-54.72406496404802,-26.25684023855435],[-54.713479783433144,-26.23607499497034],[-54.699127313821776,-26.255973350996967],[-54.70561301628131,-26.229578561250836],[-54.69278448334999,-26.22810995925731],[-54.64816052764793,-26.30976941468735],[-54.696503396273826,-26.377569690077166],[-54.7046448269804,-26.44614654414115],[-54.79962939924207,-26.533569446405107],[-54.80734525917776,-26.562410335918866],[-54.78375846983973,-26.6142769473003],[-54.81270191040141,-26.66929718467417],[-54.876496521016776,-26.65641144278608],[-54.94095217532739,-26.68141804233333],[-54.959736927716,-26.785423071592444],[-55.05389683068544,-26.798338858703467],[-55.139599753238734,-26.864142288928864],[-55.14932413271542,-26.896234136695355],[-55.13534249593303,-26.948954837467557],[-55.20671362913726,-26.968856980141535],[-55.26212600927331,-26.937246976796207],[-55.3041411062068,-26.962828565109124],[-55.375939102857934,-26.96522667618542],[-55.41732338227862,-26.991105933085894],[-55.45275403048292,-27.041937867457392],[-55.45245172767658,-27.102372028847824],[-55.55139970973363,-27.10415691625459],[-55.56230430961208,-27.159516824158207],[-55.611694924191525,-27.167655275579076],[-55.62023056478293,-27.204800106043518],[-55.5768572321609,-27.24439117365263],[-55.6012128010362,-27.286143882702877],[-55.590750893935564,-27.326275145083216],[-55.688416788228835,-27.382701552413028],[-55.736129755370605,-27.444659051540924],[-55.826569293532884,-27.425045747681946],[-55.863622262111406,-27.391932580886017],[-55.88864001749358,-27.341237134565247],[-55.9595427839415,-27.348304762792978],[-56.046522439739434,-27.306623199415018],[-56.09812749982238,-27.308322364264818],[-56.175636842903444,-27.34016608736676],[-56.209120271019025,-27.38506098973739],[-56.29249332441845,-27.411051725056005],[-56.29577905547955,-27.478909154048296],[-56.353602875828884,-27.53507338781143],[-56.36752240003628,-27.58114064931823],[-56.40779314790742,-27.591833565407068],[-56.48168211770323,-27.555812537359618],[-56.533075559865566,-27.47718722182109],[-56.57643944414443,-27.44294478683518],[-56.69409462450729,-27.451878536375943],[-56.71908620370815,-27.466246094063877],[-56.72741102979441,-27.49244087538623],[-56.750519435526904,-27.497749927666607],[-56.82938055132138,-27.460665949132505],[-56.88483684856018,-27.412556257692525],[-56.69504538924658,-27.36913613373906],[-56.664877239247396,-27.338427978802574],[-56.677960635960524,-27.322266519204423],[-56.66644045222645,-27.299816935662328],[-56.709644380693696,-27.23576807690016],[-56.634777112195835,-27.14630681743744],[-56.64075761217552,-27.035483759988036],[-56.62610961066485,-27.006058165880734],[-56.644049500267414,-26.978312424712673],[-56.656767690617976,-26.722236826839655],[-56.6401015493964,-26.74411301636797],[-56.539552535015474,-26.757527813009222],[-56.540442318373664,-26.770256685851738],[-56.49101531252653,-26.794370363895673],[-56.468536553439165,-26.7724068844478],[-56.40799684038897,-26.766081619840868],[-56.356363943167025,-26.724790045702388],[-56.30748699402763,-26.72899742211508],[-56.2602742794686,-26.697773242981174],[-56.18180358214599,-26.711223895909168],[-56.18127507357281,-26.66701761360351],[-56.15492474581109,-26.637408020453805],[-56.11685249925925,-26.626654031638534],[-56.12251429565328,-26.596394101070157],[-56.10047104078963,-26.554702998958927],[-56.05612296783035,-26.52348470488484],[-56.03032405178749,-26.547065356895953],[-56.01369104554733,-26.51362294274167],[-55.91113990542877,-26.51341419445368],[-55.880531502117464,-26.452932033180158],[-55.83735125345021,-26.445382692598066],[-55.80526313835469,-26.387374007408674],[-55.76604398868274,-26.39383035953076],[-55.76186082832792,-26.37983228187846],[-55.68336624848508,-26.35815989426691],[-55.59589918518328,-26.417390547987466],[-55.56296516824221,-26.367225150823085],[-55.49823562654576,-26.35011097074438],[-55.507194017853635,-26.307912923455316],[-55.455124140418256,-26.325036218974866],[-55.3916359626769,-26.310046678177383],[-55.35981357127741,-26.269020917233913],[-55.36815377102077,-26.211711283137976],[-55.348424598135686,-26.185397074408993],[-55.347409036806255,-26.118267004056776],[-55.31367742458612,-26.092676533264306]]]}},{"type":"Feature","properties":{"department_id":"PY08","department":"MISIONES"},"geometry":{"type":"Polygon","coordinates":[[[-57.08170947634518,-26.37769469762388],[-57.04228048494328,-26.413246667569904],[-56.99869524340319,-26.412048818622672],[-56.99319097101953,-26.432031469182252],[-56.955298472788364,-26.449316659077663],[-56.959874892299624,-26.482446077418235],[-56.90663535388258,-26.463613990379645],[-56.878517053307725,-26.488669084844222],[-56.89927855047975,-26.496291292935496],[-56.87265665209568,-26.50343039354093],[-56.87957817361668,-26.523097940671917],[-56.82065066763015,-26.543998445411535],[-56.80552607062334,-26.622798101971327],[-56.77158502418062,-26.61689232279079],[-56.76964079801371,-26.638423416512772],[-56.73943714758002,-26.622155174955346],[-56.6975873934784,-26.658441093165933],[-56.63644501914484,-26.66627940528779],[-56.66211117528392,-26.72280944028618],[-56.644049500267414,-26.978312424712673],[-56.625861008636996,-27.01642234861428],[-56.64075761217552,-27.035483759988036],[-56.63782545164506,-27.163474219589027],[-56.709644380693696,-27.23576807690016],[-56.66644045222645,-27.299816935662328],[-56.677960635960524,-27.322266519204423],[-56.664877239247396,-27.338427978802574],[-56.69142730793816,-27.367151191016518],[-56.848589821422706,-27.410185166717586],[-56.92509609023266,-27.409257896883247],[-57.04303162883854,-27.480795990472288],[-57.133970514262046,-27.48606286984794],[-57.23334968066262,-27.466991018134927],[-57.34197916972891,-27.416305023372892],[-57.182093604926244,-27.108967386431274],[-57.42868052604907,-27.060105700883422],[-57.64009486673546,-26.790442197639845],[-57.74313933754304,-26.400590161199847],[-57.71553950733687,-26.388488133554503],[-57.70828499493531,-26.424237105661067],[-57.66342422961849,-26.432276093061716],[-57.674871042831434,-26.468330513587638],[-57.65555083800683,-26.467107046777997],[-57.65788043034427,-26.48908961469552],[-57.64018447831771,-26.47894192681939],[-57.640209874237115,-26.500348243703534],[-57.62006628382889,-26.49132686846816],[-57.59704877602709,-26.532505300229573],[-57.56198266342351,-26.52169305461767],[-57.545073100685656,-26.542550397673462],[-57.50963306674063,-26.53815426434001],[-57.52048414208174,-26.55106797665008],[-57.49895897878498,-26.553696771077465],[-57.50675666582034,-26.566749662417436],[-57.448212905548395,-26.571068950802083],[-57.42832124157543,-26.591586438605045],[-57.43564509597491,-26.613672230676592],[-57.41608776715671,-26.605835707430273],[-57.40981437781733,-26.619572273448092],[-57.38034262201716,-26.60499083521142],[-57.373939071119445,-26.61832025291098],[-57.36134665781127,-26.59441992019991],[-57.35266441498418,-26.61212401024278],[-57.33149292308758,-26.609529208193287],[-57.32094919859693,-26.584562267738225],[-57.29469228762151,-26.59410999591279],[-57.294693602677754,-26.58250415917989],[-57.28276448251434,-26.597450732047093],[-57.26508465045838,-26.58790978386252],[-57.27556672373441,-26.582850422822183],[-57.246242562339916,-26.557678761196883],[-57.25415424525477,-26.545458106350054],[-57.23202416172614,-26.53888538793883],[-57.25040215293161,-26.488949836498325],[-57.2180566976099,-26.49778026345944],[-57.22727966173645,-26.478365453038414],[-57.20878660357359,-26.48862028320105],[-57.20834083656034,-26.46889234680039],[-57.18654779928813,-26.46752024408459],[-57.17058642198364,-26.41225568934589],[-57.12597252059185,-26.40264503992285],[-57.12161621940496,-26.38196537878539],[-57.08170947634518,-26.37769469762388]]]}},{"type":"Feature","properties":{"department_id":"PY09","department":"PARAGUARÍ"},"geometry":{"type":"Polygon","coordinates":[[[-57.19369756462453,-25.405445436678423],[-57.18003455629216,-25.430486222181518],[-57.131783743341174,-25.45569104828305],[-57.130200702608185,-25.52682135605995],[-57.089181646313286,-25.582540117271616],[-57.01987494280726,-25.590999093070636],[-56.95662638961873,-25.562345117798916],[-56.90864355955953,-25.56369114226529],[-56.9209597448222,-25.575546181787082],[-56.909839539718256,-25.602666965502422],[-56.94337663051596,-25.652878187291876],[-56.877490848241024,-25.666670301181508],[-56.80546617165879,-25.62377408047514],[-56.71839347759603,-25.65883557354605],[-56.696854201214165,-25.7004125361207],[-56.66983500028235,-25.700155202583378],[-56.689540636729035,-25.76216528515865],[-56.66576256414008,-25.85044198350737],[-56.60882780001361,-25.915088975824844],[-56.60755622918924,-25.97908438175685],[-56.74768575529751,-25.951956191308327],[-56.701729010122705,-26.02955533452516],[-56.72200186706033,-26.091273255695317],[-56.70578957809985,-26.10898890748921],[-56.71105301850622,-26.134070340181918],[-56.62886135808135,-26.199290172934834],[-56.639064466130556,-26.227473214255696],[-56.65119518937841,-26.216382567867583],[-56.68700316369618,-26.23960536297814],[-56.699077247903475,-26.30078520661892],[-56.724957775820755,-26.31219544202406],[-56.73800528750578,-26.370623217869586],[-56.7632198310729,-26.378294941688022],[-56.76049413453332,-26.42090957197976],[-56.77978923401176,-26.439143866507212],[-56.789908809677726,-26.430788136135867],[-56.79175417524502,-26.476203319951267],[-56.82474666631313,-26.512771747375034],[-56.84210373861728,-26.510646724911794],[-56.84781964964364,-26.541445336768724],[-56.87957817361668,-26.523097940671917],[-56.87364851349394,-26.50233196643397],[-56.89911166162386,-26.49834124124544],[-56.878252098171494,-26.489441349807134],[-56.90904643065006,-26.461951714610258],[-56.959874892299624,-26.482446077418235],[-56.955298472788364,-26.449316659077663],[-56.99319097101953,-26.432031469182252],[-56.99869524340319,-26.412048818622672],[-57.04228048494328,-26.413246667569904],[-57.07132904198039,-26.379030880144242],[-57.09417369344779,-26.376891232830694],[-57.122967918576755,-26.382800686717726],[-57.12597252059185,-26.40264503992285],[-57.17058642198364,-26.41225568934589],[-57.18654779928813,-26.46752024408459],[-57.20834083656034,-26.46889234680039],[-57.20878660357359,-26.48862028320105],[-57.22727966173645,-26.478365453038414],[-57.2180566976099,-26.49778026345944],[-57.25040215293161,-26.488949836498325],[-57.23202416172614,-26.53888538793883],[-57.25415424525477,-26.545458106350054],[-57.246242562339916,-26.557678761196883],[-57.27556672373441,-26.582850422822183],[-57.26508465045838,-26.58790978386252],[-57.28276448251434,-26.597450732047093],[-57.294693602677754,-26.58250415917989],[-57.29469228762151,-26.59410999591279],[-57.32094919859693,-26.584562267738225],[-57.33149292308758,-26.609529208193287],[-57.35266441498418,-26.61212401024278],[-57.36134665781127,-26.59441992019991],[-57.373939071119445,-26.61832025291098],[-57.38034262201716,-26.60499083521142],[-57.41078006447268,-26.619597485348393],[-57.41608776715671,-26.605835707430273],[-57.43564509597491,-26.613672230676592],[-57.42832124157543,-26.591586438605045],[-57.448212905548395,-26.571068950802083],[-57.50675666582034,-26.566749662417436],[-57.49895897878498,-26.553696771077465],[-57.52048414208174,-26.55106797665008],[-57.50963306674063,-26.53815426434001],[-57.545073100685656,-26.542550397673462],[-57.56198266342351,-26.52169305461767],[-57.59704877602709,-26.532505300229573],[-57.62006628382889,-26.49132686846816],[-57.640209874237115,-26.500348243703534],[-57.64018447831771,-26.47894192681939],[-57.65788043034427,-26.48908961469552],[-57.65555083800683,-26.467107046777997],[-57.674871042831434,-26.468330513587638],[-57.66342422961849,-26.432276093061716],[-57.70828499493531,-26.424237105661067],[-57.71316591559096,-26.390020234574866],[-57.741867235366286,-26.401261292212656],[-57.74937681654266,-26.382010408497884],[-57.72357698083438,-26.354320856698447],[-57.71459613380185,-26.376297917602013],[-57.69679126259796,-26.37562995825729],[-57.679428905488685,-26.35368543012762],[-57.693789330258184,-26.34158397599942],[-57.67444059691874,-26.323563445495605],[-57.680156495679185,-26.30659850825721],[-57.656324056198976,-26.29622965608212],[-57.64426450614805,-26.264778661534564],[-57.62929851818385,-26.268655347249407],[-57.581054928378585,-26.185518324863736],[-57.53119535106054,-26.179281822780002],[-57.49708294258996,-26.148821202843923],[-57.49760714710087,-26.16191662000658],[-57.47766512462459,-26.16547404004335],[-57.47570029389448,-26.124084857186695],[-57.49011570026129,-26.116632367305396],[-57.46813594391492,-26.11336955968975],[-57.49961872828463,-26.025116967743948],[-57.41511499807631,-25.883624404605413],[-57.42300356770175,-25.85406478239092],[-57.45255093729119,-25.82956162510728],[-57.46820928616702,-25.756149130437137],[-57.43618786486403,-25.70155793174909],[-57.416626014133215,-25.69451576219937],[-57.413300378114286,-25.635024988933],[-57.381196038157405,-25.636977731489633],[-57.34303213313862,-25.60961141397842],[-57.318747907444106,-25.44718767100154],[-57.29098947325217,-25.451363188513646],[-57.238584158803064,-25.429391645408298],[-57.21790971845235,-25.40267980796696],[-57.19369756462453,-25.405445436678423]]]}},{"type":"Feature","properties":{"department_id":"PY10","department":"ALTO PARANÁ"},"geometry":{"type":"Polygon","coordinates":[[[-55.154518460918894,-24.476246073002365],[-55.12246996320564,-24.493831383868784],[-55.102953966326375,-24.543704082758037],[-54.9935475203046,-24.5494963371149],[-54.970857477516034,-24.56849417164815],[-54.914158519576674,-24.573868921591483],[-54.90397777904527,-24.612501398543433],[-54.888723164503496,-24.616638519823212],[-54.89890757894071,-24.629243414968464],[-54.833368665778316,-24.656393141584413],[-54.84045717809793,-24.673413505332324],[-54.82305848714658,-24.662455308899748],[-54.797744984890485,-24.675401185297833],[-54.77239712300742,-24.648422657716477],[-54.750422877494536,-24.66087209830308],[-54.728437905595285,-24.65211217736876],[-54.69979435388842,-24.690412560143663],[-54.65534425667654,-24.667130425532594],[-54.6424875526396,-24.685808144488778],[-54.655710968755116,-24.714177582397227],[-54.559952370897825,-24.689374827309422],[-54.504421145039366,-24.698762750496343],[-54.49909818970126,-24.719592801773874],[-54.47891572601333,-24.706429706918435],[-54.47216318178644,-24.723400053224957],[-54.45157319531019,-24.72181581171116],[-54.41496294930485,-24.679504885752394],[-54.34580722267436,-24.70766014222319],[-54.398872955323945,-24.805106615953502],[-54.45665513396373,-25.063392233440943],[-54.41701718752997,-25.16100385691518],[-54.46949069305008,-25.214301875935256],[-54.487286014029,-25.29163587776955],[-54.511641289504865,-25.328357669123317],[-54.584475433283565,-25.397266343467],[-54.61923639350716,-25.45288975684628],[-54.59689114606855,-25.491493055541174],[-54.596912897039886,-25.623070071066593],[-54.58126262528472,-25.661304378957976],[-54.64470667627032,-25.661012480985693],[-54.65763932257689,-25.685055720860287],[-54.62885607595022,-25.771157112304625],[-54.58712465560188,-25.83204009060927],[-54.622518102111485,-25.915542661653127],[-54.61067139233006,-25.97743560170676],[-54.67830345232093,-25.99296847367745],[-54.64317918531828,-26.09229428904714],[-54.67257895299872,-26.156259005060182],[-54.617422239886494,-26.211251894597435],[-54.67242334394535,-26.254018613722167],[-54.69316783859914,-26.22807470005553],[-54.70561301628131,-26.229578561250836],[-54.699127313821776,-26.255973350996967],[-54.713479783433144,-26.23607499497034],[-54.72406496404802,-26.25684023855435],[-54.74052176575978,-26.234782455880715],[-54.74371513771926,-26.25044112058186],[-54.76265741032572,-26.249422578693075],[-54.803343657517146,-26.193284094621387],[-54.81519725039125,-26.19001152887464],[-54.808199451987306,-26.207626280119904],[-54.824216927510484,-26.211975071811548],[-54.836856078683,-26.180564417130995],[-54.85541770649404,-26.188875186026465],[-54.87439916995382,-26.17419667643395],[-54.87069565388613,-26.190632052082034],[-54.898277222608684,-26.199729682154253],[-54.91179121655862,-26.181910809070622],[-54.919577706598204,-26.20211090447349],[-54.90282653556961,-26.20785171368372],[-54.91748941535694,-26.21259589125682],[-54.91570849381834,-26.229213869931915],[-54.95108548500222,-26.209572084199632],[-54.950119231044305,-26.23889291978401],[-54.96926005275477,-26.22691639586572],[-54.98381627346257,-26.24290358232875],[-54.99097160851557,-26.22336291498595],[-55.01122984071515,-26.236123475981902],[-55.036863995508924,-26.22226863721782],[-55.035449594666076,-26.23790996783644],[-55.0593615960859,-26.23067539498019],[-55.06807362189529,-26.24321315017451],[-55.10250076364664,-26.214660802632576],[-55.14301937067036,-26.206343812086534],[-55.230367528501716,-26.244792934989206],[-55.26095776068495,-26.23553618489645],[-55.30388064073308,-26.162721537700854],[-55.29657745258071,-26.14882818700597],[-55.322635995688046,-26.13398174454638],[-55.299402454249396,-26.087918543082903],[-55.28152993629553,-26.09616073293513],[-55.25058714527746,-26.078370796996268],[-55.25614630328294,-26.037779575972223],[-55.283039635254354,-26.05264925286859],[-55.30519716191457,-26.042380635096233],[-55.34716870233873,-25.989767242315413],[-55.364735532755354,-26.005801309008096],[-55.38157475750631,-25.999784310516198],[-55.37610625807276,-26.017602165297586],[-55.39264748005609,-26.035332273700632],[-55.409657717252585,-25.99850252454994],[-55.43123569347147,-26.009819806879534],[-55.45859705835282,-25.98951263042846],[-55.506749430784254,-25.985399967176196],[-55.5506397418801,-25.996946403476876],[-55.515844195966814,-25.90183064113614],[-55.5268003419681,-25.888937355749956],[-55.513143347931376,-25.861203541615655],[-55.53002420390773,-25.84589213936708],[-55.521865033956146,-25.80410353720524],[-55.46577174422251,-25.717281160284603],[-55.477073756831764,-25.68040653628803],[-55.45291926478694,-25.65411953646262],[-55.427326334433914,-25.659831720388308],[-55.40002246836716,-25.622898978480894],[-55.426096428365994,-25.557100837135586],[-55.378435707512146,-25.361913937970918],[-55.328459532252396,-25.335260142871267],[-55.289862275472295,-25.251734423588882],[-55.22511591060214,-25.26280022481267],[-55.145009034832405,-25.325307017293323],[-55.050670524804936,-25.314637309723324],[-55.008410950594005,-25.38627166720167],[-54.9710211728797,-25.37982077382717],[-54.960671126741516,-25.361208400772743],[-54.933436496598866,-25.37753274505015],[-54.92324621209563,-25.366457696798065],[-54.95051259151774,-25.346624112044672],[-54.94158736540535,-25.322943726689044],[-54.96444087650995,-25.316662488063194],[-54.954814695668446,-25.304401365077304],[-54.977168166300466,-25.278490502646903],[-54.965133076347485,-25.249695443925372],[-54.98021046758301,-25.26369603437582],[-54.984112570998235,-25.24685949418233],[-55.00332308997079,-25.25196818627409],[-55.028435325637716,-25.22569300137159],[-55.009758820163114,-25.194072566718532],[-55.053798579723406,-25.17411663076006],[-55.09247577993547,-25.127843352484373],[-55.156490953909255,-25.10056327279591],[-55.19326725185293,-25.042969724145973],[-55.22129890957169,-25.051586943098773],[-55.23119025657281,-25.02903512597481],[-55.28122654592421,-25.038564980698034],[-55.2730489753493,-25.023343050561667],[-55.2986989795882,-25.021882850899594],[-55.31113443255921,-25.010982778689343],[-55.30737259355624,-24.98345710953958],[-55.332831492949865,-24.968224304407908],[-55.3289114381142,-24.9262422019668],[-55.3453378693552,-24.918155143898172],[-55.325053431329046,-24.88355183047313],[-55.35008364437421,-24.846803482571026],[-55.301012277371576,-24.715972924898026],[-55.317816296713545,-24.692763958038014],[-55.29217818239151,-24.644896815676812],[-55.30199612276979,-24.566925621942918],[-55.251162583492935,-24.51515036353023],[-55.15763056372475,-24.528464904377415],[-55.138767141898064,-24.496782195642467],[-55.154518460918894,-24.476246073002365]]]}},{"type":"Feature","properties":{"department_id":"PY11","department":"CENTRAL"},"geometry":{"type":"Polygon","coordinates":[[[-57.50046093500784,-25.096462959318625],[-57.42640998077994,-25.13311547948947],[-57.43414613831087,-25.144458224052716],[-57.3965230297525,-25.168075298636165],[-57.39594435081715,-25.192541106756664],[-57.33350377552965,-25.237288807849815],[-57.34329888896725,-25.294014963836545],[-57.29626199812744,-25.35349053055507],[-57.23373189611622,-25.366862826274964],[-57.205562965861624,-25.35270873057796],[-57.19300942298823,-25.398746069563853],[-57.29098947325217,-25.451363188513646],[-57.318747907444106,-25.44718767100154],[-57.34303213313862,-25.60961141397842],[-57.39113503220953,-25.6399803944289],[-57.406308533879596,-25.628389517311238],[-57.421512580609296,-25.64705216404182],[-57.416626014133215,-25.69451576219937],[-57.43618786486403,-25.70155793174909],[-57.46820928616702,-25.756149130437137],[-57.45255093729119,-25.82956162510728],[-57.42300356770175,-25.85406478239092],[-57.416099342406184,-25.889251187874066],[-57.49961872828463,-26.025116967743948],[-57.49836840875139,-25.976660782886988],[-57.534438291250346,-25.98549557230339],[-57.5181777247798,-25.977965382568428],[-57.53320492221953,-25.96554364027153],[-57.516751886133626,-25.95416246565954],[-57.54267903849201,-25.947691879833638],[-57.586605539483465,-25.894925081800316],[-57.60431130607776,-25.90556559446702],[-57.61478037256099,-25.895420467387268],[-57.60067936046968,-25.866517952807126],[-57.61713905748224,-25.87962871542944],[-57.642397395372285,-25.85404723103544],[-57.66671103547824,-25.869793715078874],[-57.69266554468354,-25.84633480555825],[-57.740696974073174,-25.837719414409136],[-57.75354254801025,-25.791330479839573],[-57.73991104071025,-25.780488122532844],[-57.75251094743569,-25.76719054175101],[-57.76045423794309,-25.79659489500266],[-57.79346658965695,-25.7969992683198],[-57.78722854442441,-25.829752721968195],[-57.80832857457222,-25.839976329478546],[-57.79616725915734,-25.814743387550102],[-57.82676275054618,-25.759103547189802],[-57.77939388556496,-25.760272332268656],[-57.733798537894344,-25.724738080442936],[-57.729205161570775,-25.709252536732045],[-57.762178832282245,-25.70704767134622],[-57.76492938248362,-25.687786393222826],[-57.73331879785696,-25.646407094917482],[-57.674444484759995,-25.65931014308376],[-57.67447752792828,-25.59852503317464],[-57.61901705909077,-25.61654138716394],[-57.604666806297246,-25.56848935494163],[-57.57694288129415,-25.56509307010622],[-57.57980459041769,-25.511365966191683],[-57.557681764509695,-25.44816791311995],[-57.60529742545157,-25.39545488778652],[-57.64207956414277,-25.38038655199735],[-57.63397157636036,-25.338016290449698],[-57.614625083002274,-25.3125222972896],[-57.58613474018365,-25.34144345689731],[-57.552078181309845,-25.308936410748032],[-57.52723999351469,-25.244360058282926],[-57.57455600765683,-25.22393691519556],[-57.53897002290979,-25.17416339676908],[-57.52725660050763,-25.11176751664124],[-57.50046093500784,-25.096462959318625]]]}},{"type":"Feature","properties":{"department_id":"PY12","department":"ÑEEMBUCÚ"},"geometry":{"type":"Polygon","coordinates":[[[-57.752332763650095,-25.77021639936499],[-57.73991104071025,-25.780488122532844],[-57.75352797715231,-25.791145447867873],[-57.738729748395436,-25.81021201417926],[-57.74682718506818,-25.833067623394616],[-57.71465529370247,-25.851513981553257],[-57.69266554468354,-25.84633480555825],[-57.66671103547824,-25.869793715078874],[-57.642397395372285,-25.85404723103544],[-57.61713905748224,-25.87962871542944],[-57.60067936046968,-25.866517952807126],[-57.61561612930259,-25.8924450978296],[-57.60567235932858,-25.905375139789214],[-57.586605539483465,-25.894925081800316],[-57.54267903849201,-25.947691879833638],[-57.516751886133626,-25.95416246565954],[-57.53320492221953,-25.96554364027153],[-57.5181777247798,-25.977965382568428],[-57.53423578782841,-25.98625210062187],[-57.49765338041032,-25.977523559575125],[-57.49961872828463,-26.025116967743948],[-57.46813594391492,-26.11336955968975],[-57.474643058920684,-26.112070048471118],[-57.49008452376764,-26.11650154537273],[-57.472385017288964,-26.138136644573166],[-57.48160571504807,-26.16967766856906],[-57.49708294258996,-26.148821202843923],[-57.53119535106054,-26.179281822780002],[-57.581054928378585,-26.185518324863736],[-57.62929851818385,-26.268655347249407],[-57.64426450614805,-26.264778661534564],[-57.656324056198976,-26.29622965608212],[-57.680156495679185,-26.30659850825721],[-57.67444059691874,-26.323563445495605],[-57.693789330258184,-26.34158397599942],[-57.679428905488685,-26.35368543012762],[-57.69679126259796,-26.37562995825729],[-57.71459613380185,-26.376297917602013],[-57.72357698083438,-26.354320856698447],[-57.74937681654266,-26.382010408497884],[-57.64009486673546,-26.790442197639845],[-57.42868052604907,-27.060105700883422],[-57.182093604926244,-27.108967386431274],[-57.33212381478318,-27.398714032139097],[-57.36125926173804,-27.421965244492167],[-57.49738413116644,-27.443488102796735],[-57.68160584557004,-27.341153997031146],[-57.82180904390654,-27.33096776471813],[-57.87131803299432,-27.277278871418446],[-57.909038906642756,-27.298793713723594],[-58.02584332639752,-27.258094150390026],[-58.172200079323815,-27.27711267436899],[-58.26444526306217,-27.255830831209064],[-58.29247814076585,-27.279266660344973],[-58.41567090132648,-27.290230027755683],[-58.48090997738901,-27.27405104121923],[-58.61019150880506,-27.306219282698233],[-58.596250644630004,-27.2260766745041],[-58.661327643641464,-27.184557176460537],[-58.64921194631198,-27.129635736942962],[-58.55555543608532,-27.10659904055124],[-58.552981626105066,-27.03524880731623],[-58.52546224268546,-27.03996586973583],[-58.508983079366466,-27.062488630914586],[-58.50291474997397,-27.03468434384906],[-58.518050207959654,-27.00304455654488],[-58.46871911818236,-26.990628105567097],[-58.49840290000256,-26.92487165757216],[-58.46363412799815,-26.93033774057421],[-58.3858609565724,-26.893049745846746],[-58.36944382631583,-26.863368995643636],[-58.32256950674838,-26.867298284931444],[-58.32190985463518,-26.84769680134345],[-58.357660985736864,-26.81615798066899],[-58.283873441008154,-26.795866937974115],[-58.292940086899286,-26.758180933075696],[-58.24857340202755,-26.75252207655037],[-58.25927291881176,-26.645961801948918],[-58.1911287209652,-26.64511060937969],[-58.20919971320896,-26.618031886202868],[-58.19260511314687,-26.593665768770784],[-58.19817405266493,-26.567006845319433],[-58.225136107402136,-26.533061989985733],[-58.207787552085726,-26.495691976139483],[-58.2310381225328,-26.470115939500886],[-58.18035854586118,-26.45416404728538],[-58.22170407658659,-26.39787348174814],[-58.15943234762046,-26.345091360553678],[-58.16381057700217,-26.265004903860326],[-58.104682217960296,-26.229453060440648],[-58.159219176262646,-26.181616402334654],[-58.11571461340398,-26.184252769073883],[-58.11506254836371,-26.148154636608382],[-58.08950851339573,-26.115075851115414],[-58.01705150075526,-26.103863278056853],[-57.947926158737374,-26.06587897636832],[-57.92019691277869,-26.032396673979722],[-57.85489821994544,-26.005187704404435],[-57.85627431902644,-25.985888574087216],[-57.89468066993179,-25.958566630942407],[-57.88201621860326,-25.934029728226896],[-57.84066822264796,-25.911604113181056],[-57.86355460926555,-25.864494102630612],[-57.78969307792453,-25.83383995050879],[-57.79346658965695,-25.7969992683198],[-57.76045423794309,-25.79659489500266],[-57.752332763650095,-25.77021639936499]]]}},{"type":"Feature","properties":{"department_id":"PY13","department":"AMAMBAY"},"geometry":{"type":"Polygon","coordinates":[[[-56.39318141372304,-22.075699790435714],[-56.36468377729275,-22.169640367734015],[-56.31685301371127,-22.21822543156256],[-56.23820220211592,-22.2365444683903],[-56.209961850306435,-22.277969106658272],[-56.19354789332137,-22.271189986558152],[-56.1657072575741,-22.288389304066673],[-56.11769014470328,-22.270393628897626],[-56.01008703686811,-22.294633069512496],[-55.98307747638029,-22.278644358676573],[-55.96952043962992,-22.292090624319275],[-55.91641304067162,-22.27781117984238],[-55.843135110733456,-22.28709577805921],[-55.79110936001627,-22.38847166644931],[-55.74670772258565,-22.384105972338734],[-55.73390933321255,-22.441543889974195],[-55.75285188834128,-22.474828390024197],[-55.7236044449717,-22.55177094484138],[-55.631334221205336,-22.620606777741962],[-55.614424443458134,-22.65508686077258],[-55.61805999863602,-22.767513945227783],[-55.65231416632669,-22.792306167009627],[-55.665856637628124,-22.852473333968607],[-55.64760938886192,-22.949894499352833],[-55.62197705460049,-22.984551944840796],[-55.639415221480675,-23.025928389200615],[-55.6111869438151,-23.047681917395572],[-55.617026610921684,-23.08173022268845],[-55.59978266722118,-23.10417597221273],[-55.596811387526714,-23.152602611366294],[-55.573476832883244,-23.14329491796139],[-55.54190286148654,-23.156119889993313],[-55.54309847250375,-23.180811221952528],[-55.52329241667572,-23.19778772233834],[-55.546231055507945,-23.220141778684148],[-55.522675554618466,-23.259717083266644],[-55.55318272159437,-23.279474833423567],[-55.5560132220189,-23.316297916493593],[-55.504478220844135,-23.378474555967003],[-55.54479372193649,-23.44931572271474],[-55.545076611138605,-23.47720677765395],[-55.562204832688224,-23.47615544543187],[-55.544368548385016,-23.53931728734509],[-55.59967134604703,-23.652593951454296],[-55.66131324184284,-23.677043628378772],[-55.71656052704996,-23.663224037845247],[-55.76115609959521,-23.69854684794968],[-55.769927142817515,-23.736118866431525],[-55.8405378272863,-23.76407011520705],[-55.85975101756399,-23.799575311645874],[-55.930941713170384,-23.830927374665926],[-55.95116721197565,-23.812438918188942],[-55.99179542083187,-23.827756423104777],[-56.02767454047003,-23.821522071694993],[-55.9838106478615,-23.77602778788326],[-55.97841127293514,-23.66877669620511],[-56.04899154581601,-23.57554137271514],[-56.06091022007901,-23.604190902979298],[-56.114045153247154,-23.60587605830702],[-56.135743544599286,-23.56528630835522],[-56.135331321381855,-23.512008042974134],[-56.16835331823357,-23.4563822185792],[-56.15428140819182,-23.42351945001067],[-56.16389543083284,-23.309602292015],[-56.21417794414884,-23.303079872335356],[-56.23152597316731,-23.329306508507756],[-56.241111521244015,-23.31357193831654],[-56.31422301789539,-23.34539704595882],[-56.311682059485214,-23.32684462805608],[-56.28756409684007,-23.317844226298504],[-56.299475902094336,-23.296508659078356],[-56.28566053161871,-23.271484652360378],[-56.271344191040086,-23.273017620922335],[-56.27559497131026,-23.258061175427883],[-56.2395130248787,-23.240832495634848],[-56.2387946789818,-23.226598113509937],[-56.201078959103306,-23.226587087768728],[-56.218659060784816,-23.191321759536713],[-56.20761155566788,-23.161783970409825],[-56.18243616133173,-23.16054431327075],[-56.17959345160767,-23.11850967825704],[-56.14174433402678,-23.121167126558454],[-56.152046018835,-23.098144463398732],[-56.12578051939311,-23.069349730354908],[-56.29438733299385,-22.68764065857898],[-56.32804890104245,-22.687636443845797],[-56.36385213920147,-22.720090645680905],[-56.385180365044775,-22.71353000797474],[-56.39806469789216,-22.74917964593444],[-56.41182410949523,-22.743675360142838],[-56.40887560118519,-22.75583697429893],[-56.44271067875165,-22.77791884527858],[-56.45236655691145,-22.76691795599746],[-56.504770589570235,-22.783037696354306],[-56.52601159302547,-22.80976446827552],[-56.538560440041834,-22.879354085444973],[-56.55949471508569,-22.899517246058302],[-56.587902476186585,-22.89837845215628],[-56.59676733995737,-22.913450829809626],[-56.664566781124094,-22.88112415422088],[-56.680296064221174,-22.900321065428834],[-56.713025305927694,-22.89709534642688],[-56.71319057116412,-22.84335074457911],[-56.67726671082255,-22.84357106064459],[-56.64907911557077,-22.801975267588585],[-56.669750362536554,-22.76646322212264],[-56.66559131756991,-22.722767937456915],[-56.69601214740189,-22.709264597615867],[-56.694170420938555,-22.682218701444693],[-56.72678373586143,-22.6514816130643],[-56.715341188742634,-22.622065780787096],[-56.73500556866188,-22.524718953551663],[-56.71047528151029,-22.45057578168064],[-56.64865837872008,-22.422149654983418],[-56.64488971515344,-22.384519336950962],[-56.60942574916505,-22.365285521025772],[-56.82606729207415,-22.29592639205942],[-56.801616555314695,-22.28163540243289],[-56.79329654070001,-22.242407406316914],[-56.77669711621342,-22.26050814278127],[-56.74705377068869,-22.23580125293614],[-56.720479226368575,-22.264888571933298],[-56.695332960092564,-22.23087476217485],[-56.70353503023288,-22.216999784348793],[-56.68289338251868,-22.221482502410876],[-56.67953662120576,-22.246351616713604],[-56.636829977332205,-22.263259586908916],[-56.6424326650982,-22.244390617848357],[-56.55666787707775,-22.19652433848465],[-56.55707624903356,-22.169147392820413],[-56.51956662427772,-22.140777767123513],[-56.52536011452464,-22.120892379065275],[-56.50756302092989,-22.096153708446668],[-56.39318141372304,-22.075699790435714]]]}},{"type":"Feature","properties":{"department_id":"PY14","department":"CANINDEYÚ"},"geometry":{"type":"Polygon","coordinates":[[[-55.5434209745752,-23.523665237379547],[-55.52659047111922,-23.567340999428325],[-55.53996305539159,-23.62511488887469],[-55.48409808195395,-23.64021952830671],[-55.46355422167026,-23.711954111429815],[-55.44256774912701,-23.722932472374495],[-55.44725388812332,-23.760215528276433],[-55.4301866944091,-23.790131055493372],[-55.45393905414878,-23.81922914018482],[-55.435678971881124,-23.872306499745036],[-55.44637963755449,-23.916833862337764],[-55.4028796666629,-23.974155222335817],[-55.38761599992676,-23.9674917226985],[-55.34122427836025,-23.994570611844782],[-55.3177254724354,-23.962891334150086],[-55.30417761118451,-23.965023277638412],[-55.22902372240465,-24.013978167095388],[-55.19842036048198,-23.986693500363558],[-55.13816744392483,-23.9869564437778],[-55.10719144434854,-23.961939277752368],[-55.06244466708662,-23.99334433313385],[-54.99868436037258,-23.95763866787251],[-54.9412467226755,-23.96856555668228],[-54.92535791635153,-23.96035300040609],[-54.926967666948705,-23.924860471887758],[-54.890969832035154,-23.900266639670868],[-54.849980555471205,-23.908288833576567],[-54.83637077678744,-23.884021388666724],[-54.81437772175252,-23.89050405591187],[-54.759219498829,-23.856778195294485],[-54.70523608212018,-23.864650888666187],[-54.66953299982557,-23.812554723071514],[-54.60975411121917,-23.851448806009405],[-54.58422255432064,-23.837085028611774],[-54.56444933329673,-23.854264666845285],[-54.56859611019814,-23.874523222401404],[-54.5389052777607,-23.86916477759407],[-54.49297163738877,-23.885177194753386],[-54.487216667073895,-23.903734888567744],[-54.439933776811216,-23.904415834037355],[-54.38359749850387,-23.986775723246904],[-54.30113916144436,-24.01532017511601],[-54.280185013860795,-24.067296988776658],[-54.33523047681665,-24.11440019933844],[-54.346117167455844,-24.152533608268016],[-54.32795263582332,-24.237349375010723],[-54.2788107554817,-24.293720342456208],[-54.25892390951349,-24.354642576621814],[-54.335034340734516,-24.49917765208172],[-54.31651233728344,-24.612468870939978],[-54.34580722267436,-24.70766014222319],[-54.41496294930485,-24.679504885752394],[-54.45157319531019,-24.72181581171116],[-54.47216318178644,-24.723400053224957],[-54.47891572601333,-24.706429706918435],[-54.49909818970126,-24.719592801773874],[-54.504421145039366,-24.698762750496343],[-54.559952370897825,-24.689374827309422],[-54.655710968755116,-24.714177582397227],[-54.6424875526396,-24.685808144488778],[-54.65534425667654,-24.667130425532594],[-54.69979435388842,-24.690412560143663],[-54.728437905595285,-24.65211217736876],[-54.750422877494536,-24.66087209830308],[-54.77239712300742,-24.648422657716477],[-54.797744984890485,-24.675401185297833],[-54.82305848714658,-24.662455308899748],[-54.84045717809793,-24.673413505332324],[-54.833368665778316,-24.656393141584413],[-54.89890757894071,-24.629243414968464],[-54.888723164503496,-24.616638519823212],[-54.90397777904527,-24.612501398543433],[-54.914158519576674,-24.573868921591483],[-54.970857477516034,-24.56849417164815],[-54.9935475203046,-24.5494963371149],[-55.09451673269258,-24.54681626922737],[-55.11300727026069,-24.53640891073077],[-55.11316000070356,-24.506752406772495],[-55.13403626930022,-24.47988122935412],[-55.252525542392455,-24.467506951494848],[-55.28097868687555,-24.50076020944945],[-55.296791773513,-24.487561643013937],[-55.312670072143504,-24.51486728375825],[-55.34273356943157,-24.49364702286925],[-55.36976794874133,-24.53996418589242],[-55.39998730149393,-24.548949794093126],[-55.40189972170483,-24.535048022977172],[-55.43783839587585,-24.55125540510448],[-55.46047902828676,-24.54142731599234],[-55.484022022203895,-24.57158374571691],[-55.49370601618368,-24.533788458812115],[-55.54393161449213,-24.51353930485301],[-55.56419007204513,-24.58145362014124],[-55.609591662587626,-24.624659256263296],[-55.60472089730452,-24.640222840311136],[-55.66846548048249,-24.65318902607239],[-55.66226939228966,-24.674936871151413],[-55.70017394574253,-24.671635894240488],[-55.736123522468056,-24.736526391543826],[-55.70199130680426,-24.783969725653336],[-55.78252954537512,-24.782086361008474],[-55.83961893764166,-24.76187876911489],[-55.867035792576274,-24.684857259096752],[-55.91389582198728,-24.66044665855272],[-55.942781616261485,-24.62190274766334],[-55.94048116741274,-24.570570385536165],[-55.99087989505739,-24.528809768438013],[-56.02583192784417,-24.44091191617162],[-56.05869760476396,-24.40243147542072],[-56.12259409402555,-24.3856981471458],[-56.12649270085198,-24.30121961975305],[-56.15624597416404,-24.285366033548964],[-56.171772174686176,-24.243735956202798],[-56.14866847551389,-24.199980878537545],[-56.160563090098016,-24.138354414449207],[-56.14516046993924,-24.114894103183108],[-56.10576258262411,-24.10688870712097],[-56.07050998898068,-24.05534541501178],[-56.00820506166914,-24.020147254047867],[-55.97710721814805,-24.02861380971864],[-56.02721421424578,-23.82232118267487],[-55.89601973851878,-23.820642856390165],[-55.85972177062223,-23.7995525172245],[-55.8405378272863,-23.76407011520705],[-55.769927142817515,-23.736118866431525],[-55.76115609959521,-23.69854684794968],[-55.71656052704996,-23.663224037845247],[-55.66131324184284,-23.677043628378772],[-55.59967134604703,-23.652593951454296],[-55.5434209745752,-23.523665237379547]]]}},{"type":"Feature","properties":{"department_id":"PY15","department":"PRESIDENTE HAYES"},"geometry":{"type":"Polygon","coordinates":[[[-59.367744489194386,-22.07622397154241],[-59.2015950074346,-22.147865511870982],[-58.985298888058914,-22.159619162402237],[-58.47356174101958,-22.156233647706717],[-58.39674748847449,-22.178969070571867],[-58.2668799246895,-22.179486952891295],[-58.2374473699702,-22.19838926873017],[-58.24554948702355,-22.24046286065722],[-58.20273093660579,-22.282506178909504],[-58.18556505381528,-22.34943806426646],[-57.85573001734591,-22.39771260583279],[-57.8654385585146,-22.417255364940306],[-57.83960111152894,-22.447057356399206],[-57.827744308121225,-22.570730698970824],[-57.77991709560203,-22.62261784794122],[-57.77228071168314,-22.65414478665209],[-57.909427908563295,-22.65912505369823],[-57.93744493015038,-22.688966567683714],[-57.93813804189402,-22.716318730668842],[-57.92578859941481,-22.743272674109875],[-57.885054123682316,-22.76183592774164],[-57.875318146962556,-22.802980493274653],[-57.81021515922348,-22.81903303721045],[-57.789506993743494,-22.877517362424808],[-57.821374574120256,-22.914973544318777],[-57.765954108764696,-22.971236659034847],[-57.78839488028714,-23.03007502132664],[-57.7341006133867,-23.05767424700456],[-57.71090153319675,-23.09388468075149],[-57.63191535012521,-23.09447799712228],[-57.642671584980015,-23.137169321713728],[-57.62305753079945,-23.178352242922],[-57.549047237877076,-23.212022485526877],[-57.49321446631394,-23.27969253511393],[-57.48914269835078,-23.317923382867537],[-57.522436884827734,-23.34721772186992],[-57.450780868401246,-23.446799792840793],[-57.44703254245224,-23.47758327643295],[-57.47351675182598,-23.536198206842943],[-57.41909558386646,-23.65373966844855],[-57.34319022426974,-23.680226471592917],[-57.256660680028894,-23.735966165470494],[-57.25574185732084,-23.761376211606503],[-57.27804204365971,-23.77159021434814],[-57.252724198347295,-23.787086795662308],[-57.25148020376049,-23.811902843663816],[-57.27609424725829,-23.84306384629538],[-57.253541276267285,-23.875197127644658],[-57.30419173230474,-23.90779400550374],[-57.28630936497764,-23.93383058957586],[-57.22976286527596,-23.95175566912267],[-57.240834584813406,-23.98397699801125],[-57.215403499378205,-23.9875554599891],[-57.211330266716466,-24.004546274630382],[-57.26407739013994,-24.041686174692426],[-57.20751324967918,-24.085628989196465],[-57.27984551732727,-24.143644203000306],[-57.20626502527339,-24.230843657887572],[-57.204374274620186,-24.28478498286726],[-57.164041647641696,-24.355937376179874],[-57.181411447821844,-24.393309305581926],[-57.14930819054655,-24.448980043890515],[-57.19441918112744,-24.484676246507235],[-57.16153971762449,-24.52828372851377],[-57.194797106556784,-24.569148577697234],[-57.15744118901901,-24.618256191441294],[-57.175974689986,-24.66508654674469],[-57.169560321184555,-24.689627873387824],[-57.23034624931668,-24.699120215527785],[-57.23206552917561,-24.75679191338607],[-57.30013299197895,-24.83728854491876],[-57.25399712934444,-24.86326204113807],[-57.259756763803495,-24.885631409662604],[-57.2196700364248,-24.90472899158123],[-57.219335924151395,-24.926652603562353],[-57.238986059831255,-24.93602831511508],[-57.29579603690273,-24.9241453037695],[-57.329380994053885,-25.00133546505348],[-57.379889224825725,-25.064499254956644],[-57.401882527668995,-25.062292009675605],[-57.45697674172249,-25.104586499171692],[-57.50506192154804,-25.096677649964864],[-57.52725660050763,-25.11176751664124],[-57.53897002290979,-25.17416339676908],[-57.574910272748404,-25.224459308195883],[-57.67094044925291,-25.28354675140623],[-57.66346677672841,-25.35384125545566],[-57.702923081533854,-25.32208109962824],[-57.694417249813114,-25.28596543765636],[-57.72251000778367,-25.277456474127117],[-57.7228411748879,-25.25281488444007],[-57.740887449215855,-25.253415636799396],[-57.73560315050418,-25.23471620545044],[-57.75922055785078,-25.219989725571693],[-57.75320339216525,-25.17680462390715],[-57.8367777081145,-25.131503457411867],[-57.861356568861815,-25.081425028754904],[-57.99085400293877,-25.081763911632663],[-58.00594238222769,-25.034941913352874],[-58.06879656994758,-25.045436779692846],[-58.085630796340716,-25.012311467602103],[-58.13730107779464,-25.011587741608036],[-58.14994216068087,-24.97504529752064],[-58.193835491246276,-24.96796132394348],[-58.22496852558358,-24.92691849300686],[-58.25550537619618,-24.931849160144285],[-58.333649267371136,-25.00011825296165],[-58.40867717189996,-24.92283423578057],[-58.42871804928539,-24.923566230734288],[-58.43006521700055,-24.89322138794963],[-58.47393743162629,-24.860942319230354],[-58.52645218694989,-24.850839290424535],[-58.57367781044915,-24.821178752169985],[-58.67331390334873,-24.831549193580663],[-58.68863857225876,-24.810219594961772],[-58.70838338440324,-24.810496656853157],[-58.726760888302344,-24.77432486307505],[-58.80766111690422,-24.7724539390239],[-58.972669893983166,-24.66232387455483],[-59.02370799445477,-24.660162858889393],[-59.06429767018656,-24.627631745696824],[-59.128057561193586,-24.617988106246273],[-59.18580084297448,-24.56352043153496],[-59.241087456409204,-24.546290338226843],[-59.25736675383734,-24.51970953345706],[-59.35067276904095,-24.482955016236122],[-59.37309817497344,-24.422988825890272],[-59.42085242485492,-24.409223630916802],[-59.47524069033087,-24.33305339237331],[-59.99842168646611,-24.03162189439785],[-60.067497993926516,-24.009020571592114],[-60.15296430131928,-24.03934268553334],[-60.261442271029225,-24.049313224199857],[-60.36876850050665,-24.033638771328384],[-60.38446996863233,-24.00811346295644],[-60.441642602577396,-23.97562459950713],[-60.58597430485643,-23.956433630726973],[-60.58920720902649,-23.91558324482004],[-60.627872226048275,-23.924477520459323],[-60.67745129422481,-23.8956918677844],[-60.69257745414604,-23.903235805459214],[-60.75505138672487,-23.87835628596289],[-60.773319737711844,-23.850247332853684],[-60.785390506728255,-23.789128884839265],[-60.6929257045438,-23.733395123905513],[-60.67156892225457,-23.697828914736533],[-60.675205292662206,-23.59219021098618],[-60.60166480320583,-23.611014874030992],[-60.5713279346945,-23.57229312781151],[-60.20272336178577,-23.532854707870147],[-60.0927335150273,-23.492820598991052],[-59.97898825442368,-23.172979024479904],[-59.992280843759865,-23.15746543922979],[-59.95842587875654,-23.06730154767234],[-59.976196186917335,-22.83005589889982],[-59.96637109223088,-22.802297493549077],[-59.94487847581228,-22.796892974491016],[-59.948822180672025,-22.782388654672484],[-59.84375802770897,-22.634372381432847],[-59.7517698494254,-22.525403872952147],[-59.74718148622783,-22.466982756913726],[-59.712166891660935,-22.46700910440778],[-59.71180096759096,-22.427974092628848],[-59.62623687940033,-22.427976147414345],[-59.63934287956688,-22.368922577339493],[-59.61439194500914,-22.335894619656663],[-59.33659518801783,-22.17040343929453],[-59.367744489194386,-22.07622397154241]]]}},{"type":"Feature","properties":{"department_id":"PY16","department":"BOQUERÓN"},"geometry":{"type":"Polygon","coordinates":[[[-61.76866145838102,-20.109639076887035],[-61.71858953884565,-20.096644499976527],[-61.62005247242016,-20.170064185207885],[-61.51439016031534,-20.18263089209711],[-59.92730010245368,-20.632887294300332],[-59.87951338669474,-20.630417493102996],[-59.8868963941238,-20.791956842175633],[-59.83831042102225,-20.880700083714657],[-59.809842280016724,-20.98746116589743],[-59.76832307233148,-21.03745563510984],[-59.7508703585922,-21.182932764043375],[-59.76698528538164,-21.201298055257926],[-59.715013290647406,-21.34586055140524],[-59.8724020182084,-21.447163107831905],[-59.9474218379252,-21.926573279452114],[-59.95306776214774,-22.05450411796255],[-59.41289673093661,-22.056820132015357],[-59.367744489194386,-22.07622397154241],[-59.33659518801783,-22.17040343929453],[-59.61439194500914,-22.335894619656663],[-59.63934287956688,-22.368922577339493],[-59.62623687940033,-22.427976147414345],[-59.71180096759096,-22.427974092628848],[-59.712166891660935,-22.46700910440778],[-59.74718148622783,-22.466982756913726],[-59.7517698494254,-22.525403872952147],[-59.84375802770897,-22.634372381432847],[-59.948822180672025,-22.782388654672484],[-59.94487847581228,-22.796892974491016],[-59.96637109223088,-22.802297493549077],[-59.976196186917335,-22.83005589889982],[-59.95842587875654,-23.06730154767234],[-59.992280843759865,-23.15746543922979],[-59.97898825442368,-23.172979024479904],[-60.0927335150273,-23.492820598991052],[-60.20272336178577,-23.532854707870147],[-60.5713279346945,-23.57229312781151],[-60.60166480320583,-23.611014874030992],[-60.675205292662206,-23.59219021098618],[-60.67971701732639,-23.71504368854334],[-60.785390506728255,-23.789128884839265],[-60.75970172523727,-23.869575727256546],[-60.77393758306148,-23.87935835969453],[-60.789074622837596,-23.86818907959301],[-60.80449044599658,-23.885431148321338],[-60.79307216295253,-23.862591622477684],[-60.85460132858846,-23.867966889108686],[-60.93463867679999,-23.808861211986446],[-60.95940691478103,-23.819746102240295],[-60.991955698103666,-23.808625162852607],[-61.02045812572096,-23.77154865729372],[-61.01390210584349,-23.760643195213675],[-61.082519536404746,-23.68957814866786],[-61.081194953489664,-23.671438928265513],[-61.10060219007935,-23.657281746911533],[-61.08770129901779,-23.613874304641506],[-61.121613005810595,-23.58573973568028],[-61.15079361891948,-23.580727187940024],[-61.18332554906948,-23.53898703628197],[-61.21108909548078,-23.553696591692933],[-61.242025349011854,-23.545815231313497],[-61.27829876264916,-23.517029771904777],[-61.28307237580441,-23.487390371523812],[-61.294369458246194,-23.494701967515844],[-61.31719525148413,-23.470991177517057],[-61.34538351295783,-23.468309869079732],[-61.35313919312472,-23.447208686137348],[-61.39144240437361,-23.45744331150215],[-61.445582487755395,-23.42112438066231],[-61.4909620421393,-23.42306841090212],[-61.52509058425754,-23.37027291715126],[-61.50998178699775,-23.347890316881696],[-61.54788341696766,-23.347136844516395],[-61.591788640573746,-23.29180595110039],[-61.630652450986794,-23.277498045005633],[-61.671054842046374,-23.28513901743339],[-61.71047625410774,-23.242385605570707],[-61.7348287795212,-23.240436169368643],[-61.74441214194101,-23.18719781589325],[-61.766331419848854,-23.15888926092269],[-61.8129973299158,-23.15019557528855],[-61.81660047336225,-23.125379947117345],[-61.85627103145356,-23.088776878979992],[-61.92640720081976,-23.067981943164998],[-62.007904026523576,-22.99377851661735],[-61.99965597129117,-22.928679497416308],[-62.029675678508916,-22.926709235458635],[-62.021805013660604,-22.905683184140283],[-62.037450036583735,-22.913999114552656],[-62.03672414323795,-22.877224909495734],[-62.0601923088907,-22.85955981316237],[-62.05897921367229,-22.839416649852588],[-62.07134022408682,-22.85311219208044],[-62.0829126651732,-22.813321617199648],[-62.10670212089828,-22.82130339736899],[-62.11269988885665,-22.79543750048845],[-62.13541936024966,-22.79127643633361],[-62.13195960025001,-22.759480311793293],[-62.15712160519319,-22.760316164162745],[-62.1668725047576,-22.74592483513578],[-62.14806659383016,-22.747145063249445],[-62.173939702896654,-22.71072405342656],[-62.19134010768436,-22.718741288346504],[-62.20722010179231,-22.7040618633831],[-62.198182559914066,-22.666768016524856],[-62.21804235131702,-22.65627624396132],[-62.202828842052206,-22.650594129565786],[-62.236029725088095,-22.646791970687467],[-62.23454122464173,-22.61240588922329],[-62.26188031462578,-22.60225851490221],[-62.240784334325355,-22.592546167271536],[-62.24929151732163,-22.576090504136562],[-62.22357416808372,-22.549242601028755],[-62.26590055162321,-22.514094912700337],[-62.2963595907717,-22.519118220667615],[-62.28621687199031,-22.47822052975428],[-62.338709937807,-22.481006646689575],[-62.351313813347325,-22.451337758218507],[-62.3779863607474,-22.479886815072007],[-62.400012360304714,-22.45353250019875],[-62.39403443830126,-22.440942966033454],[-62.405505399878315,-22.449706705076803],[-62.41849350473553,-22.42380831450053],[-62.461169968367315,-22.412887171659438],[-62.47439290365279,-22.375868881751785],[-62.54011444448861,-22.373919439569082],[-62.56235635056179,-22.32440542414347],[-62.62138375992882,-22.291336940300347],[-62.64027999582217,-22.29961792041904],[-62.629381821428844,-22.266186716399265],[-62.64006188917032,-22.23639413940335],[-62.260919444129364,-21.05862777809016],[-62.266341666279835,-20.563155556441707],[-61.922536111238074,-20.08921111193969],[-61.76866145838102,-20.109639076887035]]]}},{"type":"Feature","properties":{"department_id":"PY17","department":"ALTO PARAGUAY"},"geometry":{"type":"Polygon","coordinates":[[[-58.170895485496715,-19.833040755706932],[-58.20207183236314,-19.863353444427737],[-58.19660528410419,-19.92617487669142],[-58.21427106746603,-19.953357375290004],[-58.18653714561159,-19.97036311330929],[-58.17628069485072,-20.029153632401098],[-58.157898357597716,-20.043300578350554],[-58.163929984038425,-20.077007186650334],[-58.138817155044336,-20.120108917668936],[-58.138221229160585,-20.152131241310748],[-58.16812644860076,-20.172900183106535],[-58.12192556700856,-20.192319013752424],[-58.16511974625952,-20.229932398707362],[-58.16130135888195,-20.260309268367394],[-58.14439576939258,-20.272040894957932],[-58.11746301555247,-20.248994527874146],[-58.09340671035625,-20.257499503206944],[-58.10288529330313,-20.320975965445157],[-58.08689254502341,-20.366563351815174],[-58.07113325278112,-20.389120402015237],[-58.02172001663359,-20.402377181608514],[-57.998959135355726,-20.435823260798983],[-58.01939319399893,-20.515438132121666],[-57.9952448250579,-20.563489563290375],[-58.01224279879961,-20.614403195285647],[-57.97013290168135,-20.644660723509745],[-57.98669087830538,-20.702087490786173],[-57.95560441162279,-20.7040560644904],[-57.92169015017358,-20.664644191733395],[-57.87000378293336,-20.725961942667674],[-57.86710563111376,-20.749240656401383],[-57.93578829702459,-20.7471714183245],[-57.96172914092909,-20.792857381116207],[-57.89709863218443,-20.789288086316752],[-57.8546625588993,-20.8350830028917],[-57.927396353492234,-20.901583718971665],[-57.88823650603036,-20.907312328086206],[-57.86482073098812,-20.947960392243917],[-57.818865180296854,-20.94180727128308],[-57.81750634165143,-20.980875800868496],[-57.868598972038725,-21.046679912571346],[-57.84627523499678,-21.096319771504216],[-57.86422225129539,-21.13779902437232],[-57.853551081818615,-21.22716965674965],[-57.92157881476504,-21.2805588356229],[-57.8978585723832,-21.30549686451593],[-57.8553386333066,-21.316245427059236],[-57.85427748892277,-21.33520257664561],[-57.908979921505804,-21.404418281544494],[-57.9265361967282,-21.469506835838995],[-57.96861398748471,-21.53040452594315],[-57.95956589803716,-21.561960812426232],[-57.91504499539576,-21.58868771697025],[-57.941621640160136,-21.619563416320545],[-57.93327019435092,-21.65346410447855],[-57.883703740915195,-21.686197317993287],[-57.9451150776937,-21.738184426642086],[-57.94348352188405,-21.755643484960355],[-57.90924438562387,-21.775557022087447],[-57.93334921737975,-21.827102639339827],[-57.965566908074855,-21.848119935634895],[-57.91357813211399,-21.8840059307194],[-57.94923938112918,-21.90195856020676],[-57.93657236405864,-21.9247858449573],[-57.966065593862275,-22.005128270855415],[-58.009597789121486,-22.040585678420136],[-57.98397624405813,-22.065346775042553],[-57.991915036581936,-22.10220544737194],[-57.95659381561317,-22.13154015819239],[-57.972552687065686,-22.19430511266474],[-57.95377857701484,-22.273774648788795],[-57.88700741242808,-22.27145657568839],[-57.877698506458024,-22.329258156351276],[-57.817486767993714,-22.37828175154766],[-57.837573477795225,-22.399132101852008],[-58.18556505381528,-22.34943806426646],[-58.20273093660579,-22.282506178909504],[-58.24554948702355,-22.24046286065722],[-58.2374473699702,-22.19838926873017],[-58.2668799246895,-22.179486952891295],[-58.39674748847449,-22.178969070571867],[-58.47356174101958,-22.156233647706717],[-59.2015950074346,-22.147865511870982],[-59.41636264698739,-22.05652519543753],[-59.95306776214774,-22.05450411796255],[-59.9474218379252,-21.926573279452114],[-59.8724020182084,-21.447163107831905],[-59.715013290647406,-21.34586055140524],[-59.76698528538164,-21.201298055257926],[-59.7508703585922,-21.182932764043375],[-59.76832307233148,-21.03745563510984],[-59.809842280016724,-20.98746116589743],[-59.83831042102225,-20.880700083714657],[-59.8868963941238,-20.791956842175633],[-59.87951338669474,-20.630417493102996],[-59.92730010245368,-20.632887294300332],[-61.51439016031534,-20.18263089209711],[-61.62005247242016,-20.170064185207885],[-61.71858953884565,-20.096644499976527],[-61.76866145838102,-20.109639076887035],[-61.922536111238074,-20.08921111193969],[-61.735211110777634,-19.634405556467094],[-60.60432499986247,-19.456638889076054],[-59.97777777814998,-19.29468611138514],[-59.06892777782252,-19.287647222675467],[-58.235966666253674,-19.774997222667515],[-58.170895485496715,-19.833040755706932]]]}}]}