{"type":"FeatureCollection","features":[{"type":"Feature","properties":{"municipality_id":"72001","name":"Adjuntas"},"geometry":{"type":"Polygon","coordinates":[[[-66.837235,18.192707],[-66.832696,18.229099],[-66.800469,18.227842],[-66.794425,18.24988],[-66.781701,18.250248],[-66.755807,18.223289],[-66.69373,18.216891],[-66.681225,18.203771],[-66.680358,18.185956],[-66.664811,18.172616],[-66.676923,18.16008],[-66.67699,18.150955],[-66.670466,18.150784],[-66.676951,18.129977],[-66.717164,18.131519],[-66.727526,18.113034],[-66.749618,18.113664],[-66.766793,18.134968],[-66.797177,18.133147],[-66.804058,18.148056],[-66.821028,18.152818],[-66.837235,18.192707]]]}},{"type":"Feature","properties":{"municipality_id":"72003","name":"Aguada"},"geometry":{"type":"Polygon","coordinates":[[[-67.2391484719531,18.3755040025815],[-67.1601050126209,18.4155680516216],[-67.156261,18.393537],[-67.13221,18.389391],[-67.126434,18.371203],[-67.134515,18.346514],[-67.130167,18.317927],[-67.145774,18.322665],[-67.185279,18.312914],[-67.195748,18.330598],[-67.227336,18.348766],[-67.226738,18.36292],[-67.2391484719531,18.3755040025815]]]}},{"type":"Feature","properties":{"municipality_id":"72005","name":"Aguadilla"},"geometry":{"type":"Polygon","coordinates":[[[-67.169518,18.474952],[-67.137804,18.507569],[-67.1032163706988,18.5133523789786],[-67.082246,18.489273],[-67.05846,18.479982],[-67.056507,18.460954],[-67.07417,18.456777],[-67.076966,18.446086],[-67.098937,18.437032],[-67.1255,18.409225],[-67.134693,18.38609],[-67.156261,18.393537],[-67.156365,18.412487],[-67.162208,18.410241],[-67.155206,18.433234],[-67.169518,18.474952]]]}},{"type":"Feature","properties":{"municipality_id":"72007","name":"Aguas Buenas"},"geometry":{"type":"Polygon","coordinates":[[[-66.189196,18.2598],[-66.171043,18.27928],[-66.108191,18.277768],[-66.086465,18.285094],[-66.084163,18.294916],[-66.066103,18.303321],[-66.074732,18.253317],[-66.090421,18.227413],[-66.137629,18.197722],[-66.138908,18.210231],[-66.14684,18.213637],[-66.143941,18.228111],[-66.160821,18.220328],[-66.169126,18.22429],[-66.189196,18.2598]]]}},{"type":"Feature","properties":{"municipality_id":"72009","name":"Aibonito"},"geometry":{"type":"Polygon","coordinates":[[[-66.320913,18.126005],[-66.309144,18.159559],[-66.277953,18.174217],[-66.248293,18.165615],[-66.242735,18.180248],[-66.224322,18.16668],[-66.227351,18.150594],[-66.216464,18.146119],[-66.226828,18.116641],[-66.22449,18.095339],[-66.240053,18.093186],[-66.242238,18.077148],[-66.257527,18.075884],[-66.272941,18.086586],[-66.320913,18.126005]]]}},{"type":"Feature","properties":{"municipality_id":"72011","name":"Añasco"},"geometry":{"type":"Polygon","coordinates":[[[-67.2253247654119,18.2968884841186],[-67.220709,18.3057],[-67.173828,18.318064],[-67.130849,18.317511],[-67.121402,18.32396],[-67.063469,18.311563],[-67.040709,18.300302],[-67.037935,18.289705],[-67.042067,18.27082],[-67.061828,18.270082],[-67.072237,18.254609],[-67.078914,18.258868],[-67.086961,18.249145],[-67.106463,18.252773],[-67.123055,18.242814],[-67.135819,18.245928],[-67.134857,18.263797],[-67.141499,18.269954],[-67.1876769254565,18.2668432659949],[-67.19556,18.289707],[-67.2253247654119,18.2968884841186]]]}},{"type":"Feature","properties":{"municipality_id":"72013","name":"Arecibo"},"geometry":{"type":"Polygon","coordinates":[[[-66.770203,18.324941],[-66.7649977855564,18.4837998649952],[-66.709911,18.471951],[-66.700162,18.482715],[-66.683826,18.481161],[-66.672902,18.489417],[-66.621441,18.493081],[-66.5867511075527,18.4851010587685],[-66.588853,18.473179],[-66.579868,18.467957],[-66.593199,18.400001],[-66.589013,18.37521],[-66.582331,18.374006],[-66.590674,18.338199],[-66.600105,18.339465],[-66.606905,18.328146],[-66.615303,18.332947],[-66.715708,18.315227],[-66.719833,18.336594],[-66.735947,18.349675],[-66.770203,18.324941]]]}},{"type":"Feature","properties":{"municipality_id":"72015","name":"Arroyo"},"geometry":{"type":"Polygon","coordinates":[[[-66.095136,18.022048],[-66.077492,18.036901],[-66.048108,18.035614],[-66.041878,18.017094],[-66.046927,18.009097],[-66.0196186976345,17.9784668173975],[-66.047483,17.953194],[-66.063305,17.960621],[-66.070837,17.968335],[-66.07161,17.993732],[-66.095136,18.022048]]]}},{"type":"Feature","properties":{"municipality_id":"72017","name":"Barceloneta"},"geometry":{"type":"Polygon","coordinates":[[[-66.590098,18.389849],[-66.579868,18.467957],[-66.588853,18.473179],[-66.5867511075527,18.4851010587685],[-66.561229,18.489952],[-66.5332152712255,18.4815552883213],[-66.53067,18.465104],[-66.537686,18.453466],[-66.526258,18.45468],[-66.540115,18.443695],[-66.532731,18.442946],[-66.536488,18.434661],[-66.528892,18.441734],[-66.52118,18.431529],[-66.543567,18.418767],[-66.543079,18.405422],[-66.5704,18.411224],[-66.583056,18.389896],[-66.590098,18.389849]]]}},{"type":"Feature","properties":{"municipality_id":"72019","name":"Barranquitas"},"geometry":{"type":"Polygon","coordinates":[[[-66.37379,18.184105],[-66.364777,18.186922],[-66.363734,18.200663],[-66.351631,18.194334],[-66.350793,18.241235],[-66.314765,18.249704],[-66.307073,18.241481],[-66.266466,18.24527],[-66.2709,18.217465],[-66.263553,18.184959],[-66.243954,18.193472],[-66.24046,18.184794],[-66.248293,18.165615],[-66.277953,18.174217],[-66.314848,18.152088],[-66.322323,18.165503],[-66.373768,18.173694],[-66.37379,18.184105]]]}},{"type":"Feature","properties":{"municipality_id":"72021","name":"Bayamón"},"geometry":{"type":"Polygon","coordinates":[[[-66.213072,18.307003],[-66.205908,18.306921],[-66.199554,18.339888],[-66.197114,18.415656],[-66.172653,18.42105],[-66.169516,18.430998],[-66.158545,18.421561],[-66.13158,18.424656],[-66.121849,18.415327],[-66.128007,18.402748],[-66.11836,18.379254],[-66.137428,18.379534],[-66.14193,18.357594],[-66.133538,18.33555],[-66.141361,18.320445],[-66.132352,18.313568],[-66.140961,18.311364],[-66.141705,18.282231],[-66.171043,18.27928],[-66.190676,18.25884],[-66.206413,18.276876],[-66.213072,18.307003]]]}},{"type":"Feature","properties":{"municipality_id":"72023","name":"Cabo Rojo"},"geometry":{"type":"Polygon","coordinates":[[[-67.2137751800158,17.9878626030842],[-67.172505,18.015751],[-67.181023,18.030726],[-67.209816,18.036242],[-67.199269,18.046651],[-67.196721,18.066011],[-67.184063,18.069995],[-67.196016,18.072781],[-67.199394,18.091108],[-67.18225,18.109979],[-67.186528,18.136633],[-67.176783,18.150411],[-67.185266,18.164908],[-67.180085,18.168111],[-67.133754,18.131867],[-67.126157,18.115143],[-67.099385,18.105735],[-67.106123,18.079693],[-67.09912,18.067358],[-67.115765,18.031462],[-67.109997,17.979385],[-67.102278,17.974957],[-67.107679,17.951999],[-67.111919,17.946357],[-67.157439,17.955042],[-67.174169,17.966244],[-67.191889,17.953616],[-67.183438,17.93097],[-67.194406,17.932813],[-67.194609,17.948834],[-67.212744,17.952635],[-67.2137751800158,17.9878626030842]]]}},{"type":"Feature","properties":{"municipality_id":"72025","name":"Caguas"},"geometry":{"type":"Polygon","coordinates":[[[-66.117641,18.210911],[-66.090421,18.227413],[-66.074732,18.253317],[-66.066103,18.303321],[-66.048466,18.297648],[-66.044836,18.311493],[-66.024857,18.308963],[-66.029894,18.29087],[-66.008443,18.278279],[-66.013676,18.225379],[-65.999442,18.21792],[-65.998146,18.195309],[-66.022256,18.166035],[-66.01961,18.145514],[-66.035651,18.119204],[-66.060761,18.116315],[-66.06959,18.137516],[-66.066415,18.148531],[-66.105095,18.171543],[-66.101719,18.183062],[-66.117641,18.210911]]]}},{"type":"Feature","properties":{"municipality_id":"72027","name":"Camuy"},"geometry":{"type":"Polygon","coordinates":[[[-66.9013837070024,18.4833248300563],[-66.86631,18.491201],[-66.835655,18.486536],[-66.823643,18.412465],[-66.810603,18.387031],[-66.824081,18.34328],[-66.898928,18.366117],[-66.9013837070024,18.4833248300563]]]}},{"type":"Feature","properties":{"municipality_id":"72029","name":"Canóvanas"},"geometry":{"type":"Polygon","coordinates":[[[-65.931044,18.394169],[-65.914495,18.405626],[-65.909683,18.401062],[-65.89993,18.413682],[-65.869949,18.408915],[-65.876502,18.378681],[-65.867447,18.378198],[-65.87671,18.361511],[-65.872836,18.335166],[-65.862761,18.32149],[-65.869662,18.317152],[-65.862594,18.303247],[-65.86824,18.293864],[-65.836387,18.275246],[-65.846289,18.258083],[-65.873997,18.252738],[-65.918535,18.27013],[-65.907258,18.272172],[-65.915617,18.293802],[-65.907077,18.29658],[-65.910709,18.307225],[-65.901782,18.316158],[-65.908793,18.323198],[-65.908002,18.343654],[-65.919774,18.345125],[-65.91309,18.378869],[-65.931044,18.394169]]]}},{"type":"Feature","properties":{"municipality_id":"72031","name":"Carolina"},"geometry":{"type":"Polygon","coordinates":[[[-66.043086,18.444054],[-66.0368016326719,18.449976237483],[-66.011177,18.443596],[-65.990556,18.457474],[-65.984431,18.442824],[-65.967199,18.432381],[-65.953979,18.437155],[-65.9304,18.428478],[-65.919318,18.400277],[-65.93134,18.393679],[-65.91309,18.378869],[-65.919774,18.345125],[-65.908002,18.343654],[-65.908793,18.323198],[-65.901782,18.316158],[-65.910709,18.307225],[-65.907077,18.29658],[-65.915617,18.293802],[-65.907258,18.272172],[-65.924175,18.272622],[-65.939296,18.286771],[-65.939096,18.309559],[-65.961383,18.322722],[-65.991498,18.377004],[-66.000315,18.380743],[-66.002926,18.394824],[-65.991427,18.398484],[-65.99311,18.407274],[-66.019988,18.419877],[-66.043086,18.444054]]]}},{"type":"Feature","properties":{"municipality_id":"72033","name":"Cataño"},"geometry":{"type":"Polygon","coordinates":[[[-66.169458,18.435509],[-66.1395928548984,18.4623310875803],[-66.128755,18.442556],[-66.110845,18.443301],[-66.135671,18.422009],[-66.158545,18.421561],[-66.169458,18.435509]]]}},{"type":"Feature","properties":{"municipality_id":"72035","name":"Cayey"},"geometry":{"type":"Polygon","coordinates":[[[-66.226945,18.101973],[-66.216899,18.14322],[-66.204858,18.137598],[-66.20117,18.146836],[-66.197182,18.13658],[-66.181912,18.144593],[-66.168453,18.133488],[-66.160041,18.146636],[-66.131881,18.132577],[-66.110176,18.142037],[-66.095099,18.169077],[-66.080343,18.152146],[-66.066415,18.148531],[-66.067479,18.132172],[-66.051162,18.111088],[-66.068571,18.101828],[-66.098287,18.106826],[-66.112707,18.090159],[-66.12634,18.097156],[-66.12002,18.062422],[-66.128518,18.039494],[-66.138987,18.036917],[-66.172323,18.054003],[-66.202038,18.046113],[-66.201753,18.067639],[-66.226945,18.101973]]]}},{"type":"Feature","properties":{"municipality_id":"72037","name":"Ceiba"},"geometry":{"type":"MultiPolygon","coordinates":[[[[-65.578126,18.246248],[-65.576555,18.250146],[-65.575767,18.249155],[-65.578126,18.246248]]],[[[-65.5995,18.255629],[-65.58561,18.256473],[-65.582781,18.248302],[-65.597905,18.247743],[-65.5995,18.255629]]],[[[-65.604329,18.210864],[-65.599513,18.213278],[-65.599037,18.211088],[-65.604329,18.210864]]],[[[-65.765593,18.283391],[-65.753591,18.296755],[-65.737204,18.28271],[-65.737739,18.273881],[-65.71751,18.267744],[-65.699892,18.273079],[-65.695013,18.28568],[-65.67926,18.274586],[-65.66613,18.288044],[-65.635414,18.284626],[-65.625605,18.28085],[-65.631371,18.26826],[-65.625176,18.256545],[-65.606409,18.261756],[-65.609432,18.251193],[-65.590348,18.228147],[-65.603283,18.230186],[-65.61099,18.211576],[-65.615794,18.227273],[-65.633163,18.233506],[-65.639392,18.219625],[-65.635615,18.207199],[-65.62841,18.206521],[-65.645802,18.19972],[-65.6618934230941,18.2072981007254],[-65.658364,18.224498],[-65.688319,18.231615],[-65.69287,18.238225],[-65.684234,18.253503],[-65.69325,18.250774],[-65.702403,18.259473],[-65.729865,18.252922],[-65.757971,18.267523],[-65.765593,18.283391]]]]}},{"type":"Feature","properties":{"municipality_id":"72039","name":"Ciales"},"geometry":{"type":"Polygon","coordinates":[[[-66.611215,18.322673],[-66.600105,18.339465],[-66.552734,18.340438],[-66.511776,18.362003],[-66.463211,18.371473],[-66.453368,18.309318],[-66.46482,18.28408],[-66.45419,18.251157],[-66.466652,18.245899],[-66.501073,18.256842],[-66.508251,18.249158],[-66.509024,18.229936],[-66.517857,18.229726],[-66.512043,18.166513],[-66.531556,18.155679],[-66.543133,18.163098],[-66.531023,18.180137],[-66.532725,18.200519],[-66.56446,18.242793],[-66.555588,18.254607],[-66.560399,18.261048],[-66.554703,18.281583],[-66.58134,18.320345],[-66.611215,18.322673]]]}},{"type":"Feature","properties":{"municipality_id":"72041","name":"Cidra"},"geometry":{"type":"Polygon","coordinates":[[[-66.242884,18.183004],[-66.211275,18.173634],[-66.2071,18.196933],[-66.182483,18.202302],[-66.17059,18.224226],[-66.152418,18.222045],[-66.146119,18.230373],[-66.141317,18.197704],[-66.117774,18.209949],[-66.101719,18.183062],[-66.105095,18.171543],[-66.094522,18.164715],[-66.110176,18.142037],[-66.131881,18.132577],[-66.160041,18.146636],[-66.168453,18.133488],[-66.181912,18.144593],[-66.183888,18.138048],[-66.199254,18.13708],[-66.20117,18.146836],[-66.207534,18.137345],[-66.227351,18.150594],[-66.223716,18.165717],[-66.242884,18.183004]]]}},{"type":"Feature","properties":{"municipality_id":"72043","name":"Coamo"},"geometry":{"type":"Polygon","coordinates":[[[-66.443825,18.176434],[-66.42346,18.172071],[-66.410062,18.16299],[-66.374613,18.174901],[-66.351089,18.165434],[-66.322323,18.165503],[-66.312787,18.138106],[-66.320913,18.126005],[-66.257527,18.075884],[-66.309653,18.047719],[-66.312268,18.033501],[-66.328981,18.015501],[-66.356779,18.036942],[-66.371759,18.032617],[-66.426989,18.042627],[-66.430576,18.085759],[-66.421379,18.098589],[-66.430761,18.114833],[-66.419306,18.144988],[-66.432773,18.172651],[-66.443825,18.176434]]]}},{"type":"Feature","properties":{"municipality_id":"72045","name":"Comerío"},"geometry":{"type":"Polygon","coordinates":[[[-66.270262,18.219378],[-66.265937,18.246921],[-66.228094,18.254027],[-66.228952,18.262801],[-66.209869,18.277096],[-66.193248,18.268138],[-66.169141,18.226013],[-66.182483,18.202302],[-66.2071,18.196933],[-66.21386,18.172858],[-66.24046,18.184794],[-66.243954,18.193472],[-66.263553,18.184959],[-66.270262,18.219378]]]}},{"type":"Feature","properties":{"municipality_id":"72047","name":"Corozal"},"geometry":{"type":"Polygon","coordinates":[[[-66.383033,18.275348],[-66.365272,18.333229],[-66.358325,18.33072],[-66.348825,18.35013],[-66.355278,18.360643],[-66.340976,18.357626],[-66.338114,18.368053],[-66.312567,18.364446],[-66.30548,18.370063],[-66.290182,18.355167],[-66.278076,18.329975],[-66.287265,18.271691],[-66.296086,18.257545],[-66.347414,18.240032],[-66.383033,18.275348]]]}},{"type":"Feature","properties":{"municipality_id":"72049","name":"Culebra"},"geometry":{"type":"MultiPolygon","coordinates":[[[[-65.237728,18.321184],[-65.221416,18.321554],[-65.221077,18.311575],[-65.230091,18.310837],[-65.237728,18.321184]]],[[[-65.266694,18.341634],[-65.255166,18.342086],[-65.246016,18.33464],[-65.256592,18.333174],[-65.266694,18.341634]]],[[[-65.337511,18.302702],[-65.329645,18.315859],[-65.327817,18.295984],[-65.337511,18.302702]]],[[[-65.341496,18.347145],[-65.319026,18.329196],[-65.308994,18.33746],[-65.277283,18.332433],[-65.251276,18.317497],[-65.244642,18.304488],[-65.258663,18.308227],[-65.256179,18.293792],[-65.26314,18.289726],[-65.265812,18.297126],[-65.27634,18.296208],[-65.279308,18.30683],[-65.30233,18.309526],[-65.28077,18.288385],[-65.287304,18.278247],[-65.341496,18.347145]]]]}},{"type":"Feature","properties":{"municipality_id":"72051","name":"Dorado"},"geometry":{"type":"Polygon","coordinates":[[[-66.317421,18.451074],[-66.310236,18.476857],[-66.28447,18.472015],[-66.26956,18.480069],[-66.242058,18.468528],[-66.198941409765,18.4666068410741],[-66.214605,18.465],[-66.231674,18.449741],[-66.257999,18.45514],[-66.255069,18.43948],[-66.264323,18.420579],[-66.252554,18.394187],[-66.271596,18.383741],[-66.303663,18.384077],[-66.299612,18.423711],[-66.317421,18.451074]]]}},{"type":"Feature","properties":{"municipality_id":"72053","name":"Fajardo"},"geometry":{"type":"MultiPolygon","coordinates":[[[[-65.570191,18.376159],[-65.570384,18.378481],[-65.567775,18.378038],[-65.570191,18.376159]]],[[[-65.571524,18.351412],[-65.564794,18.347907],[-65.567839,18.343893],[-65.568853,18.344239],[-65.571524,18.351412]]],[[[-65.593029,18.391488],[-65.583866,18.386585],[-65.583699,18.383592],[-65.592124,18.385015],[-65.593029,18.391488]]],[[[-65.753591,18.296755],[-65.74339,18.299447],[-65.73334,18.288031],[-65.725522,18.292077],[-65.719139,18.30667],[-65.70449,18.309347],[-65.703926,18.320826],[-65.684166,18.323754],[-65.6699584230622,18.3618853729713],[-65.653918,18.365253],[-65.643457,18.378469],[-65.633208,18.369681],[-65.62345,18.386773],[-65.615195,18.383883],[-65.63596,18.347956],[-65.626765,18.331728],[-65.625289,18.303673],[-65.6348201814015,18.2838880205866],[-65.66613,18.288044],[-65.67926,18.274586],[-65.695013,18.28568],[-65.699892,18.273079],[-65.71751,18.267744],[-65.737739,18.273881],[-65.737204,18.28271],[-65.753591,18.296755]]]]}},{"type":"Feature","properties":{"municipality_id":"72054","name":"Florida"},"geometry":{"type":"Polygon","coordinates":[[[-66.590535,18.341163],[-66.582331,18.374006],[-66.589013,18.37521],[-66.588374,18.389574],[-66.5704,18.411224],[-66.543079,18.405422],[-66.530964,18.386033],[-66.537105,18.346335],[-66.590535,18.341163]]]}},{"type":"Feature","properties":{"municipality_id":"72055","name":"Guánica"},"geometry":{"type":"Polygon","coordinates":[[[-66.9809244560801,17.9530217141924],[-66.961722,17.991701],[-66.958796,18.032447],[-66.884834,18.025101],[-66.863163,17.998022],[-66.863643,17.945684],[-66.8713,17.952262],[-66.902501,17.94906],[-66.90555,17.9643],[-66.925211,17.973153],[-66.931217,17.961612],[-66.909274,17.952403],[-66.932531,17.939934],[-66.919886,17.933279],[-66.92413,17.926674],[-66.95724,17.931422],[-66.95618,17.939173],[-66.9809244560801,17.9530217141924]]]}},{"type":"Feature","properties":{"municipality_id":"72057","name":"Guayama"},"geometry":{"type":"Polygon","coordinates":[[[-66.212987,17.94345],[-66.183594,17.93874],[-66.175782,17.944381],[-66.2062100916793,17.9628874553955],[-66.205592,18.01298],[-66.179952,18.02574],[-66.166145,18.050063],[-66.138987,18.036917],[-66.128518,18.039494],[-66.12002,18.062422],[-66.12634,18.097156],[-66.112707,18.090159],[-66.098287,18.106826],[-66.068571,18.101828],[-66.053146,18.107293],[-66.087908,18.060916],[-66.082235,18.030934],[-66.095136,18.022048],[-66.07161,17.993732],[-66.069985,17.966441],[-66.128362,17.946666],[-66.155765,17.929201],[-66.157993,17.938086],[-66.162169,17.932305],[-66.193417,17.937571],[-66.199622,17.929603],[-66.212987,17.94345]]]}},{"type":"Feature","properties":{"municipality_id":"72059","name":"Guayanilla"},"geometry":{"type":"Polygon","coordinates":[[[-66.8524517409495,17.9548167648624],[-66.836563,17.965883],[-66.83495,17.988509],[-66.826006,18.000102],[-66.830173,18.017799],[-66.818139,18.029533],[-66.823988,18.048002],[-66.802236,18.091056],[-66.810756,18.112967],[-66.796056,18.121795],[-66.797579,18.133529],[-66.769117,18.135015],[-66.761063,18.111967],[-66.76969,18.087833],[-66.766289,18.039744],[-66.75564,18.056235],[-66.748821,18.046131],[-66.739257,18.047501],[-66.74172,18.030531],[-66.732925,18.017372],[-66.748489,18.010779],[-66.7546116441534,17.999024691381],[-66.767464,18.006869],[-66.797552,17.995208],[-66.796586,17.98404],[-66.805936,17.985078],[-66.807509,17.977332],[-66.792468,17.977633],[-66.785216,17.985938],[-66.787271,17.972727],[-66.819189,17.955834],[-66.840601,17.949988],[-66.8524517409495,17.9548167648624]]]}},{"type":"Feature","properties":{"municipality_id":"72061","name":"Guaynabo"},"geometry":{"type":"Polygon","coordinates":[[[-66.141456,18.277714],[-66.140961,18.311364],[-66.132352,18.313568],[-66.141361,18.320445],[-66.133538,18.33555],[-66.14193,18.357594],[-66.137428,18.379534],[-66.11836,18.379254],[-66.128007,18.402748],[-66.121849,18.415327],[-66.13158,18.424656],[-66.114351,18.440542],[-66.094981,18.40582],[-66.106371,18.401921],[-66.107884,18.38826],[-66.090329,18.374734],[-66.088351,18.35714],[-66.097941,18.355902],[-66.099667,18.342625],[-66.08676,18.333045],[-66.080428,18.294525],[-66.108191,18.277768],[-66.141456,18.277714]]]}},{"type":"Feature","properties":{"municipality_id":"72063","name":"Gurabo"},"geometry":{"type":"Polygon","coordinates":[[[-66.029736,18.302644],[-65.968149,18.310153],[-65.918535,18.27013],[-65.946231,18.252403],[-65.941535,18.232252],[-65.980422,18.226068],[-65.998247,18.207074],[-65.999442,18.21792],[-66.013676,18.225379],[-66.008443,18.278279],[-66.029186,18.28913],[-66.029736,18.302644]]]}},{"type":"Feature","properties":{"municipality_id":"72065","name":"Hatillo"},"geometry":{"type":"Polygon","coordinates":[[[-66.838634,18.48351],[-66.789603,18.492918],[-66.7649977855564,18.4837998649952],[-66.770277,18.320738],[-66.826039,18.323367],[-66.810603,18.387031],[-66.828913,18.435595],[-66.829015,18.472798],[-66.838634,18.48351]]]}},{"type":"Feature","properties":{"municipality_id":"72067","name":"Hormigueros"},"geometry":{"type":"Polygon","coordinates":[[[-67.158801,18.155297],[-67.097987,18.15865],[-67.084016,18.148186],[-67.09144,18.147875],[-67.09415,18.1349],[-67.079009,18.110108],[-67.105442,18.105518],[-67.126157,18.115143],[-67.158801,18.155297]]]}},{"type":"Feature","properties":{"municipality_id":"72069","name":"Humacao"},"geometry":{"type":"Polygon","coordinates":[[[-65.877615,18.118167],[-65.862703,18.140644],[-65.854598,18.177065],[-65.836614,18.175296],[-65.819451,18.205594],[-65.792477,18.206759],[-65.760504,18.195581],[-65.766046,18.182096],[-65.751282,18.176322],[-65.740495,18.182025],[-65.742867,18.16427],[-65.766867,18.149282],[-65.775899,18.132793],[-65.777563,18.114948],[-65.799725,18.07942],[-65.7972376228654,18.0697468131339],[-65.840595,18.091222],[-65.848117,18.117488],[-65.865523,18.108133],[-65.877615,18.118167]]]}},{"type":"Feature","properties":{"municipality_id":"72071","name":"Isabela"},"geometry":{"type":"Polygon","coordinates":[[[-67.1032163706988,18.5133523789786],[-67.019411,18.510971],[-66.9574744672855,18.4893461676306],[-66.950526,18.483407],[-66.963462,18.473019],[-66.959202,18.465781],[-66.968559,18.454196],[-66.933541,18.41878],[-66.947208,18.401482],[-66.92202,18.393204],[-66.945589,18.37523],[-67.009142,18.395125],[-67.02638,18.392052],[-67.052813,18.448354],[-67.05846,18.479982],[-67.082246,18.489273],[-67.1032163706988,18.5133523789786]]]}},{"type":"Feature","properties":{"municipality_id":"72073","name":"Jayuya"},"geometry":{"type":"Polygon","coordinates":[[[-66.649467,18.158857],[-66.65228,18.182618],[-66.642166,18.183456],[-66.639623,18.207263],[-66.628492,18.214606],[-66.624584,18.24762],[-66.606337,18.238128],[-66.597374,18.284186],[-66.578757,18.284049],[-66.573338,18.300317],[-66.56662,18.298549],[-66.554703,18.281583],[-66.560399,18.261048],[-66.555588,18.254607],[-66.56446,18.242793],[-66.532725,18.200519],[-66.531023,18.180137],[-66.54716,18.153258],[-66.591702,18.172156],[-66.612802,18.159077],[-66.628695,18.158625],[-66.631721,18.149772],[-66.649467,18.158857]]]}},{"type":"Feature","properties":{"municipality_id":"72075","name":"Juana Díaz"},"geometry":{"type":"Polygon","coordinates":[[[-66.565409,18.12982],[-66.552777,18.152282],[-66.521945,18.152073],[-66.530138,18.10672],[-66.518251,18.085037],[-66.507382,18.080967],[-66.50578,18.093119],[-66.492478,18.098147],[-66.479103,18.087426],[-66.430341,18.082163],[-66.421054,18.019309],[-66.434499,18.007313],[-66.437025,17.992304],[-66.4520994100581,17.9819452022069],[-66.458813,17.989481],[-66.485935,17.990595],[-66.540736,17.975179],[-66.541596,17.991605],[-66.53042,18.003075],[-66.540728,18.022921],[-66.53734,18.041286],[-66.545258,18.068753],[-66.555513,18.084555],[-66.549137,18.097089],[-66.565409,18.12982]]]}},{"type":"Feature","properties":{"municipality_id":"72077","name":"Juncos"},"geometry":{"type":"Polygon","coordinates":[[[-65.951627,18.220538],[-65.948913,18.23352],[-65.939473,18.234118],[-65.949394,18.244004],[-65.946231,18.252403],[-65.924347,18.269344],[-65.873997,18.252738],[-65.852616,18.254972],[-65.868753,18.219701],[-65.887617,18.198354],[-65.896023,18.20236],[-65.928341,18.142845],[-65.929404,18.197433],[-65.941213,18.202193],[-65.951627,18.220538]]]}},{"type":"Feature","properties":{"municipality_id":"72079","name":"Lajas"},"geometry":{"type":"Polygon","coordinates":[[[-67.115515,18.033967],[-67.109044,18.056085],[-67.100891,18.059604],[-67.068517,18.066141],[-67.03619,18.057817],[-67.007745,18.060206],[-66.983337,18.052518],[-66.982675,18.041202],[-66.959434,18.035326],[-66.961722,17.991701],[-66.9809244560801,17.9530217141924],[-66.986802,17.970567],[-67.004341,17.970983],[-67.002988,17.96068],[-67.013873,17.974525],[-67.01987,17.968082],[-67.040306,17.973099],[-67.044486,17.967829],[-67.065203,17.975573],[-67.075849,17.972495],[-67.07722,17.958521],[-67.08797,17.965584],[-67.090565,17.95164],[-67.1098191186741,17.9463427801109],[-67.102278,17.974957],[-67.109997,17.979385],[-67.115515,18.033967]]]}},{"type":"Feature","properties":{"municipality_id":"72081","name":"Lares"},"geometry":{"type":"Polygon","coordinates":[[[-66.912859,18.233009],[-66.905675,18.251764],[-66.909977,18.302636],[-66.893306,18.367124],[-66.824081,18.34328],[-66.82365,18.303328],[-66.831215,18.285175],[-66.827209,18.244096],[-66.817271,18.230336],[-66.832696,18.229099],[-66.837235,18.192707],[-66.825456,18.172363],[-66.850765,18.170357],[-66.86287,18.173808],[-66.863991,18.186748],[-66.897964,18.187744],[-66.912859,18.233009]]]}},{"type":"Feature","properties":{"municipality_id":"72083","name":"Las Marías"},"geometry":{"type":"Polygon","coordinates":[[[-67.082002,18.254946],[-67.072237,18.254609],[-67.061828,18.270082],[-67.040245,18.27207],[-67.040853,18.281837],[-67.037935,18.289705],[-67.031192,18.289148],[-67.03819,18.28047],[-66.979645,18.276001],[-66.969384,18.263635],[-66.96508,18.271262],[-66.948204,18.266758],[-66.94623,18.273293],[-66.932474,18.253744],[-66.924707,18.260425],[-66.905675,18.251764],[-66.912859,18.233009],[-66.897964,18.187744],[-66.977474,18.207773],[-67.003803,18.193501],[-67.019836,18.195471],[-67.0189,18.204271],[-67.033163,18.208305],[-67.032965,18.218086],[-67.050354,18.227478],[-67.055921,18.245357],[-67.082002,18.254946]]]}},{"type":"Feature","properties":{"municipality_id":"72085","name":"Las Piedras"},"geometry":{"type":"Polygon","coordinates":[[[-65.928341,18.142845],[-65.896023,18.20236],[-65.887617,18.198354],[-65.868753,18.219701],[-65.838595,18.273689],[-65.82422,18.273054],[-65.815664,18.262527],[-65.831388,18.214222],[-65.825721,18.192406],[-65.836614,18.175296],[-65.854598,18.177065],[-65.862703,18.140644],[-65.877615,18.118167],[-65.900893,18.125856],[-65.926227,18.119963],[-65.920665,18.137823],[-65.928341,18.142845]]]}},{"type":"Feature","properties":{"municipality_id":"72087","name":"Loíza"},"geometry":{"type":"Polygon","coordinates":[[[-65.9929824129958,18.4585667158103],[-65.925878,18.444987],[-65.897114,18.451071],[-65.877504,18.437598],[-65.836983,18.432048],[-65.8288440858427,18.4230262331514],[-65.852538,18.4017],[-65.859914,18.381611],[-65.876502,18.378681],[-65.869949,18.408915],[-65.89993,18.413682],[-65.909683,18.401062],[-65.919278,18.402993],[-65.9304,18.428478],[-65.953979,18.437155],[-65.967199,18.432381],[-65.9929824129958,18.4585667158103]]]}},{"type":"Feature","properties":{"municipality_id":"72089","name":"Luquillo"},"geometry":{"type":"Polygon","coordinates":[[[-65.770546,18.365822],[-65.751186,18.384659],[-65.735835,18.380692],[-65.723524,18.389362],[-65.70864,18.371801],[-65.6699584230622,18.3618853729713],[-65.684166,18.323754],[-65.703926,18.320826],[-65.70449,18.309347],[-65.719139,18.30667],[-65.72049,18.296057],[-65.73334,18.288031],[-65.750106,18.301285],[-65.758861,18.290604],[-65.762494,18.305851],[-65.748718,18.326676],[-65.756018,18.328755],[-65.753513,18.341538],[-65.770546,18.365822]]]}},{"type":"Feature","properties":{"municipality_id":"72091","name":"Manatí"},"geometry":{"type":"Polygon","coordinates":[[[-66.543567,18.418767],[-66.52118,18.431529],[-66.528892,18.441734],[-66.536488,18.434661],[-66.532731,18.442946],[-66.540115,18.443695],[-66.526258,18.45468],[-66.537686,18.453466],[-66.53067,18.465104],[-66.5332152712255,18.4815552883213],[-66.454475,18.469249],[-66.4388130977795,18.4857143878357],[-66.439413,18.410366],[-66.448994,18.389113],[-66.4438,18.371027],[-66.496601,18.366028],[-66.533623,18.351333],[-66.530964,18.386033],[-66.543567,18.418767]]]}},{"type":"Feature","properties":{"municipality_id":"72093","name":"Maricao"},"geometry":{"type":"Polygon","coordinates":[[[-67.05134,18.174734],[-67.019502,18.186847],[-67.019836,18.195471],[-67.003803,18.193501],[-66.977474,18.207773],[-66.896663,18.187411],[-66.863991,18.186748],[-66.86287,18.173808],[-66.83676,18.170553],[-66.85012,18.162886],[-66.858513,18.137981],[-66.887886,18.153383],[-66.903806,18.146363],[-66.915609,18.154265],[-66.971866,18.14154],[-67.013575,18.165727],[-67.05134,18.174734]]]}},{"type":"Feature","properties":{"municipality_id":"72095","name":"Maunabo"},"geometry":{"type":"Polygon","coordinates":[[[-65.988523,18.058941],[-65.97779,18.061093],[-65.933735,18.0368],[-65.896922,18.033837],[-65.88104,18.020796],[-65.864627,18.025698],[-65.8506850135727,18.0114722750958],[-65.9124712130352,17.9783713463352],[-65.943136,17.992612],[-65.953048,18.006339],[-65.952991,18.023449],[-65.971954,18.024463],[-65.988523,18.058941]]]}},{"type":"Feature","properties":{"municipality_id":"72097","name":"Mayagüez"},"geometry":{"type":"MultiPolygon","coordinates":[[[[-67.1876769254565,18.2668432659949],[-67.141499,18.269954],[-67.134857,18.263797],[-67.135819,18.245928],[-67.123055,18.242814],[-67.082002,18.254946],[-67.057361,18.246141],[-67.050354,18.227478],[-67.032965,18.218086],[-67.033163,18.208305],[-67.0189,18.204271],[-67.01821,18.187902],[-67.082144,18.168073],[-67.087226,18.14951],[-67.112443,18.160334],[-67.162066,18.152415],[-67.1801979961126,18.1681239299034],[-67.153315,18.206046],[-67.173218,18.226733],[-67.174169,18.244792],[-67.1876769254565,18.2668432659949]]],[[[-67.487426,18.385737],[-67.478957,18.389343],[-67.473616,18.38222],[-67.479051,18.379176],[-67.487426,18.385737]]],[[[-67.944691,18.084593],[-67.933023,18.112538],[-67.909115,18.119531],[-67.887504,18.112523],[-67.861027,18.121869],[-67.843796,18.096116],[-67.845795,18.082177],[-67.882181,18.054767],[-67.920328,18.064144],[-67.944691,18.084593]]]]}},{"type":"Feature","properties":{"municipality_id":"72099","name":"Moca"},"geometry":{"type":"Polygon","coordinates":[[[-67.134151,18.347538],[-67.127393,18.358722],[-67.13221,18.389391],[-67.1255,18.409225],[-67.098937,18.437032],[-67.076966,18.446086],[-67.07417,18.456777],[-67.056507,18.460954],[-67.027173,18.393376],[-67.050093,18.349032],[-67.04374,18.349816],[-67.037184,18.326319],[-67.052583,18.306655],[-67.116447,18.323401],[-67.130167,18.317927],[-67.134151,18.347538]]]}},{"type":"Feature","properties":{"municipality_id":"72101","name":"Morovis"},"geometry":{"type":"Polygon","coordinates":[[[-66.465142,18.352237],[-66.463211,18.371473],[-66.429227,18.370451],[-66.417885,18.37791],[-66.400998,18.363707],[-66.395585,18.371885],[-66.385925,18.344734],[-66.365272,18.333229],[-66.390046,18.27413],[-66.43774,18.256167],[-66.458175,18.258432],[-66.46482,18.28408],[-66.461474,18.3006],[-66.454837,18.300674],[-66.454289,18.332654],[-66.465142,18.352237]]]}},{"type":"Feature","properties":{"municipality_id":"72103","name":"Naguabo"},"geometry":{"type":"Polygon","coordinates":[[[-65.830684,18.218561],[-65.815664,18.262527],[-65.82422,18.273054],[-65.811424,18.290141],[-65.795542,18.289512],[-65.793223,18.296529],[-65.729865,18.252922],[-65.702403,18.259473],[-65.69325,18.250774],[-65.684234,18.253503],[-65.69287,18.238225],[-65.688319,18.231615],[-65.657799,18.222497],[-65.6618934230941,18.2072981007254],[-65.690818,18.196056],[-65.692434,18.178929],[-65.718021,18.190012],[-65.7391623571616,18.1735457444766],[-65.741408,18.182332],[-65.751282,18.176322],[-65.766046,18.182096],[-65.760504,18.195581],[-65.792477,18.206759],[-65.826063,18.200408],[-65.830684,18.218561]]]}},{"type":"Feature","properties":{"municipality_id":"72105","name":"Naranjito"},"geometry":{"type":"Polygon","coordinates":[[[-66.313299,18.249324],[-66.287876,18.269955],[-66.278076,18.329975],[-66.249613,18.325781],[-66.237798,18.332969],[-66.232044,18.324134],[-66.217179,18.334194],[-66.207488,18.323683],[-66.205908,18.306921],[-66.213537,18.306283],[-66.206135,18.27666],[-66.219106,18.274246],[-66.228094,18.254027],[-66.307073,18.241481],[-66.313299,18.249324]]]}},{"type":"Feature","properties":{"municipality_id":"72107","name":"Orocovis"},"geometry":{"type":"Polygon","coordinates":[[[-66.544415,18.147803],[-66.543133,18.163098],[-66.531556,18.155679],[-66.512043,18.166513],[-66.517857,18.229726],[-66.509024,18.229936],[-66.512208,18.242815],[-66.501073,18.256842],[-66.466652,18.245899],[-66.45419,18.251157],[-66.455703,18.257726],[-66.398213,18.26893],[-66.390046,18.27413],[-66.384028,18.290797],[-66.377712,18.293976],[-66.382626,18.27432],[-66.350793,18.241235],[-66.351631,18.194334],[-66.363734,18.200663],[-66.373768,18.173694],[-66.410062,18.16299],[-66.464004,18.178854],[-66.521945,18.152073],[-66.544415,18.147803]]]}},{"type":"Feature","properties":{"municipality_id":"72109","name":"Patillas"},"geometry":{"type":"Polygon","coordinates":[[[-66.087982,18.059119],[-66.081144,18.074107],[-66.065796,18.082099],[-66.053331,18.109254],[-66.019442,18.102576],[-66.010668,18.067894],[-65.988523,18.058941],[-65.971954,18.024463],[-65.952991,18.023449],[-65.953048,18.006339],[-65.943136,17.992612],[-65.9124712130352,17.9783713463352],[-65.977452,17.9676],[-65.993851,17.978678],[-66.0196186976345,17.9784668173975],[-66.046927,18.009097],[-66.041878,18.017094],[-66.048108,18.035614],[-66.057263,18.040434],[-66.082263,18.032958],[-66.087982,18.059119]]]}},{"type":"Feature","properties":{"municipality_id":"72111","name":"Peñuelas"},"geometry":{"type":"Polygon","coordinates":[[[-66.76969,18.087833],[-66.761063,18.111967],[-66.769117,18.135015],[-66.749618,18.113664],[-66.727526,18.113034],[-66.713595,18.132105],[-66.69407,18.130534],[-66.684467,18.118586],[-66.676826,18.091064],[-66.689446,18.040257],[-66.686768,17.991486],[-66.6991388728098,17.9774725731539],[-66.725262,17.99213],[-66.746367,17.990264],[-66.756566,17.975739],[-66.762695,17.980484],[-66.748489,18.010779],[-66.732925,18.017372],[-66.74172,18.030531],[-66.739257,18.047501],[-66.748821,18.046131],[-66.75564,18.056235],[-66.766289,18.039744],[-66.76969,18.087833]]]}},{"type":"Feature","properties":{"municipality_id":"72113","name":"Ponce"},"geometry":{"type":"MultiPolygon","coordinates":[[[[-66.529902,17.883959],[-66.524079,17.896399],[-66.510769,17.902053],[-66.513977,17.893911],[-66.529902,17.883959]]],[[[-66.6991388728098,17.9774725731539],[-66.686768,17.991486],[-66.689446,18.040257],[-66.676826,18.091064],[-66.69407,18.130534],[-66.676951,18.129977],[-66.670494,18.152831],[-66.649467,18.158857],[-66.631721,18.149772],[-66.628695,18.158625],[-66.612802,18.159077],[-66.591702,18.172156],[-66.552777,18.152282],[-66.565409,18.12982],[-66.549137,18.097089],[-66.555513,18.084555],[-66.545258,18.068753],[-66.53734,18.041286],[-66.540728,18.022921],[-66.53042,18.003075],[-66.541596,17.991605],[-66.5387975613996,17.9739752528068],[-66.579019,17.961722],[-66.595797,17.97048],[-66.613313,17.963252],[-66.627506,17.982748],[-66.673782,17.967079],[-66.6991388728098,17.9774725731539]]]]}},{"type":"Feature","properties":{"municipality_id":"72115","name":"Quebradillas"},"geometry":{"type":"Polygon","coordinates":[[[-66.96692,18.455665],[-66.959202,18.465781],[-66.963462,18.473019],[-66.950526,18.483407],[-66.9574744672855,18.4893461676306],[-66.9013837070024,18.4833248300563],[-66.898928,18.366117],[-66.920387,18.379563],[-66.922775,18.398161],[-66.947208,18.401482],[-66.933541,18.41878],[-66.96692,18.455665]]]}},{"type":"Feature","properties":{"municipality_id":"72117","name":"Rincón"},"geometry":{"type":"Polygon","coordinates":[[[-67.271223,18.362513],[-67.2391484719531,18.3755040025815],[-67.226738,18.36292],[-67.227336,18.348766],[-67.195748,18.330598],[-67.181877,18.311252],[-67.233589,18.299185],[-67.271223,18.362513]]]}},{"type":"Feature","properties":{"municipality_id":"72119","name":"Río Grande"},"geometry":{"type":"Polygon","coordinates":[[[-65.876686,18.362905],[-65.852538,18.4017],[-65.8288440858427,18.4230262331514],[-65.814779,18.409387],[-65.789576,18.421274],[-65.796105,18.404438],[-65.770432,18.413106],[-65.77267,18.401409],[-65.7499490827291,18.3850909862118],[-65.770546,18.365822],[-65.753513,18.341538],[-65.756018,18.328755],[-65.748718,18.326676],[-65.762494,18.305851],[-65.758861,18.290604],[-65.766831,18.280004],[-65.793223,18.296529],[-65.795542,18.289512],[-65.811424,18.290141],[-65.82422,18.273054],[-65.845601,18.27875],[-65.86824,18.293864],[-65.862594,18.303247],[-65.869662,18.317152],[-65.862761,18.32149],[-65.872836,18.335166],[-65.876686,18.362905]]]}},{"type":"Feature","properties":{"municipality_id":"72121","name":"Sabana Grande"},"geometry":{"type":"Polygon","coordinates":[[[-66.98504,18.103164],[-66.97085,18.127632],[-66.977855,18.143799],[-66.926517,18.151267],[-66.912668,18.121895],[-66.918565,18.0896],[-66.9036,18.06231],[-66.901033,18.039854],[-66.884834,18.025101],[-66.910931,18.023953],[-66.982675,18.041202],[-66.98504,18.103164]]]}},{"type":"Feature","properties":{"municipality_id":"72123","name":"Salinas"},"geometry":{"type":"Polygon","coordinates":[[[-66.342573,17.993662],[-66.33051,18.019363],[-66.312268,18.033501],[-66.309653,18.047719],[-66.279382,18.068916],[-66.242238,18.077148],[-66.234033,18.095187],[-66.218404,18.092607],[-66.215832,18.079655],[-66.201753,18.067639],[-66.202038,18.046113],[-66.166145,18.050063],[-66.179952,18.02574],[-66.205592,18.01298],[-66.2062100916793,17.9628874553955],[-66.246252,17.938894],[-66.257676,17.93685],[-66.278116,17.948156],[-66.288297,17.94264],[-66.29032,17.960596],[-66.320661,17.978452],[-66.3381465272209,17.9764313848006],[-66.342573,17.993662]]]}},{"type":"Feature","properties":{"municipality_id":"72125","name":"San Germán"},"geometry":{"type":"Polygon","coordinates":[[[-67.109044,18.056085],[-67.098626,18.071374],[-67.105566,18.073861],[-67.103016,18.104223],[-67.087005,18.103974],[-67.077937,18.112963],[-67.09415,18.1349],[-67.09144,18.147875],[-67.084016,18.148186],[-67.082144,18.168073],[-67.051461,18.174053],[-67.013575,18.165727],[-66.971757,18.138726],[-66.98504,18.103164],[-66.983337,18.052518],[-67.068517,18.066141],[-67.109044,18.056085]]]}},{"type":"Feature","properties":{"municipality_id":"72127","name":"San Juan"},"geometry":{"type":"Polygon","coordinates":[[[-66.124852,18.470225],[-66.038898,18.454271],[-66.043086,18.444054],[-66.029551,18.427223],[-65.99311,18.407274],[-65.991427,18.398484],[-66.002926,18.394824],[-65.999556,18.380065],[-66.025286,18.379803],[-66.035349,18.369681],[-66.035499,18.31984],[-66.048466,18.297648],[-66.056503,18.304528],[-66.085147,18.300507],[-66.08676,18.333045],[-66.099667,18.342625],[-66.097941,18.355902],[-66.088351,18.35714],[-66.090329,18.374734],[-66.106303,18.382581],[-66.108615,18.398756],[-66.094981,18.40582],[-66.107757,18.427517],[-66.081664,18.443825],[-66.124852,18.470225]]]}},{"type":"Feature","properties":{"municipality_id":"72129","name":"San Lorenzo"},"geometry":{"type":"Polygon","coordinates":[[[-66.052736,18.113514],[-66.035651,18.119204],[-66.023852,18.136443],[-66.022256,18.166035],[-66.011319,18.18606],[-65.999613,18.188708],[-65.989757,18.219617],[-65.971832,18.229101],[-65.949274,18.22795],[-65.951566,18.215569],[-65.929404,18.197433],[-65.932097,18.162181],[-65.920665,18.137823],[-65.924276,18.106764],[-65.933166,18.093754],[-65.962051,18.086497],[-65.978594,18.094834],[-66.010245,18.075565],[-66.019443,18.083723],[-66.012806,18.093959],[-66.019442,18.102576],[-66.042041,18.103839],[-66.052736,18.113514]]]}},{"type":"Feature","properties":{"municipality_id":"72131","name":"San Sebastián"},"geometry":{"type":"Polygon","coordinates":[[[-67.052583,18.306655],[-67.035934,18.329559],[-67.04374,18.349816],[-67.049315,18.347339],[-67.050093,18.349032],[-67.027173,18.393376],[-67.009142,18.395125],[-66.945589,18.37523],[-66.92202,18.393204],[-66.920387,18.379563],[-66.891869,18.365349],[-66.909977,18.302636],[-66.908541,18.252072],[-66.924707,18.260425],[-66.932474,18.253744],[-66.94623,18.273293],[-66.948204,18.266758],[-66.96508,18.271262],[-66.969384,18.263635],[-66.979645,18.276001],[-67.03819,18.28047],[-67.031192,18.289148],[-67.052583,18.306655]]]}},{"type":"Feature","properties":{"municipality_id":"72133","name":"Santa Isabel"},"geometry":{"type":"Polygon","coordinates":[[[-66.4520994100581,17.9819452022069],[-66.421054,18.019309],[-66.426989,18.042627],[-66.371759,18.032617],[-66.356779,18.036942],[-66.331244,18.015891],[-66.342573,17.993662],[-66.3381465272209,17.9764313848006],[-66.36381,17.967356],[-66.361383,17.958388],[-66.368213,17.96141],[-66.37029,17.951175],[-66.37617,17.955747],[-66.386202,17.938208],[-66.4520994100581,17.9819452022069]]]}},{"type":"Feature","properties":{"municipality_id":"72135","name":"Toa Alta"},"geometry":{"type":"Polygon","coordinates":[[[-66.319144,18.371592],[-66.306715,18.384224],[-66.271596,18.383741],[-66.234345,18.401464],[-66.19698,18.389289],[-66.204014,18.315908],[-66.217179,18.334194],[-66.232044,18.324134],[-66.237798,18.332969],[-66.249613,18.325781],[-66.278076,18.329975],[-66.290182,18.355167],[-66.30548,18.370063],[-66.312567,18.364446],[-66.319144,18.371592]]]}},{"type":"Feature","properties":{"municipality_id":"72137","name":"Toa Baja"},"geometry":{"type":"MultiPolygon","coordinates":[[[[-66.137294,18.466622],[-66.134534,18.472133],[-66.13556,18.466571],[-66.137294,18.466622]]],[[[-66.264323,18.420579],[-66.255069,18.43948],[-66.257999,18.45514],[-66.231674,18.449741],[-66.214605,18.465],[-66.193968,18.465797],[-66.184263,18.475641],[-66.183702,18.459465],[-66.173021,18.450952],[-66.162081,18.450699],[-66.144619,18.462421],[-66.1395928548984,18.4623310875803],[-66.153879,18.445796],[-66.162311,18.447663],[-66.172653,18.42105],[-66.197114,18.415656],[-66.19698,18.389289],[-66.234345,18.401464],[-66.254098,18.394898],[-66.256105,18.413951],[-66.264323,18.420579]]]]}},{"type":"Feature","properties":{"municipality_id":"72139","name":"Trujillo Alto"},"geometry":{"type":"Polygon","coordinates":[[[-66.041535,18.312344],[-66.033663,18.335236],[-66.035349,18.369681],[-66.025286,18.379803],[-65.998965,18.380108],[-65.961383,18.322722],[-65.938986,18.308743],[-65.942429,18.293469],[-65.962832,18.299697],[-65.968149,18.310153],[-66.006767,18.304371],[-66.041535,18.312344]]]}},{"type":"Feature","properties":{"municipality_id":"72141","name":"Utuado"},"geometry":{"type":"Polygon","coordinates":[[[-66.827209,18.244096],[-66.826039,18.323367],[-66.770277,18.320738],[-66.765203,18.332131],[-66.735947,18.349675],[-66.719833,18.336594],[-66.717302,18.315681],[-66.615303,18.332947],[-66.606905,18.328146],[-66.611215,18.322673],[-66.58134,18.320345],[-66.56662,18.298549],[-66.573338,18.300317],[-66.578757,18.284049],[-66.597374,18.284186],[-66.606337,18.238128],[-66.624584,18.24762],[-66.628492,18.214606],[-66.639623,18.207263],[-66.642166,18.183456],[-66.65228,18.182618],[-66.649467,18.158857],[-66.675622,18.150743],[-66.664697,18.175465],[-66.680358,18.185956],[-66.681225,18.203771],[-66.692572,18.215883],[-66.732181,18.225759],[-66.755807,18.223289],[-66.781701,18.250248],[-66.794425,18.24988],[-66.800469,18.227842],[-66.817271,18.230336],[-66.827209,18.244096]]]}},{"type":"Feature","properties":{"municipality_id":"72143","name":"Vega Alta"},"geometry":{"type":"Polygon","coordinates":[[[-66.378134,18.347548],[-66.358898,18.421032],[-66.347686,18.429397],[-66.353184,18.430471],[-66.349698,18.484164],[-66.335459,18.484545],[-66.3150439233446,18.4745435877741],[-66.317283,18.450396],[-66.301928,18.433741],[-66.303663,18.384077],[-66.314118,18.380876],[-66.321875,18.364695],[-66.338114,18.368053],[-66.340976,18.357626],[-66.355278,18.360643],[-66.348675,18.350843],[-66.358325,18.33072],[-66.378134,18.347548]]]}},{"type":"Feature","properties":{"municipality_id":"72145","name":"Vega Baja"},"geometry":{"type":"Polygon","coordinates":[[[-66.448994,18.389113],[-66.439413,18.410366],[-66.4388130977795,18.4857143878357],[-66.39827,18.492584],[-66.381522,18.482895],[-66.378417,18.488185],[-66.349698,18.484164],[-66.353184,18.430471],[-66.347686,18.429397],[-66.358898,18.421032],[-66.377058,18.344246],[-66.385925,18.344734],[-66.395585,18.371885],[-66.400998,18.363707],[-66.417885,18.37791],[-66.4438,18.371027],[-66.448994,18.389113]]]}},{"type":"Feature","properties":{"municipality_id":"72147","name":"Vieques"},"geometry":{"type":"Polygon","coordinates":[[[-65.577015,18.119722],[-65.544524,18.119996],[-65.446529,18.147002],[-65.436128,18.157964],[-65.399983,18.162165],[-65.302927,18.141222],[-65.288468,18.14803],[-65.267713,18.134003],[-65.294664,18.127807],[-65.308426,18.134595],[-65.307564,18.127778],[-65.334447,18.125276],[-65.346418,18.11103],[-65.352512,18.113918],[-65.340363,18.119763],[-65.361873,18.130666],[-65.375293,18.121676],[-65.376909,18.107386],[-65.409269,18.113881],[-65.418849,18.101408],[-65.429162,18.11329],[-65.436643,18.106408],[-65.423243,18.096137],[-65.437441,18.091527],[-65.440331,18.104295],[-65.448234,18.104648],[-65.441629,18.098292],[-65.447371,18.087764],[-65.456847,18.087998],[-65.456654,18.095616],[-65.479753,18.09657],[-65.532844,18.080144],[-65.569445,18.091991],[-65.577015,18.119722]]]}},{"type":"Feature","properties":{"municipality_id":"72149","name":"Villalba"},"geometry":{"type":"Polygon","coordinates":[[[-66.530031,18.10812],[-66.521945,18.152073],[-66.505679,18.163487],[-66.464004,18.178854],[-66.432773,18.172651],[-66.418836,18.139726],[-66.430494,18.116403],[-66.421379,18.098589],[-66.430341,18.082163],[-66.479103,18.087426],[-66.492478,18.098147],[-66.50578,18.093119],[-66.501994,18.085995],[-66.509632,18.08155],[-66.530031,18.10812]]]}},{"type":"Feature","properties":{"municipality_id":"72151","name":"Yabucoa"},"geometry":{"type":"Polygon","coordinates":[[[-66.010396,18.072011],[-65.978594,18.094834],[-65.962051,18.086497],[-65.952631,18.092959],[-65.941023,18.089423],[-65.924276,18.106764],[-65.926227,18.119963],[-65.907685,18.12603],[-65.883911,18.122827],[-65.870211,18.108426],[-65.848117,18.117488],[-65.840595,18.091222],[-65.796936,18.068544],[-65.801733,18.058716],[-65.818651,18.062925],[-65.83825,18.054005],[-65.831302,18.020478],[-65.8506850135727,18.0114722750958],[-65.864627,18.025698],[-65.88104,18.020796],[-65.896922,18.033837],[-65.933735,18.0368],[-65.97779,18.061093],[-66.000072,18.060275],[-66.010396,18.072011]]]}},{"type":"Feature","properties":{"municipality_id":"72153","name":"Yauco"},"geometry":{"type":"Polygon","coordinates":[[[-66.926517,18.151267],[-66.915609,18.154265],[-66.901236,18.146352],[-66.887886,18.153383],[-66.858513,18.137981],[-66.85012,18.162886],[-66.827327,18.171242],[-66.821028,18.152818],[-66.804058,18.148056],[-66.797579,18.133529],[-66.796056,18.121795],[-66.810756,18.112967],[-66.802236,18.091056],[-66.823988,18.048002],[-66.818139,18.029533],[-66.830173,18.017799],[-66.826006,18.000102],[-66.83495,17.988509],[-66.836563,17.965883],[-66.8524517409495,17.9548167648624],[-66.8595678317312,17.9546018756881],[-66.863216,17.965291],[-66.86604,18.003195],[-66.885705,18.020469],[-66.887484,18.034075],[-66.901033,18.039854],[-66.919509,18.092775],[-66.912668,18.121895],[-66.926517,18.151267]]]}}]}