{"type":"FeatureCollection","features":[{"type":"Feature","properties":{"area_code":"2","department_ids":["BO02","BO04","BO05"],"departments":["La Paz","Oruro","Potosí"]},"geometry":{"type":"MultiPolygon","coordinates":[[[[-69.13110350199992,-16.055613030999893],[-69.01219942699993,-16.112744211999882],[-68.9509308619999,-16.17987447299987],[-68.85761254699992,-16.215902840999888],[-68.8306450319999,-16.237024479999832],[-68.83654248399989,-16.27264344199989],[-68.89187552399994,-16.26010053199991],[-68.88891823599988,-16.23403499299991],[-68.93889139799995,-16.194490366999958],[-68.98501842699994,-16.191416067999967],[-69.0171145519999,-16.22308243099991],[-69.05545211799995,-16.198190480999926],[-69.10240843599996,-16.22563692899996],[-69.09316724499996,-16.214782419999892],[-69.12559803499994,-16.200487779999946],[-69.12346323999998,-16.185545340999965],[-69.07492129499991,-16.14706402499985],[-69.09377471999994,-16.1299948329999],[-69.08259442799994,-16.12491439699994],[-69.09286624899994,-16.10230660999997],[-69.11505984799993,-16.097250012999893],[-69.11652531999994,-16.094805592999876],[-69.1236203009999,-16.089401429999953],[-69.12932332299988,-16.082864521999966],[-69.13280891599999,-16.080841624999948],[-69.13562373199983,-16.077527389999887],[-69.11175880799993,-16.09472320899988],[-69.13110350199992,-16.055613030999893]]],[[[-69.13878313999993,-16.050506317999975],[-69.13735763099993,-16.050583492999976],[-69.13760196899989,-16.051375717999974],[-69.13878313999993,-16.050506317999975]]],[[[-69.0807250769999,-16.03155246499989],[-69.06130935399989,-16.047996024999918],[-69.08184524899997,-16.031652795999946],[-69.0807250769999,-16.03155246499989]]],[[[-69.19257636199995,-15.98161936699995],[-69.14422434699992,-16.023594997999965],[-69.14099229699991,-16.052640404999977],[-69.17273246899998,-16.029085764999877],[-69.16266074499998,-16.056435474999944],[-69.18671774199998,-16.03275108799994],[-69.20180135499993,-16.008462513999973],[-69.18981432399994,-16.00709383799989],[-69.21430811899995,-15.988213199999905],[-69.19257636199995,-15.98161936699995]]],[[[-69.21609179099983,-15.998462653999923],[-69.22036724399999,-15.994852789999925],[-69.2143075699999,-15.997808711999824],[-69.21609179099983,-15.998462653999923]]],[[[-69.17864562699992,-15.985844570999973],[-69.1759811789999,-15.986913133999906],[-69.17607389699992,-15.987366973999883],[-69.17864562699992,-15.985844570999973]]],[[[-69.19060801599989,-15.976905942999963],[-69.19091373699996,-15.978460496999958],[-69.19221027999998,-15.975789732999885],[-69.19060801599989,-15.976905942999963]]],[[[-69.2080560359999,-15.96980285199993],[-69.20631034499996,-15.96994854199994],[-69.20749465299991,-15.97108329699995],[-69.2080560359999,-15.96980285199993]]],[[[-69.2308465129999,-15.967720502999953],[-69.22863581999997,-15.96764542699998],[-69.22883233799996,-15.968495167999947],[-69.2308465129999,-15.967720502999953]]],[[[-69.21544182299994,-15.95789963599998],[-69.21810039599984,-15.956541409999943],[-69.21773083999989,-15.954694877999941],[-69.21544182299994,-15.95789963599998]]],[[[-69.28879477999993,-15.74572179299986],[-69.29045357899997,-15.743518377999976],[-69.29010703599988,-15.742922774999897],[-69.28879477999993,-15.74572179299986]]],[[[-69.21175775699987,-15.713796084999956],[-69.2120747759999,-15.713497442999937],[-69.21183207699988,-15.71346151399996],[-69.21175775699987,-15.713796084999956]]],[[[-69.21141101299997,-15.712422268999944],[-69.21159729199991,-15.712051428999928],[-69.21141990599989,-15.711997357999962],[-69.21141101299997,-15.712422268999944]]],[[[-69.21101766399994,-15.711102739999944],[-69.21175340499997,-15.709583226999882],[-69.21138880399997,-15.708986908999918],[-69.21101766399994,-15.711102739999944]]],[[[-69.34065683399996,-15.671254958999896],[-69.32926235999997,-15.681137544999956],[-69.3201510479999,-15.694425050999882],[-69.33876295899995,-15.677596171999937],[-69.34067253799992,-15.674935139999945],[-69.34065683399996,-15.671254958999896]]],[[[-66.71242440099991,-18.116622835999976],[-66.63694229299989,-18.118891899999937],[-66.60457367199984,-18.083463272999893],[-66.56459373099989,-18.07599147199994],[-66.52341319299995,-18.08952938999994],[-66.53345313899985,-18.058439179999937],[-66.43141547499988,-17.973436162999974],[-66.32017327899996,-17.949468123999964],[-66.28088923099995,-17.96602092199987],[-66.25165825699997,-17.93426389799987],[-66.24723606899988,-17.953167869999845],[-66.22602776899998,-17.95262605499994],[-66.19697216199995,-17.92620845099998],[-66.16720200999993,-17.927125192999938],[-66.11646480799988,-17.858308117999968],[-66.10048108699988,-17.807111058999965],[-66.0438705439999,-17.83884124399998],[-65.98855498499995,-17.935186693999924],[-65.94308945699999,-17.95618686099988],[-65.93395765399998,-17.992085136999947],[-65.84507885799997,-17.97424398399994],[-65.7089104879999,-18.07827889999993],[-65.68085602699983,-18.116553617999898],[-65.63797667799997,-18.137410515999875],[-65.5647727949999,-18.23419941799989],[-65.50230903499994,-18.25727269899994],[-65.43940885399985,-18.365136183999937],[-65.40437863099999,-18.367276816999947],[-65.34567202199997,-18.417877617999977],[-65.36607611999995,-18.435590088999902],[-65.50702806999988,-18.386720428999922],[-65.54646070699982,-18.40459537499993],[-65.59083251499987,-18.37480639099988],[-65.69410694899994,-18.352705904999937],[-65.68423147099998,-18.41710497199989],[-65.62406746299996,-18.462033980999934],[-65.62380893699998,-18.50112345699995],[-65.58386869699996,-18.498336907999942],[-65.52608164799994,-18.526486384999885],[-65.51427876399993,-18.54748136899991],[-65.49604376899998,-18.535785913999973],[-65.50130291099993,-18.563982495999937],[-65.48602454999991,-18.590753677999942],[-65.4367476029999,-18.616014627999903],[-65.42163148499992,-18.605045092999887],[-65.3813261709999,-18.640835426999956],[-65.41913370699996,-18.66316122199993],[-65.40061907899997,-18.701991375999967],[-65.42917743999982,-18.748015615999975],[-65.4074389029999,-18.772981124999887],[-65.36471433099996,-18.774416896999924],[-65.35644547899989,-18.786449389999973],[-65.37144090499999,-18.77883289199991],[-65.3871045649999,-18.796223660999885],[-65.41764734799989,-18.778856049999945],[-65.44383002799998,-18.83317779899994],[-65.4287136289999,-18.837211158999878],[-65.42421877099997,-18.87893943399996],[-65.39783189299993,-18.919555725999885],[-65.41376983399988,-18.945415922999928],[-65.44103876999998,-18.918476306999935],[-65.48086116399992,-18.925933301999976],[-65.5324145909999,-18.976513199999886],[-65.58732292099984,-18.997728149999944],[-65.54604654899993,-19.081804358999932],[-65.5177083239999,-19.096443121999926],[-65.49671719099985,-19.08916100499988],[-65.46990199999988,-19.122626878999938],[-65.40624758599984,-19.143824665999887],[-65.36981659399999,-19.25559790699998],[-65.33037141499989,-19.271379261999925],[-65.31042817699995,-19.306162408999967],[-65.23068472999995,-19.320450353999888],[-65.21513544899983,-19.343884300999946],[-65.14100564299997,-19.37808312599998],[-65.08824095599994,-19.36682908199998],[-65.05456924699996,-19.385696201999906],[-65.00412747799987,-19.351956754999946],[-64.91328755499995,-19.35442071799997],[-64.89557484299996,-19.39956671999994],[-64.8525877699999,-19.41022878299998],[-64.82313916599998,-19.483486404999894],[-64.84284753299994,-19.589584408999883],[-64.78704042899989,-19.633169202999966],[-64.71438740699995,-19.77956722499988],[-64.73928738799987,-19.789840419999905],[-64.77654540599991,-19.84100495599995],[-64.79497269099994,-19.902795425999898],[-64.82919250299989,-19.93313290499998],[-64.85082530999995,-19.98108743299997],[-64.89082588099996,-19.96364092099992],[-64.91433354899988,-19.84216716499992],[-64.94162328399995,-19.876512468999977],[-64.99092849899989,-19.85326964099994],[-65.03015581099999,-19.79459498899996],[-65.05670371999992,-19.79365987099993],[-65.0831295989999,-19.931907794999972],[-65.0598359949999,-19.95330525199995],[-65.09060667199992,-20.00944070799983],[-65.15217176899989,-20.012403727999924],[-65.20325937899997,-19.937952649999943],[-65.22228376399994,-19.935909374999937],[-65.27028980399996,-20.00386091099989],[-65.30499885399996,-20.009334255999875],[-65.23264477999993,-20.140480345999947],[-65.30162643199998,-20.177790664999975],[-65.31566194499999,-20.225084223999886],[-65.28260106999994,-20.23274041299993],[-65.22117129899988,-20.31880729999989],[-65.2514598169999,-20.37960145799991],[-65.24353552499997,-20.415057941999862],[-65.2623703839999,-20.42384710199991],[-65.2573380419999,-20.44708302899994],[-65.27144639099998,-20.457687879999924],[-65.2685943969999,-20.50470674999997],[-65.3275965819999,-20.51186625899993],[-65.35005344299992,-20.54839222699991],[-65.3877657249999,-20.55755173299997],[-65.34717260399992,-20.62263749599998],[-65.36452312799997,-20.677217965999887],[-65.35721645599989,-20.72710668699989],[-65.37628767999985,-20.75116574499998],[-65.34615753599996,-20.863018242999942],[-65.37581708099998,-20.869081102999928],[-65.39470532299998,-20.892136862999962],[-65.39990662499991,-21.006919659999937],[-65.42060823399999,-21.06126632999991],[-65.40249274699994,-21.160711453999966],[-65.44165712199998,-21.181074229999922],[-65.43708922799993,-21.42654063099991],[-65.40768686699988,-21.43193062399996],[-65.40572825699985,-21.48465800599996],[-65.38770644499988,-21.516353305999928],[-65.35341721599997,-21.500766168999974],[-65.32011358099999,-21.51732302099998],[-65.31167152799998,-21.48580442599996],[-65.24981265999986,-21.482379088999892],[-65.24514803299991,-21.57004417899992],[-65.26279819999996,-21.636579337999876],[-65.30429982199985,-21.688746521999917],[-65.29255399099992,-21.731798798999876],[-65.3138598189999,-21.730943865999905],[-65.35463758399987,-21.83760698999987],[-65.38951740399989,-21.84147449699998],[-65.39670377299996,-21.879297668999982],[-65.41991236999996,-21.895632573999876],[-65.33618351199993,-21.96476738099983],[-65.29876339499998,-21.978160596999885],[-65.26176461099988,-21.971183978999875],[-65.18500213299995,-22.013090370999976],[-65.18664166699989,-22.08535],[-65.48481944499997,-22.09554999999989],[-65.57491944399993,-22.075536110999963],[-65.58936452699999,-22.098696141999937],[-65.74802351799997,-22.10924140399993],[-65.80484239499998,-22.075250016999973],[-65.92479795199989,-21.93355001899988],[-66.04818961899997,-21.919016685999907],[-66.04328961999988,-21.871938907999947],[-66.07630906399999,-21.834975019999888],[-66.22147978099991,-21.781371169999886],[-66.24283373899988,-21.793656720999877],[-66.23535223099992,-21.850752329999978],[-66.27481609999995,-21.944097418999945],[-66.28949398199995,-22.086983558999975],[-66.32048896699996,-22.084377869999912],[-66.33202568099995,-22.118827559999943],[-66.35698333399995,-22.13215555599993],[-66.62317777799996,-22.197380555999928],[-66.63826388899992,-22.225486110999896],[-66.68625,-22.209538888999873],[-66.73928888899997,-22.238458332999926],[-66.78247499999986,-22.438075],[-66.92856666599988,-22.492227776999925],[-66.97295555499994,-22.540658332999897],[-67.027275,-22.540883333999943],[-67.01408333299997,-22.65481388899991],[-67.12777222299985,-22.722113888999843],[-67.1805104899999,-22.813974857999938],[-67.58798856799996,-22.906568378999907],[-67.79902886899993,-22.88116066299989],[-67.83254281599983,-22.850436775999924],[-67.88315013399995,-22.834448019999968],[-67.88918733399998,-22.702344722999953],[-67.86911872899992,-22.691416540999967],[-67.87795752599993,-22.66610253099998],[-67.8533634449999,-22.557292015999963],[-67.89261027599986,-22.499137764999944],[-67.89863425199991,-22.423937587999887],[-67.95138151999998,-22.330442540999968],[-67.92251502199997,-22.25254055099998],[-67.95518926899996,-22.177825351999957],[-67.93920319499983,-22.10856232599997],[-67.9651614629999,-22.05414271999996],[-68.00741114799996,-22.039504122999972],[-68.07195560399998,-21.980158827999958],[-68.05987358999994,-21.777901547999875],[-68.18056474499991,-21.60407232299991],[-68.17836705399998,-21.303541829999972],[-68.29505731699993,-21.09781912999989],[-68.41571501399989,-20.941426366999963],[-68.5034719599999,-20.94290108599995],[-68.56913548399996,-20.894528408999975],[-68.54105940699998,-20.801376149999953],[-68.55156769999996,-20.728147053999976],[-68.53212475699985,-20.722890451999945],[-68.50161374099991,-20.668845852999937],[-68.43932243699999,-20.64405283199983],[-68.44867626699988,-20.62415819299997],[-68.57093035699995,-20.57555453899988],[-68.73874209199994,-20.45678941199992],[-68.74182467899993,-20.369449203999977],[-68.65936669199994,-20.33549324899991],[-68.6656178849999,-20.305786414999886],[-68.69239445799985,-20.29553407499992],[-68.71497740599989,-20.246754977999956],[-68.7139491669999,-20.195052700999952],[-68.69170350599995,-20.177214152999966],[-68.70207021599998,-20.143510449999894],[-68.7417384549999,-20.12521289799986],[-68.77387327799988,-20.129690335999953],[-68.76348415099994,-20.078681205999885],[-68.64041638999998,-20.04886419899998],[-68.56624363199995,-20.05007049099987],[-68.52161523099988,-19.924265833999925],[-68.54229633599988,-19.889993528999923],[-68.52815354199998,-19.84528549399994],[-68.59933709799998,-19.828034851999917],[-68.62076172899992,-19.78907489799991],[-68.68886197799998,-19.74841164399993],[-68.68354516899996,-19.71940733599996],[-68.62317290199985,-19.70061063799983],[-68.57245012499993,-19.605494219999912],[-68.44063133199995,-19.44039048899998],[-68.40487113699999,-19.41615757799991],[-68.54276491999985,-19.296670520999896],[-68.61973480899997,-19.276514288999977],[-68.62828491899995,-19.25104484399992],[-68.80588754899998,-19.083412939999903],[-68.88964713099989,-19.043426331999967],[-68.95019591599993,-18.936767756999927],[-68.91235407199997,-18.892446504999953],[-68.92622025099985,-18.843132522999895],[-68.98704230999994,-18.750136972999883],[-68.9715216059999,-18.73241561799989],[-68.98539652199992,-18.67738377099988],[-69.03702694899988,-18.613554029999875],[-69.00219218599989,-18.588375393999968],[-69.01690896699995,-18.57237100699996],[-69.02519370099992,-18.46118076599987],[-69.05501045199998,-18.37559639899996],[-69.03798610999996,-18.322664433999932],[-69.0749038319999,-18.29172231799987],[-69.06526834999988,-18.23990689699997],[-69.14234131099983,-18.16324951199988],[-69.12693715099988,-18.127336195999874],[-69.07133132399997,-18.0749163239999],[-69.07948875999995,-18.04685575399992],[-69.22212353499998,-17.97966398999995],[-69.24722915599989,-17.982136579999974],[-69.25653843299989,-17.953960693999875],[-69.2759677489999,-17.969334068999956],[-69.28882364099991,-17.959885649999933],[-69.31237794299994,-17.91362891599988],[-69.29928691799995,-17.85526854899996],[-69.33485503999998,-17.73440463599991],[-69.46787186999995,-17.604875037999875],[-69.469175,-17.373544444999936],[-69.57586080599992,-17.291408265999962],[-69.64524603599989,-17.281421467999905],[-69.61680277799996,-17.261655554999948],[-69.60369158099996,-17.21965238399997],[-69.57837046699996,-17.206463972999927],[-69.55795833299999,-17.165588888999935],[-69.51550833299996,-17.14971111099993],[-69.45114722199997,-17.09403611099998],[-69.43253333299992,-17.11032777799994],[-69.37397009599994,-17.072396592999894],[-69.39458166199995,-17.022155098999917],[-69.36862976099997,-16.988916220999954],[-69.34003220899996,-16.98753191499992],[-69.30444633899998,-16.916613268999924],[-69.18772633899994,-16.796613753999964],[-69.16979578899998,-16.727333196999894],[-69.00957081499996,-16.667079336999905],[-68.99725038199983,-16.64187940499994],[-69.03392156299998,-16.605990353999914],[-69.0293615999999,-16.553216975999874],[-68.92026284099995,-16.597464120999916],[-68.84466790499994,-16.585532988999944],[-68.82892938899988,-16.557280021999873],[-68.84989673199993,-16.53392568499993],[-68.82208508399998,-16.52835031799998],[-68.83997515599998,-16.515096562999872],[-68.82597399099996,-16.48813279399991],[-68.88188761599991,-16.467984738999974],[-68.95700388599994,-16.47164586699995],[-68.94664182899993,-16.43739345299997],[-68.7278878699999,-16.42162639499992],[-68.6760326399999,-16.350707489999934],[-68.69501722299998,-16.331162572999972],[-68.71695485799984,-16.350245986999937],[-68.73126559999997,-16.32837535099992],[-68.69156177999997,-16.3264109349999],[-68.69381264099997,-16.306154309999954],[-68.60706225599989,-16.3357938339999],[-68.58521995899986,-16.321458502999974],[-68.60148212299998,-16.282483853999963],[-68.58137482199993,-16.27308199199996],[-68.57909377899995,-16.284449881999933],[-68.56706412099999,-16.267562846999965],[-68.60371225699993,-16.19975694999988],[-68.62652751199994,-16.197502080999982],[-68.65851308999993,-16.220135071999948],[-68.80451904699999,-16.180325177999975],[-68.82635141599991,-16.223488707999934],[-68.84925749099989,-16.215807969999958],[-68.84360998199998,-16.166277363999882],[-68.85549615599996,-16.157608023999956],[-68.86304528699992,-16.17124555399994],[-68.8644479859999,-16.142879947999973],[-68.91028539999996,-16.07224039199997],[-68.89449004899996,-16.07706495699989],[-68.86490216899989,-16.047008939999955],[-68.87367363399994,-16.07499973199998],[-68.85821870399997,-16.075699696999948],[-68.81831904499995,-16.01072407099997],[-68.76833223499989,-16.029962799999964],[-68.74004308099995,-16.01735698699997],[-68.75653737099992,-16.00161685199987],[-68.73954590899996,-16.002379216999884],[-68.75267533299996,-15.979227152999897],[-68.71523664599994,-15.973158480999928],[-68.73003156199991,-15.969264001999932],[-68.71513131899997,-15.959284877999949],[-68.72160775799995,-15.94366611799984],[-68.75435828499991,-15.932099979999862],[-68.78379909099993,-15.955793650999965],[-68.84941511299996,-15.922572435999882],[-68.89553067799989,-15.939135540999871],[-69.00953452099998,-15.863805268999897],[-69.03157053899997,-15.808593315999815],[-69.10389703699985,-15.717107776999853],[-69.1147267039999,-15.714229769999918],[-69.1112414179999,-15.728395871999908],[-69.1815342399999,-15.710024638999982],[-69.18974196999994,-15.69658353099993],[-69.15351263699989,-15.697629856999924],[-69.14607219099997,-15.688813380999932],[-69.18785862499988,-15.656269327999894],[-69.21128584999997,-15.677259684999967],[-69.25466759099993,-15.67666905599998],[-69.2590545999999,-15.640478631999883],[-69.3046235299999,-15.606156191999958],[-69.28879210899998,-15.60147982199993],[-69.29474298399992,-15.577043104999973],[-69.27852364099988,-15.568914180999911],[-69.33091034099982,-15.53695005499992],[-69.3085354619999,-15.503127563999897],[-69.31593412599995,-15.469530563999967],[-69.29045052599997,-15.437036348999925],[-69.25336944399999,-15.469555554999943],[-69.24058333299996,-15.460619443999974],[-69.2474749999999,-15.370991666999885],[-69.23073948199993,-15.335894203999885],[-69.19594959799991,-15.31411168699998],[-69.16379715699998,-15.25142920199994],[-69.15698122299995,-15.268290492999881],[-69.11985020399999,-15.258968661999972],[-69.1351565999999,-15.219314655999938],[-69.19014305999997,-15.158810373999927],[-69.24344158599996,-15.112112797999885],[-69.27709800199989,-15.111460560999944],[-69.29968232599998,-15.048422778999907],[-69.35261018299991,-14.974850085999947],[-69.36439444399997,-14.929779166999879],[-69.34349674899994,-14.882753682999976],[-69.35746633699989,-14.812755797999955],[-69.31627349999997,-14.774786265999921],[-69.23051111199999,-14.748736110999971],[-69.25803309899993,-14.685470793999968],[-69.22645007899996,-14.627604388999941],[-69.22551483099994,-14.58093908199993],[-69.14924622599995,-14.576314633999857],[-69.1493304579999,-14.51268367299997],[-69.12220649299991,-14.509476971999902],[-69.11347865199991,-14.488105295999901],[-69.06174137399995,-14.461596750999945],[-69.00193694799998,-14.384718911999812],[-68.98462300799997,-14.335032249999927],[-68.98524543699995,-14.237435458999926],[-68.82772140899993,-14.229764877999969],[-68.8565368429999,-14.16402499599991],[-68.83417244899982,-14.14414828699995],[-68.87203764199984,-14.110499306999827],[-68.8825366619999,-14.059368275999873],[-68.9366397259999,-14.026484046999883],[-68.97946392199998,-13.975761340999952],[-68.96342185499992,-13.949503155999935],[-68.98346477899997,-13.929833967999912],[-68.97886454199994,-13.880445215999885],[-68.99504889999992,-13.844793109999898],[-68.97555696799992,-13.761181045999933],[-69.02612299299983,-13.739046637999934],[-69.06790794199998,-13.685730749999891],[-69.04510820399992,-13.643289436999964],[-68.99512942199993,-13.652641925999944],[-69.00435389799998,-13.62247952399997],[-68.95309357999997,-13.60494059299998],[-68.95268370899998,-13.535454698999956],[-68.91623791599989,-13.52058225999997],[-68.8888133989999,-13.371338330999833],[-68.86770834399994,-13.357963765999955],[-68.88103869399993,-13.342476630999954],[-68.86791157099987,-13.332457567999882],[-68.88028082199992,-13.330998304999923],[-68.86175009099998,-13.319223815999976],[-68.86945667099997,-13.298640483999975],[-68.85380111899997,-13.283487466999873],[-68.86205258299992,-13.270315381999978],[-68.84941281399995,-13.269680194999978],[-68.86093634999997,-13.257409620999908],[-68.84493295599992,-13.246942765999961],[-68.87334216599993,-13.181204960999878],[-68.86008219699988,-13.184320303999982],[-68.85628115399999,-13.17063060899983],[-68.87173798499998,-13.16715768299997],[-68.85783121499998,-13.150017514999945],[-68.87857569099998,-13.13702582999997],[-68.85975321599994,-13.095132642999943],[-68.86355777599994,-13.047463608999976],[-68.84864140199988,-13.047156248999954],[-68.86774530199995,-13.031561345999876],[-68.85354069699997,-13.01546981999985],[-68.87589783399994,-13.01464408499993],[-68.86604446599983,-12.995258332999981],[-68.87896743499988,-12.9868309229999],[-68.8613682539999,-12.980369416999963],[-68.86642414099998,-12.969605560999923],[-68.87607987199988,-12.979694962999929],[-68.88394051799997,-12.955990727999904],[-68.85912383499993,-12.947682292999843],[-68.87507589099994,-12.938209896999979],[-68.86014228999989,-12.925755009999932],[-68.87574434399994,-12.91829928999988],[-68.87053836799987,-12.868009704999963],[-68.83439517299996,-12.858155894999982],[-68.83983568399998,-12.82312715099988],[-68.82413404099987,-12.804273555999941],[-68.80768659299997,-12.80866440899996],[-68.81892557799995,-12.791941046999966],[-68.80474323499993,-12.78418613499997],[-68.80473983699994,-12.755793310999934],[-68.79157356699989,-12.760369846999879],[-68.78037297799989,-12.732152173999907],[-68.76731152699983,-12.742943548999904],[-68.72857881999988,-12.713517372999945],[-68.74330974999998,-12.708728920999874],[-68.7124152639999,-12.680603493999968],[-68.73446517799994,-12.6681119779999],[-68.74171800599999,-12.634072445999948],[-68.7325757029999,-12.610568085999944],[-68.69264842099989,-12.585058026999889],[-68.69166565999996,-12.55738835699998],[-68.67420874499999,-12.552343259999873],[-68.68304444599994,-12.523358849999966],[-68.65684320499997,-12.536304172999905],[-68.65221383999983,-12.497742007999875],[-68.6183334349999,-12.495373821999976],[-68.55862139999988,-12.454256530999885],[-68.58817527099995,-12.396930587999861],[-68.51956209399992,-12.39518563099989],[-68.4856310369999,-12.420293369999968],[-68.45716393299989,-12.417417489999934],[-68.40462144799994,-12.363592081999911],[-68.41500523399998,-12.274576018999937],[-68.40410297599993,-12.254215682999927],[-68.3582283529999,-12.222503775999883],[-68.29287784099984,-12.224617435999903],[-68.24029565299998,-12.180728595999938],[-68.22528709999995,-12.138272220999909],[-68.23658113999994,-12.012786688999824],[-68.09834811399992,-12.034809882999923],[-67.97758632099988,-11.935865656999965],[-67.99626249599999,-11.8496811199999],[-66.9673100199999,-12.490341303999855],[-66.91741632699996,-12.533848940999974],[-66.96951090199991,-12.567833149999956],[-66.97691120699994,-12.592710551999971],[-66.946767,-12.599367575999963],[-66.92652436899994,-12.625557572999924],[-66.95113190999996,-12.623595575999957],[-66.97529120299998,-12.656898971999908],[-66.9393904779999,-12.684959300999935],[-66.97125251199998,-12.69027400899995],[-66.95329241599995,-12.72808487299983],[-66.98309020299996,-12.733335162999936],[-66.94779731999995,-12.79030936199996],[-66.95403623099986,-12.802194347999944],[-66.98342717099985,-12.783051917999899],[-66.98309347699995,-12.809711783999944],[-66.94289684799992,-12.825995575999912],[-66.94918763599998,-12.843548281999972],[-66.96677946199998,-12.83634405099997],[-66.99017765199989,-12.851192026999968],[-66.99514500399994,-12.888533562999896],[-67.03479703799991,-12.892373430999896],[-67.03359529599987,-12.908912185999895],[-66.99813898199994,-12.91662020699988],[-67.03659419099995,-12.93192946299996],[-67.03840929799992,-12.974125574999903],[-67.07024434199997,-12.994355232999965],[-67.04339086099998,-13.013127882999981],[-67.04668938599997,-13.051257335999935],[-67.0654302179999,-13.028743070999951],[-67.09342507399992,-13.045711748999906],[-67.09600635599992,-13.02545583299991],[-67.11126324399999,-13.031154905999927],[-67.1063642169999,-13.06846609999991],[-67.11484782699995,-13.047941001999959],[-67.14811472999997,-13.05294212799987],[-67.13443373699982,-13.092218091999825],[-67.18743257999995,-13.125789002999966],[-67.16935707599998,-13.13476430899982],[-67.16027060399989,-13.166395475999877],[-67.22560820999996,-13.168409313999973],[-67.19794732799994,-13.195283003999975],[-67.26674907399996,-13.209625719999963],[-67.25117372999989,-13.258286444999897],[-67.27572978099988,-13.241694205999977],[-67.29537494899995,-13.250518162999924],[-67.26702847299998,-13.261706365999885],[-67.26636007299999,-13.29278794399994],[-67.28610373299989,-13.304096801999947],[-67.29405844899992,-13.272498678999966],[-67.30013637699994,-13.305130541999972],[-67.35702150799989,-13.34786343999997],[-67.32873107999995,-13.365783018999878],[-67.39021837299993,-13.39674351699989],[-67.3772141209999,-13.420042823999893],[-67.39589111499998,-13.437696462999952],[-67.35521093099993,-13.446207105999974],[-67.38887669499996,-13.456153644999972],[-67.38748293099991,-13.47810612099994],[-67.34776988499993,-13.471468498999968],[-67.37541006399994,-13.515857682999979],[-67.40442937099988,-13.529463478999958],[-67.3818772539999,-13.538583258999893],[-67.37781658299991,-13.56805290299991],[-67.3534104879999,-13.569636555999978],[-67.3632949609999,-13.608958587999894],[-67.38819054299984,-13.603526846999898],[-67.36354021999995,-13.638225157999898],[-67.43481661199996,-13.657615023999881],[-67.41711836899998,-13.70425789299992],[-67.43149977999997,-13.71022333299993],[-67.42661196399996,-13.734500005999905],[-67.45878141699995,-13.712682895999876],[-67.45042219199996,-13.738420145999896],[-67.5251735629999,-13.783162788999903],[-67.48175758899998,-13.794546458999946],[-67.51591406099993,-13.832709422999926],[-67.48639915199988,-13.853571433999889],[-67.45954670799995,-13.846010348999926],[-67.51183706599983,-13.906216712999878],[-67.48468410599992,-13.915068768999902],[-67.5325579869999,-13.959881905999964],[-67.52699672199992,-14.017209402999981],[-67.54835476099998,-14.031569855999862],[-67.49402254099994,-14.064795561999972],[-67.55042611199997,-14.096596732999956],[-67.50483271299998,-14.112385331999917],[-67.53430897699991,-14.192138333999878],[-67.50908602699991,-14.227304581999874],[-67.51858959599997,-14.256230738999875],[-67.47305145099995,-14.291924491999907],[-67.51700946899996,-14.294074740999918],[-67.56217286399993,-14.343853776999822],[-67.53634557599997,-14.348808622999968],[-67.55812779799993,-14.369520214999909],[-67.54169908399996,-14.386059029999956],[-67.55858887999989,-14.408852719999913],[-67.53287974299997,-14.417089775999955],[-67.53394530299994,-14.45007755599994],[-67.50916564499994,-14.493022913999823],[-67.4815698519999,-14.50355417999998],[-67.49940248399992,-14.560933312999964],[-67.53762744299996,-14.593093766999857],[-67.51980805399995,-14.642029811999976],[-67.52878950899986,-14.651668774999962],[-67.51038729699997,-14.644852862999869],[-67.49720974299998,-14.686312774999976],[-67.47573228099998,-14.686589047999917],[-67.47946454899994,-14.697640280999906],[-67.41638131999997,-14.744785360999913],[-67.42424165199986,-14.762302409999961],[-67.38655590999986,-14.817910818999906],[-67.40821999699983,-14.82779458999994],[-67.40033266799986,-14.865715002999934],[-67.43149518699988,-14.89402307499995],[-67.4155448979999,-14.907414962999894],[-67.42864820199986,-14.923713395999982],[-67.41265722299988,-14.950488350999876],[-67.41920928799993,-14.970794857999977],[-67.40661442099986,-14.971802478999962],[-67.41639663899991,-14.989202336999881],[-67.39379681299988,-14.988351595999916],[-67.38606471099996,-15.019834512999978],[-67.36233974699991,-15.033138501999872],[-67.35595389499986,-15.020948743999895],[-67.33495900799983,-15.044811686999822],[-67.30083940599991,-15.043447543999946],[-67.29026228399988,-15.027110767999943],[-67.23791410699994,-15.058558827999946],[-67.23846550499991,-15.114631334999899],[-67.21315149599997,-15.112607840999829],[-67.19092247599997,-15.1383041819999],[-67.19654822799993,-15.154649725999946],[-67.17078059199997,-15.164459866999891],[-67.1368792799999,-15.221309561999874],[-67.13568431699991,-15.274674926999978],[-67.08138875799995,-15.314549881999824],[-67.11832669899991,-15.393299725999952],[-66.96231259199993,-15.506770633999963],[-66.89961333499997,-15.60405648699998],[-66.90690913999998,-15.640224547999821],[-66.79542337099997,-15.78510253199994],[-66.83680437599992,-15.796661810999979],[-66.86047877499988,-15.783089409999832],[-66.90744737899996,-15.844246451999936],[-66.86880512299996,-15.93543237299997],[-66.90515112799994,-15.962899525999944],[-66.9208403099999,-15.998250149999933],[-66.90907876699993,-16.04731695499987],[-66.92048370899988,-16.0914383569999],[-66.84431461199995,-16.194995322999887],[-66.84987199099999,-16.25156934499995],[-66.8003913149999,-16.295614595999893],[-66.78876099799993,-16.484516876999976],[-66.73211343199989,-16.590101132999905],[-66.75871976099995,-16.693827376999877],[-66.74117944299996,-16.75518567499995],[-66.83303703399997,-16.839654320999955],[-66.92396339699985,-16.835767746999977],[-66.97362780899994,-16.892065301999878],[-66.97052627999983,-16.92433481699993],[-67.00573058499987,-16.955949386999976],[-66.98071337699992,-17.04683106599998],[-66.88391553799988,-17.156551359999924],[-66.88750955099988,-17.290038512999956],[-66.84258161799994,-17.317474685999912],[-66.85945509399994,-17.341157702999965],[-66.84635812499994,-17.38430075599996],[-66.86489121099993,-17.38873591999993],[-66.87689558599993,-17.416818624999962],[-66.83568137799983,-17.45109492699993],[-66.8156783959999,-17.51155463499998],[-66.87770578899989,-17.54154969399997],[-66.87349389199994,-17.55701698799993],[-66.89988853999989,-17.59050199299992],[-66.87275154499997,-17.617270308999878],[-66.89195664999988,-17.66605519999996],[-66.79565414999996,-17.78176148699987],[-66.77199235699999,-17.781833988999892],[-66.7511223539999,-17.83481580299997],[-66.72269436099992,-17.847602682999934],[-66.71363606599988,-17.88461966099993],[-66.73793672699998,-17.939662738999914],[-66.8414274939999,-18.051689841999973],[-66.81571714599988,-18.11131688499995],[-66.78523235599994,-18.13565366699993],[-66.71242440099991,-18.116622835999976]]],[[[-68.77371706999992,-16.37263035399991],[-68.76707010299992,-16.371520245999875],[-68.76692621899991,-16.374340524999923],[-68.77371706999992,-16.37263035399991]]],[[[-68.69976533599998,-16.357775811999886],[-68.70487261699998,-16.356076245999873],[-68.70024095899998,-16.352831672999912],[-68.69976533599998,-16.357775811999886]]],[[[-68.74524599899996,-16.34598761399991],[-68.73448025499994,-16.356775909999953],[-68.7299844289999,-16.36535691599994],[-68.74524599899996,-16.34598761399991]]],[[[-68.68719840799997,-16.346786205999933],[-68.69331401099998,-16.351980699999956],[-68.69258905299995,-16.346660191999888],[-68.68719840799997,-16.346786205999933]]],[[[-68.75228213999992,-16.328853057999936],[-68.75946952599998,-16.32630200899996],[-68.75832681599991,-16.323707300999956],[-68.75228213999992,-16.328853057999936]]],[[[-68.77967592699997,-16.29477947999993],[-68.75177704899994,-16.298812340999916],[-68.74671806499998,-16.30880431099996],[-68.77650976599989,-16.308840317999966],[-68.77967592699997,-16.29477947999993]]],[[[-68.82243944699997,-16.27819918399996],[-68.80456527699988,-16.285254375999955],[-68.80399498699995,-16.30242314899988],[-68.82346522999995,-16.29566435399994],[-68.82243944699997,-16.27819918399996]]],[[[-68.85121013299988,-16.27428531699985],[-68.85066905499997,-16.27501330599995],[-68.85065015399994,-16.279738282999915],[-68.85121013299988,-16.27428531699985]]],[[[-68.87114283799997,-16.268824179999967],[-68.86707612599992,-16.273171223999952],[-68.87106639899986,-16.27470572499982],[-68.87114283799997,-16.268824179999967]]],[[[-68.60511208699995,-16.22303441899993],[-68.58840764399997,-16.239053885999965],[-68.59268808899986,-16.247829174999936],[-68.60511208699995,-16.22303441899993]]],[[[-68.86392043399997,-16.072852224999963],[-68.86411884599994,-16.068645192999952],[-68.86198090699997,-16.0689861539999],[-68.86392043399997,-16.072852224999963]]]]}},{"type":"Feature","properties":{"area_code":"3","department_ids":["BO07","BO08","BO09"],"departments":["Beni","Pando","Santa Cruz"]},"geometry":{"type":"Polygon","coordinates":[[[-61.57245208699999,-13.517147996999938],[-61.46950132899997,-13.55458480999988],[-61.403594390999956,-13.5380026119999],[-61.391266586999905,-13.519908307999913],[-61.260559066999974,-13.494085399999904],[-61.22517961099999,-13.530230294999967],[-61.19354903599998,-13.535500381999839],[-61.18316055299994,-13.505967554999927],[-61.15008012799984,-13.531030015999875],[-61.14274994499988,-13.511755824999852],[-61.139917209999965,-13.528333305999865],[-61.10582325499996,-13.531018863999918],[-61.09209293399988,-13.493173967999894],[-61.054481720999945,-13.51204587899997],[-61.03882841799998,-13.503507797999873],[-61.05351138499992,-13.480743495999832],[-61.02437477999996,-13.479617969999936],[-60.989628765999896,-13.493949186999942],[-61.010743521999984,-13.509209729999952],[-61.006924064999964,-13.551251976999879],[-60.97219338199994,-13.534846718999916],[-60.95680941199993,-13.551246975999845],[-60.918727506999915,-13.54254981899993],[-60.9233720339999,-13.566467138999883],[-60.88034072799991,-13.616959802999872],[-60.82310186199999,-13.630263187999958],[-60.81042528699999,-13.654198096999892],[-60.773500816999956,-13.660458311999946],[-60.76339219099998,-13.686204127999872],[-60.70866551299997,-13.689919350999958],[-60.695837240999936,-13.71356820799997],[-60.690361044999975,-13.696208633999959],[-60.656257886999924,-13.735305722999954],[-60.62094703399998,-13.71698704499994],[-60.60626181199996,-13.747583665999855],[-60.57649465299983,-13.746410046999927],[-60.55143375799997,-13.781728015999931],[-60.54641276799987,-13.769256028999962],[-60.52100311199996,-13.770859427999937],[-60.528465794999875,-13.794666612999947],[-60.46060412499986,-13.799255085999903],[-60.47196675799995,-13.851744888999917],[-60.45072645099998,-13.857000001999893],[-60.44207042099998,-13.934285581999973],[-60.406082049999895,-14.00934050099994],[-60.46663423699988,-14.096449588999974],[-60.482097637999914,-14.182415416999845],[-60.467013437999924,-14.187479995999922],[-60.450833746999876,-14.23827307199997],[-60.460411852999925,-14.263714498999946],[-60.44328661999998,-14.316310331999944],[-60.38248866299983,-14.367647416999944],[-60.3995276359999,-14.412035094999965],[-60.33953271599995,-14.509450681999965],[-60.32165268799997,-14.60952108499987],[-60.27217857699992,-14.622801956999979],[-60.24436403599998,-15.095314767999923],[-60.57487369199998,-15.09601855699998],[-60.23760390299992,-15.473504778999938],[-60.179901737999955,-15.997673107999958],[-60.17345579899995,-16.263012888999924],[-58.431146946999945,-16.322428873999968],[-58.39581647999995,-16.298787586999822],[-58.388959654999894,-16.262846195999884],[-58.36550147199989,-16.274207118999925],[-58.321987153999885,-16.266001906999975],[-58.3036999979999,-16.309736209999926],[-58.30764027399988,-16.37183510099993],[-58.346128685999986,-16.389865208999936],[-58.35616259299991,-16.42667387499995],[-58.33389296999991,-16.484437079999907],[-58.33812927799994,-16.51628180599988],[-58.43515256899997,-16.59450800399992],[-58.46714615099995,-16.69488961199994],[-58.45850361799984,-16.788535323999895],[-58.478668090999975,-16.822755100999927],[-58.460095391999914,-16.86415637799996],[-58.476497912999946,-16.938136458999963],[-58.457517180999844,-16.94007100799996],[-58.46295125299997,-16.96247400599998],[-58.444926524999914,-16.985475519999966],[-58.423158737999984,-16.988807361999932],[-58.43478793899993,-17.028258942999855],[-58.417353151999976,-17.037509394999972],[-58.43393587399993,-17.03766027499995],[-58.422026557999914,-17.050835072999973],[-58.43234974899997,-17.059846146999917],[-58.39949942499993,-17.08376408999993],[-58.397393429999966,-17.186376437999968],[-58.30423846399998,-17.26988363499987],[-58.29999144399994,-17.298737967999955],[-58.27806864899998,-17.300345921999963],[-58.25521635599989,-17.354039750999902],[-58.20291049499991,-17.354349538999884],[-58.19975214599998,-17.39026036899992],[-58.157085062999954,-17.38502045099989],[-58.151339299999904,-17.40968342999986],[-58.122809719999964,-17.414271176999932],[-58.120298091999985,-17.45023435299987],[-58.055859025999894,-17.45819690399992],[-58.044183361999956,-17.492317730999957],[-57.997075088999964,-17.515397162999932],[-57.969542202999946,-17.514510195999947],[-57.88779670799994,-17.45279412099984],[-57.738163528999905,-17.561440623999943],[-57.78425684499996,-17.608189046999826],[-57.77203918099997,-17.615322709999873],[-57.78351064199995,-17.63925825599995],[-57.71098429299997,-17.730786529999875],[-57.71320051699996,-17.775553107999883],[-57.68514092699996,-17.810637218999943],[-57.68446018999998,-17.83074322799996],[-57.722879479999904,-17.83021234699993],[-57.601146706999884,-18.043626107999955],[-57.57973659199996,-18.120083438999927],[-57.50819823499995,-18.198728780999943],[-57.481435201999886,-18.200106349999942],[-57.45443352799998,-18.23102437199998],[-57.55969172099998,-18.242139417999965],[-57.7671839219999,-18.900547848999963],[-57.718749499999944,-18.898395010999934],[-57.719672952999986,-18.978110024999864],[-57.691202061999945,-19.011495355999955],[-57.71096875599994,-19.03479378299994],[-57.78367377099994,-19.03523855799989],[-58.131382120999945,-19.758372651999878],[-57.859106575999874,-19.971749791999912],[-57.90288463799993,-20.043495491999977],[-57.934510150999984,-20.020274991999884],[-57.956895088999886,-20.022634944999936],[-57.98301321799988,-20.058192149999968],[-58.030164019999916,-20.06186662499988],[-58.05054038299994,-20.106890129999954],[-58.093745454999976,-20.10868083399987],[-58.11765570299991,-20.14634553699989],[-58.16982965799991,-20.165862961999892],[-58.136942741999974,-20.11869151199994],[-58.16209930499997,-20.076662540999905],[-58.15678593999996,-20.04386409499989],[-58.17508915799988,-20.02836102299989],[-58.18548272999993,-19.97118963799994],[-58.213123475999964,-19.951393685999903],[-58.19594374199994,-19.92817518499993],[-58.20189310799998,-19.864796928999965],[-58.16475899599993,-19.827079106999975],[-58.23544117799992,-19.77548400899991],[-59.11449212799988,-19.3440076359999],[-59.976918299999966,-19.295172724999873],[-60.60099848199991,-19.45593367999993],[-61.73547110499999,-19.634178195999937],[-61.92240490699999,-20.08923951299994],[-62.179371293999964,-20.442616376999922],[-63.02187844499986,-20.44424854199997],[-63.357628674999944,-20.460053136999875],[-63.35705057399997,-20.392521114999965],[-63.39972421499988,-20.398568156999886],[-63.41515330999988,-20.438167241999963],[-63.46405162299993,-20.453540030999932],[-63.51344419199984,-20.46271996699994],[-63.584061228999985,-20.44245647799994],[-63.6552996129999,-20.472625462999872],[-63.6841679719999,-20.465142492999973],[-63.6942928549999,-20.27725480299995],[-63.707569298999886,-20.254290139999966],[-63.68076835599999,-20.20836681499992],[-63.69814610999998,-20.18699687799989],[-63.69230492899999,-20.1487305739999],[-63.725770583999974,-20.115726936999977],[-63.7322867819999,-20.02724745599994],[-63.70900659099982,-19.8610808439999],[-63.72029305299992,-19.72907669199992],[-63.69221714999992,-19.594427026999938],[-63.71358298699994,-19.550329590999922],[-63.70320298499996,-19.484206161999964],[-63.72446279299987,-19.39307474499998],[-63.71297262899998,-19.37647216399995],[-63.72895036999989,-19.349170127999912],[-63.71448183899997,-19.272116377999907],[-63.74558557099982,-19.175006914999926],[-63.70516696899989,-19.043076054999915],[-63.76867801099985,-19.031633589999956],[-63.77860655199993,-19.04907541299997],[-63.809456420999936,-19.055143754999904],[-63.901697078999916,-19.031656654999892],[-63.91945524299996,-19.1833290539999],[-64.01393069999995,-19.17674681099993],[-64.04221110099996,-19.128343643999926],[-64.03191363299999,-19.11279474999992],[-64.06847190999986,-19.005271173999915],[-64.08967988499984,-19.00099734299988],[-64.10326702499998,-18.97338489799995],[-64.18461712299995,-18.961187577999908],[-64.21319812599995,-18.882364760999963],[-64.29009755899989,-18.823084768999934],[-64.28677432099994,-18.78567421599996],[-64.31755071099997,-18.75672438299995],[-64.3109182909999,-18.670496145999948],[-64.32919969399995,-18.66546683799993],[-64.31002687699998,-18.645762165999884],[-64.31489224899991,-18.6261665479999],[-64.28004543699996,-18.596809703999895],[-64.30426129999995,-18.497214304999943],[-64.40264178899992,-18.45069376099991],[-64.42756824499992,-18.41811759299992],[-64.42967314899983,-18.376351584999895],[-64.44836235099996,-18.373535],[-64.43370040399998,-18.33626654699998],[-64.48540717499992,-18.293646792999937],[-64.48165667799987,-18.260928442999898],[-64.52219336099995,-18.160359596999967],[-64.61570294599994,-18.09335086899989],[-64.69187330099999,-18.09875788999983],[-64.71561760599985,-18.072257858999933],[-64.71658924899987,-18.042810862999943],[-64.73690050199997,-18.039284961999954],[-64.76632298699991,-17.984904377999896],[-64.81061031299998,-17.94469689699997],[-64.7865929649999,-17.933308849999833],[-64.80638109399985,-17.893070166999962],[-64.75621807299996,-17.75014024199993],[-64.70192876499993,-17.71608140799998],[-64.6397949339999,-17.708179439999924],[-64.64085835799995,-17.675769918999947],[-64.61651733699983,-17.66395209299992],[-64.59210824099995,-17.61895737999987],[-64.60249395899996,-17.557409056999973],[-64.55021737699997,-17.565833890999897],[-64.51975556599996,-17.533971390999966],[-64.48939745299998,-17.560040052999966],[-64.43228111499997,-17.560013352999874],[-64.42756517599992,-17.52347463399991],[-64.40060516099999,-17.4938975149999],[-64.40575395499997,-17.45330170299991],[-64.37264568499995,-17.453158818999896],[-64.34910284099988,-17.423462778999976],[-64.30616177199983,-17.43738282399994],[-64.25495777099997,-17.426486727999816],[-64.23410582499997,-17.373659638999982],[-64.2472766379999,-17.301961816999892],[-64.27867701999998,-17.29080307199996],[-64.28382015399984,-17.264734629999964],[-64.31048443899988,-17.258663035999973],[-64.30445678199999,-17.277869110999973],[-64.3401901869999,-17.26378608199991],[-64.33728116099991,-17.244450702999927],[-64.32105241099998,-17.240752992999944],[-64.33620748699997,-17.208019685999886],[-64.37118910999988,-17.22990270999992],[-64.37486910099989,-17.199751466999942],[-64.35727245699997,-17.18712454699994],[-64.39839512699984,-17.176481277999926],[-64.3876903449999,-17.155856883999945],[-64.41030744099993,-17.156277651999915],[-64.39461592899994,-17.140654116999883],[-64.41068510099984,-17.1514202219999],[-64.42412982799982,-17.141421068999932],[-64.42835411599992,-17.159359301999928],[-64.43542437199989,-17.13001719199997],[-64.45119035499988,-17.14191849799994],[-64.48697719099988,-17.135374785999943],[-64.47697607499993,-17.118070779999982],[-64.50033418399988,-17.09091995299997],[-64.54973313199997,-17.087336767999886],[-64.51881222799994,-17.056786470999896],[-64.54692251099993,-17.05530671599996],[-64.55331434699997,-17.07023843099995],[-64.58089939399986,-17.05607525799985],[-64.56988168999987,-17.03250584599988],[-64.5926930139999,-17.053806883999926],[-64.61156082299988,-17.037782431999915],[-64.58719180199995,-17.03629949599997],[-64.61762969199992,-17.035336872999892],[-64.61950488599985,-17.014477000999932],[-64.63931141799998,-17.037235589999966],[-64.62895180099997,-17.00492690999988],[-64.66201199199998,-17.001913170999956],[-64.66414674599997,-17.015804716999924],[-64.68748413999998,-17.019232774999978],[-64.6899636259999,-16.99645130899995],[-64.67185568699989,-16.994305538999924],[-64.69064382299996,-16.983630696999967],[-64.7074029989999,-17.00156567199997],[-64.70786072799984,-16.986260499999958],[-64.6745284889999,-16.970700039999883],[-64.70387874699998,-16.952477758999976],[-64.7119997769999,-16.971440857999937],[-64.71018927999995,-16.94377970299996],[-64.72936378599991,-16.95442472299993],[-64.74674024299992,-16.942322728999955],[-64.73643190299993,-16.923379743999874],[-64.7202652979999,-16.926385435999975],[-64.7499869799999,-16.91735407999994],[-64.73223539499992,-16.888145874999964],[-64.7607665239999,-16.890675881999982],[-64.73701840399997,-16.868079791999946],[-64.77036640799997,-16.87305426499995],[-64.73961150999986,-16.855147332999934],[-64.76934166699994,-16.861475330999895],[-64.78944435999995,-16.844737603999874],[-64.77894432099998,-16.805007820999947],[-64.81659145799989,-16.77145676099991],[-64.79637381799995,-16.76436603199994],[-64.83566575899994,-16.77305685399989],[-64.83177085199998,-16.725100943999962],[-64.78357110699983,-16.744529712999963],[-64.78246381799994,-16.721515790999945],[-64.81009838599994,-16.700045349999925],[-64.78748969799994,-16.685724979999975],[-64.77977396999995,-16.656097426999963],[-64.76759208999994,-16.65835341199994],[-64.77252442299994,-16.684921258999907],[-64.75795777299993,-16.67887710599996],[-64.75749428199998,-16.652562562999947],[-64.79053031599983,-16.631240697999942],[-64.74862285199993,-16.590083836999895],[-64.76122349699995,-16.551149877999933],[-64.74012311599989,-16.533993093999925],[-64.75077447599995,-16.51260119199992],[-64.72278756499998,-16.50775317399996],[-64.72644909899998,-16.529348769999956],[-64.71120469999994,-16.536288455999966],[-64.71120717999997,-16.495750208999937],[-64.68794298699993,-16.48504848799996],[-64.71108385499997,-16.47466315199989],[-64.67328930599996,-16.474012292999873],[-64.68761054699996,-16.446640306999882],[-64.6767035289999,-16.431568993999974],[-64.69887930799996,-16.41764257299991],[-64.6562500199999,-16.374794304999966],[-64.69267456599994,-16.378808267999943],[-64.68674462599989,-16.35972416899989],[-64.70879838999997,-16.346405651999873],[-64.6735005349999,-16.36510914399986],[-64.64400464299996,-16.320764933999953],[-64.68031831699994,-16.321339741999907],[-64.64665138799995,-16.29616058199997],[-64.69276895099983,-16.29312217799992],[-64.66477451499992,-16.256790442999943],[-64.67739112299995,-16.235642264999967],[-64.67003331899991,-16.20837368399998],[-64.7082061349999,-16.18589691099993],[-64.69464197399998,-16.169077037999898],[-64.68168293699995,-16.181402779999928],[-64.67244340599996,-16.141914370999928],[-64.6845269879999,-16.124546364999958],[-64.66340154499994,-16.09712114399997],[-64.68879147899997,-16.116375481999967],[-64.69185763099995,-16.090114841999878],[-64.72715584399998,-16.081179047999967],[-64.71159481899997,-16.06603986799996],[-64.69011689899997,-16.080797811999958],[-64.69321588799994,-16.05423847399993],[-64.71598349699991,-16.05876281399992],[-64.70249414699998,-16.02870898899988],[-64.72328207599992,-16.0172382479999],[-64.71951073999992,-16.034116594999944],[-64.73274609099997,-16.034469126999966],[-64.72321579999988,-16.00951482699992],[-64.70151824599998,-16.011581564999858],[-64.73408554599996,-16.002690406999875],[-64.70952138299992,-15.967526673999828],[-64.74001359499982,-15.981571000999963],[-64.72682138999994,-15.951240521999921],[-64.75619458699998,-15.950221212999963],[-64.75076695499996,-15.925862479999978],[-64.72970340099994,-15.917715182999927],[-64.74591270799993,-15.891234214999884],[-64.72298947899998,-15.896784127999922],[-64.75124403399991,-15.866565394999839],[-64.72966075099998,-15.802011209999932],[-64.95834919599997,-15.801045890999887],[-65.04120683199989,-15.858002731999932],[-65.08074863199988,-15.930957672999853],[-65.11623679699989,-16.18801413099993],[-65.23994953099992,-16.36876222099994],[-65.59474645999995,-16.46017145299993],[-65.86172032999997,-16.491651132999948],[-65.97122536899997,-16.46697579399995],[-66.16974771599996,-16.36284183899994],[-66.33927802799997,-16.11719462399998],[-66.50634250799988,-15.98518362999988],[-66.61555887099996,-15.951684223999962],[-66.6388198269999,-15.91595749399994],[-66.67623792099988,-15.910985534999895],[-66.80746608099997,-15.828040178999913],[-66.79478198099991,-15.785992118999843],[-66.90690913999998,-15.640224547999821],[-66.89961333499997,-15.60405648699998],[-66.96211935299993,-15.507034360999967],[-67.11832669899991,-15.393299725999952],[-67.08138875799995,-15.314549881999824],[-67.13568431699991,-15.274674926999978],[-67.1368792799999,-15.221309561999874],[-67.17078059199997,-15.164459866999891],[-67.19654822799993,-15.154649725999946],[-67.19092247599997,-15.1383041819999],[-67.21315149599997,-15.112607840999829],[-67.23846550499991,-15.114631334999899],[-67.23791410699994,-15.058558827999946],[-67.29026228399988,-15.027110767999943],[-67.30083940599991,-15.043447543999946],[-67.33495900799983,-15.044811686999822],[-67.35595389499986,-15.020948743999895],[-67.36233974699991,-15.033138501999872],[-67.38606471099996,-15.019834512999978],[-67.39379681299988,-14.988351595999916],[-67.41639663899991,-14.989202336999881],[-67.40661442099986,-14.971802478999962],[-67.41920928799993,-14.970794857999977],[-67.41265722299988,-14.950488350999876],[-67.42864820199986,-14.923713395999982],[-67.4155448979999,-14.907414962999894],[-67.43149518699988,-14.89402307499995],[-67.40033266799986,-14.865715002999934],[-67.40821999699983,-14.82779458999994],[-67.38655590999986,-14.817910818999906],[-67.42424165199986,-14.762302409999961],[-67.41638131999997,-14.744785360999913],[-67.47946454899994,-14.697640280999906],[-67.47573228099998,-14.686589047999917],[-67.49720974299998,-14.686312774999976],[-67.51038729699997,-14.644852862999869],[-67.52878950899986,-14.651668774999962],[-67.51980805399995,-14.642029811999976],[-67.53762744299996,-14.593093766999857],[-67.49940248399992,-14.560933312999964],[-67.4815698519999,-14.50355417999998],[-67.50916564499994,-14.493022913999823],[-67.53394530299994,-14.45007755599994],[-67.53287974299997,-14.417089775999955],[-67.55858887999989,-14.408852719999913],[-67.54169908399996,-14.386059029999956],[-67.55812779799993,-14.369520214999909],[-67.53634557599997,-14.348808622999968],[-67.56217286399993,-14.343853776999822],[-67.51700946899996,-14.294074740999918],[-67.47305145099995,-14.291924491999907],[-67.51858959599997,-14.256230738999875],[-67.50908602699991,-14.227304581999874],[-67.53430897699991,-14.192138333999878],[-67.50483271299998,-14.112385331999917],[-67.55042611199997,-14.096596732999956],[-67.49402254099994,-14.064795561999972],[-67.54835476099998,-14.031569855999862],[-67.52699672199992,-14.017209402999981],[-67.5325579869999,-13.959881905999964],[-67.48468410599992,-13.915068768999902],[-67.51183706599983,-13.906216712999878],[-67.45954670799995,-13.846010348999926],[-67.48639915199988,-13.853571433999889],[-67.51591406099993,-13.832709422999926],[-67.48175758899998,-13.794546458999946],[-67.5251735629999,-13.783162788999903],[-67.45042219199996,-13.738420145999896],[-67.45878141699995,-13.712682895999876],[-67.42661196399996,-13.734500005999905],[-67.43149977999997,-13.71022333299993],[-67.41711836899998,-13.70425789299992],[-67.43481661199996,-13.657615023999881],[-67.36354021999995,-13.638225157999898],[-67.38819054299984,-13.603526846999898],[-67.3632949609999,-13.608958587999894],[-67.3534104879999,-13.569636555999978],[-67.37781658299991,-13.56805290299991],[-67.3818772539999,-13.538583258999893],[-67.40442937099988,-13.529463478999958],[-67.37541006399994,-13.515857682999979],[-67.34776988499993,-13.471468498999968],[-67.38748293099991,-13.47810612099994],[-67.38887669499996,-13.456153644999972],[-67.35521093099993,-13.446207105999974],[-67.39589111499998,-13.437696462999952],[-67.3772141209999,-13.420042823999893],[-67.39021837299993,-13.39674351699989],[-67.32873107999995,-13.365783018999878],[-67.35702150799989,-13.34786343999997],[-67.30013637699994,-13.305130541999972],[-67.29405844899992,-13.272498678999966],[-67.28610373299989,-13.304096801999947],[-67.26636007299999,-13.29278794399994],[-67.26702847299998,-13.261706365999885],[-67.29537494899995,-13.250518162999924],[-67.27572978099988,-13.241694205999977],[-67.25117372999989,-13.258286444999897],[-67.26674907399996,-13.209625719999963],[-67.19794732799994,-13.195283003999975],[-67.22560820999996,-13.168409313999973],[-67.16027060399989,-13.166395475999877],[-67.16935707599998,-13.13476430899982],[-67.18743257999995,-13.125789002999966],[-67.13443373699982,-13.092218091999825],[-67.14811472999997,-13.05294212799987],[-67.11484782699995,-13.047941001999959],[-67.1063642169999,-13.06846609999991],[-67.11126324399999,-13.031154905999927],[-67.09600635599992,-13.02545583299991],[-67.09342507399992,-13.045711748999906],[-67.0654302179999,-13.028743070999951],[-67.04668938599997,-13.051257335999935],[-67.04339086099998,-13.013127882999981],[-67.07024434199997,-12.994355232999965],[-67.03840929799992,-12.974125574999903],[-67.03659419099995,-12.93192946299996],[-66.99813898199994,-12.91662020699988],[-67.03359529599987,-12.908912185999895],[-67.03479703799991,-12.892373430999896],[-66.99514500399994,-12.888533562999896],[-66.99017765199989,-12.851192026999968],[-66.96677946199998,-12.83634405099997],[-66.94918763599998,-12.843548281999972],[-66.94289684799992,-12.825995575999912],[-66.98309347699995,-12.809711783999944],[-66.98342717099985,-12.783051917999899],[-66.95403623099986,-12.802194347999944],[-66.94779731999995,-12.79030936199996],[-66.98309020299996,-12.733335162999936],[-66.95329241599995,-12.72808487299983],[-66.97125251199998,-12.69027400899995],[-66.9393904779999,-12.684959300999935],[-66.97529120299998,-12.656898971999908],[-66.95113190999996,-12.623595575999957],[-66.92652436899994,-12.625557572999924],[-66.946767,-12.599367575999963],[-66.97691120699994,-12.592710551999971],[-66.96951090199991,-12.567833149999956],[-66.91831629699988,-12.53089082699995],[-67.99626249599999,-11.8496811199999],[-67.97758632099988,-11.935865656999965],[-68.09834811399992,-12.034809882999923],[-68.23658113999994,-12.012786688999824],[-68.23416474299995,-12.169342453999946],[-68.29287784099984,-12.224617435999903],[-68.3582283529999,-12.222503775999883],[-68.40410297599993,-12.254215682999927],[-68.41500523399998,-12.274576018999937],[-68.40165794199999,-12.34981596199998],[-68.41934678799993,-12.382031033999965],[-68.47199324199994,-12.423233928999878],[-68.51956209399992,-12.39518563099989],[-68.58367928699994,-12.393574950999948],[-68.59105739599994,-12.403613121999967],[-68.55862139999988,-12.454256530999885],[-68.6183334349999,-12.495373821999976],[-68.65221383999983,-12.497742007999875],[-68.96998078499996,-11.912498119999896],[-69.57474763899995,-10.945140249999952],[-69.54715623699991,-10.953640819999976],[-69.53881026999983,-10.93715711699997],[-69.50099421599998,-10.93632605299996],[-69.47823998599995,-10.955033622999906],[-69.41723948599997,-10.92544146399996],[-69.39339724399991,-10.945791977999875],[-69.38702722799991,-10.933901844999923],[-69.37473876799993,-10.956507539999905],[-69.3737258519999,-10.940497379999954],[-69.35352975799998,-10.93598596299995],[-69.34262901799997,-10.952208262999932],[-69.3252189189999,-10.935732119999955],[-69.27416832699998,-10.955306091999887],[-69.27091744699999,-10.942064398999946],[-69.24023323699987,-10.951781264999909],[-69.23298961999996,-10.939942082999835],[-69.21550806999994,-10.958517760999882],[-69.1857765979999,-10.94845725499988],[-69.16194955799995,-10.96659701099992],[-69.15159129099999,-10.955595014999915],[-69.15085792899998,-10.97187305299991],[-69.12276393399992,-10.96695031899992],[-69.12046934899996,-10.981793177999975],[-69.0719238399999,-10.967510939999954],[-69.06090901499988,-10.986381360999872],[-69.03836954399998,-10.977256122999904],[-68.99175549999984,-11.012097064999978],[-68.97212831899998,-10.98905109499998],[-68.95261697299998,-10.990185309999958],[-68.94779954099982,-11.012647840999819],[-68.93298120599997,-11.005406422999897],[-68.91023599799996,-11.022778740999968],[-68.89543036399994,-11.00648797499997],[-68.88038356699991,-11.021705994999934],[-68.88291969699998,-11.009043804999976],[-68.85972509699991,-11.016882653999971],[-68.8470344719999,-10.992421193999917],[-68.82691443299996,-11.007334371999889],[-68.79267914999997,-10.990366529999847],[-68.78883496299989,-11.01514936299992],[-68.78013976999995,-10.998795028999893],[-68.75716631599994,-11.000581772999965],[-68.76240498799996,-11.018696167999963],[-68.74751636499997,-11.010219351999979],[-68.76596112499993,-11.069208010999887],[-68.72205434799997,-11.106760071999929],[-68.71564509399991,-11.14746099599995],[-68.5447837189999,-11.108845177999967],[-68.49194845199992,-11.057305242999973],[-68.42898368499988,-11.035565334999944],[-68.40155762199993,-11.056241318999867],[-68.38524743999994,-11.02024280799992],[-68.35102458599994,-11.007094702999893],[-68.33141250699998,-11.015849627999955],[-68.23665721899994,-10.960984748999977],[-68.19580419499988,-10.859710271999916],[-68.10734251899993,-10.781940470999928],[-68.1073604899999,-10.718171802999962],[-68.05605103199997,-10.670465643999819],[-68.01502561899991,-10.649269638999954],[-67.97676031099985,-10.661161766999953],[-67.96260291699997,-10.64804408599997],[-67.86483752299989,-10.639231856999857],[-67.76023862199986,-10.68411143399993],[-67.73601146499993,-10.711906674999852],[-67.70918470299989,-10.70993955299997],[-67.67670815999998,-10.6054466409999],[-67.66132742499985,-10.617039452999961],[-67.64090040499991,-10.601075181999875],[-67.56526115599996,-10.497376624999958],[-67.5228634469999,-10.493300003999934],[-67.46736999799998,-10.456720212999926],[-67.45118527199986,-10.464885214999981],[-67.41321479999993,-10.426727025999867],[-67.42357001799996,-10.395572354999956],[-67.4073791809999,-10.376464430999931],[-67.36866960399982,-10.378904668999951],[-67.35179953299985,-10.395590112999912],[-67.34485862799994,-10.37867412199995],[-67.31182511399999,-10.378097337999918],[-67.32811325699998,-10.33690555399994],[-67.3174521489999,-10.319819739999957],[-67.26603111699995,-10.332780049999883],[-67.22283646699998,-10.313517006999973],[-67.16941082999989,-10.337139657999842],[-67.12675504999999,-10.316630607999969],[-67.14051266099989,-10.307607890999918],[-67.12550647899997,-10.291381326999897],[-67.07944791199998,-10.290385325999921],[-67.01585096099996,-10.25847877799987],[-66.98926735399988,-10.2208040619999],[-67.00089657899991,-10.217822857999977],[-66.99695390799997,-10.198747366999953],[-66.95425752299997,-10.188483458999826],[-66.94644793299994,-10.15862160499995],[-66.91215846199992,-10.147894815999962],[-66.9185763509999,-10.130707657999949],[-66.87380815599982,-10.101989085999833],[-66.8747257899999,-10.08153060899997],[-66.83922663699997,-10.084028687999876],[-66.83752604599994,-10.063597696999977],[-66.79233982299985,-10.023262967999926],[-66.77216895399988,-10.022492199999817],[-66.76353080199993,-10.00125324599992],[-66.71791879899996,-9.975528939999947],[-66.67603421699982,-9.96955238399994],[-66.66394393899998,-9.9406180659999],[-66.63908449799999,-9.952200659999903],[-66.62454776799996,-9.897238734999917],[-66.58405885299993,-9.906270022999934],[-66.56460534999997,-9.88086694499998],[-66.50435026499997,-9.872922690999815],[-66.49734814399989,-9.884335775999887],[-66.48442577399999,-9.866777499999841],[-66.45677049199998,-9.879768112999898],[-66.43595861499989,-9.865134666999893],[-66.42669772499988,-9.899720963999926],[-66.40458320899995,-9.86343546199987],[-66.35829096999998,-9.865349661999915],[-66.34937751199993,-9.838821700999915],[-66.31402817299988,-9.829914023999834],[-66.28306406699994,-9.845210856999927],[-66.27657535299994,-9.829088308999815],[-66.24970117199996,-9.834963069999958],[-66.23299789599992,-9.816173334999974],[-66.2025278449999,-9.83945896299997],[-66.18355064799994,-9.825767890999884],[-66.19111320099995,-9.80818467499995],[-66.15024856299988,-9.789411196999879],[-66.1019807909999,-9.787581352999837],[-66.09298763299984,-9.81859185899998],[-66.07088051899996,-9.788102164999941],[-66.0346646729999,-9.792088252999974],[-66.02615940499999,-9.81606662899992],[-66.00584240299997,-9.798332346999928],[-65.98326818699996,-9.810940665999908],[-65.96553703899997,-9.804555239999956],[-65.97094632099999,-9.774134626999967],[-65.92426603999996,-9.75603689299993],[-65.90708211299994,-9.769944554999938],[-65.87409577099993,-9.757103022999956],[-65.86552913399998,-9.798866494999913],[-65.80375520199988,-9.759426628999904],[-65.81596759099995,-9.775476989999902],[-65.79796501699997,-9.79517190599995],[-65.77539264299998,-9.738203545999909],[-65.77546308599995,-9.762019470999917],[-65.74730652399995,-9.784011954999926],[-65.72925408399993,-9.760106938999968],[-65.68730176299988,-9.750344287999894],[-65.68286303299988,-9.768497236999963],[-65.71155322599998,-9.77085006699997],[-65.71261579999998,-9.81030550099996],[-65.69118255299992,-9.814945003999924],[-65.67140501799997,-9.782694466999942],[-65.64632054799989,-9.794825518999971],[-65.65083423899995,-9.818905833999906],[-65.63710810999999,-9.806463704999942],[-65.62869600099992,-9.838982653999949],[-65.6008225789999,-9.826137667999944],[-65.59837518099994,-9.843835406999972],[-65.55953344599993,-9.845770003999917],[-65.56585953799993,-9.811935891999838],[-65.53902758099997,-9.802361210999948],[-65.53238680699991,-9.781597804999933],[-65.50239741899998,-9.786897346999979],[-65.50088370799995,-9.73110394799994],[-65.47887396899989,-9.729441803999975],[-65.48394668399987,-9.70869912199987],[-65.46872240399989,-9.71559812399994],[-65.44012081299996,-9.697734134999962],[-65.43821398599994,-9.669633001999955],[-65.36232256799997,-9.714458791999903],[-65.32288490299999,-9.815705933999936],[-65.28681028399996,-9.85661284899993],[-65.33510605099997,-9.935900475999915],[-65.32060987499995,-10.003928379999934],[-65.3304175909999,-10.063712018999922],[-65.30450601399986,-10.098573779999867],[-65.30784553299992,-10.17332713899998],[-65.29182236099996,-10.223689129999968],[-65.32669913299998,-10.30483588899989],[-65.39076705699989,-10.371655804999875],[-65.38577351899983,-10.438600882999879],[-65.43054071799997,-10.482265654999878],[-65.41146807499996,-10.505520272999945],[-65.4204470069999,-10.536024281999971],[-65.39554849599983,-10.58170969999992],[-65.41064601199997,-10.606812676999937],[-65.40496582299983,-10.640873977999945],[-65.34923389799997,-10.67008439499989],[-65.34364641799993,-10.766173085999867],[-65.36185723299991,-10.791750431999958],[-65.27398712699988,-10.874804975999837],[-65.27299254699994,-10.954505756999936],[-65.2507223159999,-10.984071120999943],[-65.30053958499985,-11.029472101999886],[-65.27978216899993,-11.06533170299997],[-65.28333856499995,-11.090021681999929],[-65.36072486999996,-11.136059495999973],[-65.3511846529999,-11.187264590999916],[-65.31511507799996,-11.19331785199995],[-65.35949684499985,-11.218892531999927],[-65.35974005899982,-11.261160084999858],[-65.34286593399986,-11.309674455999925],[-65.29006586999992,-11.320823748999942],[-65.33357767399997,-11.339709256999981],[-65.30869699399994,-11.496907102999899],[-65.22573306799995,-11.51571131999998],[-65.21158367699985,-11.533675771999981],[-65.23263886999996,-11.567191180999885],[-65.2245430719999,-11.66474511299998],[-65.26078444899997,-11.708243102999916],[-65.18529579399984,-11.756532401999948],[-65.17394670799996,-11.750076312999909],[-65.19319146799995,-11.732185863999973],[-65.18423171799998,-11.72117751999997],[-65.13229358599989,-11.723153559999957],[-65.09709465399993,-11.703764651999904],[-65.08281161299988,-11.713310969999952],[-65.05989880699997,-11.797954900999855],[-65.07366365999997,-11.865838348999887],[-65.01788242799995,-11.896363547999954],[-65.04309891699995,-11.96385744399987],[-65.02755931199994,-11.971672322999893],[-65.03642674199989,-11.995698648999849],[-65.00309539199992,-11.994921580999858],[-64.97845928799995,-12.01913296999993],[-64.94687239899991,-11.994172659999947],[-64.92128905799996,-12.02798321399996],[-64.83507878699993,-12.012946432999968],[-64.81049032899995,-12.058698720999928],[-64.84031644099997,-12.087427513999955],[-64.84166230199992,-12.109679392999965],[-64.82580401999991,-12.121388342999865],[-64.80390722599998,-12.086728185999903],[-64.77650192499988,-12.090093103999948],[-64.7600870849999,-12.10783811899995],[-64.76858494499993,-12.147739676999947],[-64.75383133999992,-12.157342584999867],[-64.73682045999993,-12.096291012999927],[-64.70856001999988,-12.085875105999946],[-64.69910616999988,-12.100547399999869],[-64.71817768299991,-12.147507254999937],[-64.70271185599995,-12.182196793999935],[-64.61570785499998,-12.216507781999951],[-64.5781456979999,-12.21076537599987],[-64.55166096399995,-12.239395298999966],[-64.51350563299991,-12.223353803999885],[-64.49364075099987,-12.288878822999948],[-64.50870947999994,-12.36081378599988],[-64.4631016219999,-12.383940128999882],[-64.40578266799992,-12.446520374999977],[-64.29492153899997,-12.457926617999874],[-64.29294105999998,-12.501864140999885],[-64.23061462799996,-12.453867682999942],[-64.19804498799994,-12.472986253999977],[-64.17430151699995,-12.467137283999932],[-64.16390188499997,-12.51389383399993],[-64.14263046899998,-12.502018289999853],[-64.13786441799988,-12.47829196899994],[-64.12295221099998,-12.506121144999952],[-64.1005417589999,-12.486637695999946],[-64.07875856799984,-12.499867929999937],[-64.06020453499997,-12.489952657999936],[-64.03906704199994,-12.51599419199988],[-64.00709844599993,-12.517144179999946],[-63.99637878899995,-12.501009637999971],[-63.951194064999925,-12.53062392399994],[-63.89899527899996,-12.503335128999936],[-63.8872286269999,-12.44572398199989],[-63.83491709599997,-12.464147917999924],[-63.78498299199998,-12.428946292999967],[-63.68923794499989,-12.449774546999947],[-63.55733694299994,-12.50484879499993],[-63.50237511399996,-12.565310567999973],[-63.43685245699993,-12.56446026899988],[-63.42677604299996,-12.59491333799997],[-63.442060857999934,-12.605058840999845],[-63.409587540999894,-12.612006815999962],[-63.370568709999986,-12.659613056999945],[-63.2411586959999,-12.690587280999921],[-63.24477025599998,-12.661848945999964],[-63.1945590709999,-12.653528295999934],[-63.19341400399986,-12.623539611999945],[-63.16370132999998,-12.64092987399988],[-63.156930081999974,-12.614371295999945],[-63.13887987999988,-12.646048485999927],[-63.09325534699991,-12.659707467999965],[-63.09766930899991,-12.681967351999901],[-63.06227432499992,-12.686440853999954],[-63.08089305999988,-12.723895555999945],[-63.04986174899989,-12.734264617999884],[-63.00863416999994,-12.810882502999902],[-63.01083270299995,-12.835736638999947],[-62.986125603999824,-12.837978],[-62.9770602669999,-12.859847309999964],[-62.95919727799992,-12.846741330999919],[-62.94548909999992,-12.858304057999874],[-62.93261330799993,-12.840197272999887],[-62.894551166999975,-12.85671461699991],[-62.87310121599995,-12.908169158999897],[-62.84429309899997,-12.92414955199996],[-62.84806661699997,-12.947406971999953],[-62.806715468999926,-12.940388762999874],[-62.80769777099994,-12.97082872599998],[-62.78037759299997,-13.008156364999934],[-62.75821135699994,-13.01782364199994],[-62.74582089299986,-12.998697672999981],[-62.73259522099988,-13.021979289999933],[-62.72701350499989,-13.001341390999869],[-62.69779930999988,-13.001662470999975],[-62.65081616599997,-12.964481967999859],[-62.65296536799997,-12.989744745999872],[-62.63385375399997,-12.98811189499986],[-62.63041396299985,-13.014272139999946],[-62.59989311999982,-13.014652482999907],[-62.61528130699992,-13.029117700999961],[-62.60873784599994,-13.043077210999968],[-62.500316752999936,-13.082116352999947],[-62.47440741299988,-13.058729178999954],[-62.45614072399991,-13.08739946399993],[-62.434651875999975,-13.082920458999979],[-62.415614916999914,-13.127762127999972],[-62.39857065699994,-13.113487412999973],[-62.39246754199996,-13.134358266999982],[-62.321242464999955,-13.150953019999974],[-62.31442004199988,-13.13407191399989],[-62.275471146999905,-13.156501330999959],[-62.27543687899998,-13.145179364999933],[-62.244242030999885,-13.143003956999962],[-62.24311591899988,-13.11682548899995],[-62.217169895999916,-13.11052146999998],[-62.192162982999946,-13.152711249999982],[-62.168771532999926,-13.112965077999945],[-62.150926083999934,-13.160780358999887],[-62.12742736999991,-13.147615941999902],[-62.11640089799994,-13.158991983999897],[-62.11282705399998,-13.260370998999974],[-62.07061252499989,-13.282778365999889],[-62.07252271699997,-13.295563095999967],[-62.05775695499983,-13.288557217999937],[-62.05836215199997,-13.310165791999964],[-62.035878526999966,-13.32854835899991],[-62.01717788899998,-13.327693556999975],[-62.00034190599996,-13.373568402999979],[-61.99788705899988,-13.362806096999975],[-61.97465253099995,-13.368076290999909],[-61.96892335299998,-13.407729259999883],[-61.93811116999984,-13.407625032999874],[-61.91538636399986,-13.433031474999893],[-61.89691754099994,-13.42716280999997],[-61.88363054399997,-13.494528722999917],[-61.856287068999904,-13.537612551999871],[-61.82394436499993,-13.521883199999877],[-61.78242078699992,-13.536911914999905],[-61.771615100999895,-13.5160920699999],[-61.757940228999985,-13.540311370999973],[-61.75373194999986,-13.519406222999919],[-61.732229557999915,-13.526807174999874],[-61.69473434199989,-13.49810454299984],[-61.64869854099999,-13.51886151799988],[-61.64589051299993,-13.50652746999998],[-61.623899886999936,-13.515206833999912],[-61.577875088999974,-13.487205744999926],[-61.57245208699999,-13.517147996999938]]]}},{"type":"Feature","properties":{"area_code":"4","department_ids":["BO01","BO03","BO06"],"departments":["Chuquisaca","Cochabamba","Tarija"]},"geometry":{"type":"Polygon","coordinates":[[[-62.26664560499995,-20.562743267999906],[-62.260665158999984,-21.058500006999907],[-62.64388366399993,-22.246648498999946],[-62.66545957599982,-22.244727002999923],[-62.69104851499998,-22.191052987999967],[-62.72041884099997,-22.210754488999953],[-62.755518790999986,-22.152658992999932],[-62.78221279199994,-22.174525410999934],[-62.81214507699991,-22.133828363999896],[-62.8108811809999,-22.09076459299996],[-62.793094104999966,-22.063982888999874],[-62.81465727199998,-22.04707292199987],[-62.804782782999894,-22.00222980199993],[-63.6670593419999,-22.003463872999873],[-63.68360620599998,-22.05477513699998],[-63.68889251899992,-22.01173179699998],[-63.717745891999925,-21.99950767599995],[-63.93078093899999,-21.999327465999954],[-63.953451965999875,-22.03682821399991],[-63.958229495999944,-22.086149874999876],[-63.979818209999905,-22.08092608399994],[-63.98589053999996,-22.109031383999877],[-63.99278160599994,-22.10514082499992],[-64.00013347499998,-22.107575743999973],[-63.992498711999986,-22.133040092999977],[-64.03307386499995,-22.19653020399994],[-64.03331081899995,-22.242389751999895],[-64.06176420899988,-22.237944681999977],[-64.07384124299995,-22.25918007599995],[-64.11705089699996,-22.36430971099992],[-64.11669468999997,-22.407062691999954],[-64.14260185099988,-22.41174340999993],[-64.16181653799998,-22.467337081999972],[-64.18322754099995,-22.47318814399995],[-64.21631454399989,-22.543473682999945],[-64.23976496699987,-22.555447313999935],[-64.23889444399998,-22.620555555999942],[-64.26454635699992,-22.64998395299989],[-64.24220454999994,-22.66534946099989],[-64.26121111099991,-22.676322221999897],[-64.2640694449999,-22.740847221999957],[-64.28349999999989,-22.752049999999883],[-64.26511666699997,-22.764077776999954],[-64.28784722199998,-22.836119443999962],[-64.3065612229999,-22.84074564799994],[-64.29812739399995,-22.86221604499997],[-64.31157232999993,-22.882017876999953],[-64.31477232999993,-22.86705954199988],[-64.33879454299989,-22.86818454299987],[-64.32680843799989,-22.836453982999956],[-64.34220010099995,-22.806570645999898],[-64.34165455099992,-22.749340407999966],[-64.3611827549999,-22.72431753199993],[-64.40304525999994,-22.719408485999907],[-64.39444322599996,-22.68806303599996],[-64.44229961499997,-22.63796615499996],[-64.42393728599995,-22.635331588999918],[-64.43176486999994,-22.581397206999952],[-64.41013400099996,-22.563053698999965],[-64.41286776199996,-22.538200227999937],[-64.48295419099992,-22.48050421599993],[-64.47479339399996,-22.468957863999947],[-64.49207906699996,-22.436560554999915],[-64.52510332699995,-22.441235091999886],[-64.51288659599993,-22.415645667999968],[-64.5667626469999,-22.36801258199995],[-64.56357404599987,-22.325903869999934],[-64.53655362099983,-22.285640229999956],[-64.59726944099992,-22.242788040999983],[-64.61658889099988,-22.20559539699991],[-64.65094894899988,-22.189740042999972],[-64.73686863099994,-22.19417426299998],[-64.86179014499999,-22.12238136499991],[-64.92396498799985,-22.121124125999927],[-64.99430861099995,-22.084047427999906],[-65.18664166699989,-22.08535],[-65.18500213299995,-22.013090370999976],[-65.26176461099988,-21.971183978999875],[-65.31363902299995,-21.97502495699996],[-65.40863387299999,-21.915637834999927],[-65.41664873899998,-21.882350549999956],[-65.39670377299996,-21.879297668999982],[-65.38951740399989,-21.84147449699998],[-65.35463758399987,-21.83760698999987],[-65.31410790899992,-21.731324546999872],[-65.29255399099992,-21.731798798999876],[-65.30429982199985,-21.688746521999917],[-65.26279819999996,-21.636579337999876],[-65.24514803299991,-21.57004417899992],[-65.24981265999986,-21.482379088999892],[-65.31167152799998,-21.48580442599996],[-65.32011358099999,-21.51732302099998],[-65.35341721599997,-21.500766168999974],[-65.38770644499988,-21.516353305999928],[-65.40572825699985,-21.48465800599996],[-65.40768686699988,-21.43193062399996],[-65.43708922799993,-21.42654063099991],[-65.44165712199998,-21.181074229999922],[-65.40249274699994,-21.160711453999966],[-65.42060823399999,-21.06126632999991],[-65.39990662499991,-21.006919659999937],[-65.39470532299998,-20.892136862999962],[-65.37581708099998,-20.869081102999928],[-65.34615753599996,-20.863018242999942],[-65.37628767999985,-20.75116574499998],[-65.35721645599989,-20.72710668699989],[-65.36452312799997,-20.677217965999887],[-65.34717260399992,-20.62263749599998],[-65.3877657249999,-20.55755173299997],[-65.35005344299992,-20.54839222699991],[-65.3275965819999,-20.51186625899993],[-65.2685943969999,-20.50470674999997],[-65.27144639099998,-20.457687879999924],[-65.2573380419999,-20.44708302899994],[-65.2623703839999,-20.42384710199991],[-65.24353552499997,-20.415057941999862],[-65.2514598169999,-20.37960145799991],[-65.22117129899988,-20.31880729999989],[-65.28260106999994,-20.23274041299993],[-65.31566194499999,-20.225084223999886],[-65.30162643199998,-20.177790664999975],[-65.23264477999993,-20.140480345999947],[-65.30499885399996,-20.009334255999875],[-65.27028980399996,-20.00386091099989],[-65.22228376399994,-19.935909374999937],[-65.20325937899997,-19.937952649999943],[-65.15217176899989,-20.012403727999924],[-65.09060667199992,-20.00944070799983],[-65.0598359949999,-19.95330525199995],[-65.0831295989999,-19.931907794999972],[-65.05670371999992,-19.79365987099993],[-65.03015581099999,-19.79459498899996],[-64.99092849899989,-19.85326964099994],[-64.94162328399995,-19.876512468999977],[-64.91433354899988,-19.84216716499992],[-64.89082588099996,-19.96364092099992],[-64.85082530999995,-19.98108743299997],[-64.82919250299989,-19.93313290499998],[-64.79497269099994,-19.902795425999898],[-64.77654540599991,-19.84100495599995],[-64.73928738799987,-19.789840419999905],[-64.71438740699995,-19.77956722499988],[-64.78704042899989,-19.633169202999966],[-64.84284753299994,-19.589584408999883],[-64.82313916599998,-19.483486404999894],[-64.8525877699999,-19.41022878299998],[-64.89557484299996,-19.39956671999994],[-64.91268300299993,-19.35471087999997],[-65.00412747799987,-19.351956754999946],[-65.05456924699996,-19.385696201999906],[-65.08824095599994,-19.36682908199998],[-65.14100564299997,-19.37808312599998],[-65.21513544899983,-19.343884300999946],[-65.23068472999995,-19.320450353999888],[-65.31042817699995,-19.306162408999967],[-65.33037141499989,-19.271379261999925],[-65.36981659399999,-19.25559790699998],[-65.40624758599984,-19.143824665999887],[-65.46990199999988,-19.122626878999938],[-65.49671719099985,-19.08916100499988],[-65.54087437599998,-19.08535926499991],[-65.55805883099987,-19.06380105599993],[-65.58732292099984,-18.997728149999944],[-65.5324145909999,-18.976513199999886],[-65.48086116399992,-18.925933301999976],[-65.44103876999998,-18.918476306999935],[-65.40586180099996,-18.939036379999948],[-65.40165945599989,-18.903756769999973],[-65.42421877099997,-18.87893943399996],[-65.4287136289999,-18.837211158999878],[-65.44371442799991,-18.831391595999946],[-65.41764734799989,-18.778856049999945],[-65.3871045649999,-18.796223660999885],[-65.37144090499999,-18.77883289199991],[-65.35644547899989,-18.786449389999973],[-65.36471433099996,-18.774416896999924],[-65.4074389029999,-18.772981124999887],[-65.42917743999982,-18.748015615999975],[-65.40061907899997,-18.701991375999967],[-65.41913370699996,-18.66316122199993],[-65.3813261709999,-18.640835426999956],[-65.42163148499992,-18.605045092999887],[-65.4367476029999,-18.616014627999903],[-65.48602454999991,-18.590753677999942],[-65.50130291099993,-18.563982495999937],[-65.49604376899998,-18.535785913999973],[-65.51427876399993,-18.54748136899991],[-65.52608164799994,-18.526486384999885],[-65.58386869699996,-18.498336907999942],[-65.62380893699998,-18.50112345699995],[-65.62406746299996,-18.462033980999934],[-65.68423147099998,-18.41710497199989],[-65.69386300199983,-18.351932099999942],[-65.59083251499987,-18.37480639099988],[-65.54646070699982,-18.40459537499993],[-65.50702806999988,-18.386720428999922],[-65.36607611999995,-18.435590088999902],[-65.34567202199997,-18.417877617999977],[-65.40437863099999,-18.367276816999947],[-65.43940885399985,-18.365136183999937],[-65.50230903499994,-18.25727269899994],[-65.5647727949999,-18.23419941799989],[-65.63797667799997,-18.137410515999875],[-65.68085602699983,-18.116553617999898],[-65.72922115499989,-18.060883150999928],[-65.8451608229999,-17.97420343999994],[-65.93395765399998,-17.992085136999947],[-65.94308945699999,-17.95618686099988],[-65.98855498499995,-17.935186693999924],[-66.0438705439999,-17.83884124399998],[-66.10048108699988,-17.807111058999965],[-66.11646480799988,-17.858308117999968],[-66.16720200999993,-17.927125192999938],[-66.19697216199995,-17.92620845099998],[-66.22602776899998,-17.95262605499994],[-66.24723606899988,-17.953167869999845],[-66.25165825699997,-17.93426389799987],[-66.28088923099995,-17.96602092199987],[-66.32017327899996,-17.949468123999964],[-66.44493694499988,-17.978564571999925],[-66.53345313899985,-18.058439179999937],[-66.52341319299995,-18.08952938999994],[-66.60109515399989,-18.08234539599988],[-66.63694229299989,-18.118891899999937],[-66.67644413199997,-18.109283738999977],[-66.78523235599994,-18.13565366699993],[-66.83114132099996,-18.085090520999927],[-66.8414274939999,-18.051689841999973],[-66.73793672699998,-17.939662738999914],[-66.71363606599988,-17.88461966099993],[-66.72269436099992,-17.847602682999934],[-66.7511223539999,-17.83481580299997],[-66.77199235699999,-17.781833988999892],[-66.79565414999996,-17.78176148699987],[-66.89195664999988,-17.66605519999996],[-66.87275154499997,-17.617270308999878],[-66.89988853999989,-17.59050199299992],[-66.87349389199994,-17.55701698799993],[-66.87770578899989,-17.54154969399997],[-66.8156783959999,-17.51155463499998],[-66.83568137799983,-17.45109492699993],[-66.87689558599993,-17.416818624999962],[-66.86489121099993,-17.38873591999993],[-66.84635812499994,-17.38430075599996],[-66.85945509399994,-17.341157702999965],[-66.84258161799994,-17.317474685999912],[-66.88750955099988,-17.290038512999956],[-66.88391553799988,-17.156551359999924],[-66.98071337699992,-17.04683106599998],[-67.00573058499987,-16.955949386999976],[-66.97052627999983,-16.92433481699993],[-66.97362780899994,-16.892065301999878],[-66.92396339699985,-16.835767746999977],[-66.83303703399997,-16.839654320999955],[-66.74117944299996,-16.75518567499995],[-66.75871976099995,-16.693827376999877],[-66.73211343199989,-16.590101132999905],[-66.78876099799993,-16.484516876999976],[-66.8003913149999,-16.295614595999893],[-66.84987199099999,-16.25156934499995],[-66.84431461199995,-16.194995322999887],[-66.92048370899988,-16.0914383569999],[-66.90907876699993,-16.04731695499987],[-66.9208403099999,-15.998250149999933],[-66.90515112799994,-15.962899525999944],[-66.86880512299996,-15.93543237299997],[-66.90807546199994,-15.846125787999938],[-66.86047877499988,-15.783089409999832],[-66.83680437599992,-15.796661810999979],[-66.79542337099997,-15.78510253199994],[-66.80746608099997,-15.828040178999913],[-66.67623792099988,-15.910985534999895],[-66.6388198269999,-15.91595749399994],[-66.61555887099996,-15.951684223999962],[-66.50634250799988,-15.98518362999988],[-66.33927802799997,-16.11719462399998],[-66.16974771599996,-16.36284183899994],[-65.97122536899997,-16.46697579399995],[-65.86172032999997,-16.491651132999948],[-65.59474645999995,-16.46017145299993],[-65.23994953099992,-16.36876222099994],[-65.11623679699989,-16.18801413099993],[-65.08074863199988,-15.930957672999853],[-65.04120683199989,-15.858002731999932],[-64.95834919599997,-15.801045890999887],[-64.72966075099998,-15.802011209999932],[-64.75124403399991,-15.866565394999839],[-64.72298947899998,-15.896784127999922],[-64.74591270799993,-15.891234214999884],[-64.72970340099994,-15.917715182999927],[-64.75076695499996,-15.925862479999978],[-64.75619458699998,-15.950221212999963],[-64.72682138999994,-15.951240521999921],[-64.74001359499982,-15.981571000999963],[-64.70952138299992,-15.967526673999828],[-64.73408554599996,-16.002690406999875],[-64.70151824599998,-16.011581564999858],[-64.72321579999988,-16.00951482699992],[-64.73274609099997,-16.034469126999966],[-64.71951073999992,-16.034116594999944],[-64.72328207599992,-16.0172382479999],[-64.70249414699998,-16.02870898899988],[-64.71598349699991,-16.05876281399992],[-64.69321588799994,-16.05423847399993],[-64.69011689899997,-16.080797811999958],[-64.71159481899997,-16.06603986799996],[-64.72715584399998,-16.081179047999967],[-64.69185763099995,-16.090114841999878],[-64.68879147899997,-16.116375481999967],[-64.66340154499994,-16.09712114399997],[-64.6845269879999,-16.124546364999958],[-64.67244340599996,-16.141914370999928],[-64.68168293699995,-16.181402779999928],[-64.69464197399998,-16.169077037999898],[-64.7082061349999,-16.18589691099993],[-64.67003331899991,-16.20837368399998],[-64.67739112299995,-16.235642264999967],[-64.66477451499992,-16.256790442999943],[-64.69276895099983,-16.29312217799992],[-64.64665138799995,-16.29616058199997],[-64.68031831699994,-16.321339741999907],[-64.64400464299996,-16.320764933999953],[-64.6735005349999,-16.36510914399986],[-64.70879838999997,-16.346405651999873],[-64.68674462599989,-16.35972416899989],[-64.69267456599994,-16.378808267999943],[-64.6562500199999,-16.374794304999966],[-64.69887930799996,-16.41764257299991],[-64.6767035289999,-16.431568993999974],[-64.68761054699996,-16.446640306999882],[-64.67328930599996,-16.474012292999873],[-64.71108385499997,-16.47466315199989],[-64.68794298699993,-16.48504848799996],[-64.71120717999997,-16.495750208999937],[-64.71120469999994,-16.536288455999966],[-64.72644909899998,-16.529348769999956],[-64.72278756499998,-16.50775317399996],[-64.75077447599995,-16.51260119199992],[-64.74012311599989,-16.533993093999925],[-64.76122349699995,-16.551149877999933],[-64.74862285199993,-16.590083836999895],[-64.79053031599983,-16.631240697999942],[-64.75749428199998,-16.652562562999947],[-64.75795777299993,-16.67887710599996],[-64.77252442299994,-16.684921258999907],[-64.76759208999994,-16.65835341199994],[-64.77977396999995,-16.656097426999963],[-64.78748969799994,-16.685724979999975],[-64.81009838599994,-16.700045349999925],[-64.78246381799994,-16.721515790999945],[-64.78357110699983,-16.744529712999963],[-64.83177085199998,-16.725100943999962],[-64.83566575899994,-16.77305685399989],[-64.80737390999991,-16.762452879999955],[-64.79637381799995,-16.76436603199994],[-64.81659145799989,-16.77145676099991],[-64.77894432099998,-16.805007820999947],[-64.78944435999995,-16.844737603999874],[-64.76934166699994,-16.861475330999895],[-64.73961150999986,-16.855147332999934],[-64.77036640799997,-16.87305426499995],[-64.73701840399997,-16.868079791999946],[-64.7607665239999,-16.890675881999982],[-64.73223539499992,-16.888145874999964],[-64.7499869799999,-16.91735407999994],[-64.7202652979999,-16.926385435999975],[-64.73643190299993,-16.923379743999874],[-64.74674024299992,-16.942322728999955],[-64.72936378599991,-16.95442472299993],[-64.71018927999995,-16.94377970299996],[-64.7119997769999,-16.971440857999937],[-64.70387874699998,-16.952477758999976],[-64.6745284889999,-16.970700039999883],[-64.70786072799984,-16.986260499999958],[-64.7074029989999,-17.00156567199997],[-64.69064382299996,-16.983630696999967],[-64.67185568699989,-16.994305538999924],[-64.6899636259999,-16.99645130899995],[-64.68748413999998,-17.019232774999978],[-64.66414674599997,-17.015804716999924],[-64.66201199199998,-17.001913170999956],[-64.62895180099997,-17.00492690999988],[-64.63931141799998,-17.037235589999966],[-64.61950488599985,-17.014477000999932],[-64.61762969199992,-17.035336872999892],[-64.60396489899995,-17.025784184999907],[-64.58719180199995,-17.03629949599997],[-64.61156082299988,-17.037782431999915],[-64.5926930139999,-17.053806883999926],[-64.56988168999987,-17.03250584599988],[-64.58089939399986,-17.05607525799985],[-64.55331434699997,-17.07023843099995],[-64.54692251099993,-17.05530671599996],[-64.51881222799994,-17.056786470999896],[-64.54973313199997,-17.087336767999886],[-64.50033418399988,-17.09091995299997],[-64.47697607499993,-17.118070779999982],[-64.48697719099988,-17.135374785999943],[-64.45119035499988,-17.14191849799994],[-64.43542437199989,-17.13001719199997],[-64.42835411599992,-17.159359301999928],[-64.42412982799982,-17.141421068999932],[-64.41068510099984,-17.1514202219999],[-64.39461592899994,-17.140654116999883],[-64.41030744099993,-17.156277651999915],[-64.3876903449999,-17.155856883999945],[-64.39839512699984,-17.176481277999926],[-64.35727245699997,-17.18712454699994],[-64.37486910099989,-17.199751466999942],[-64.37118910999988,-17.22990270999992],[-64.33620748699997,-17.208019685999886],[-64.32105241099998,-17.240752992999944],[-64.33728116099991,-17.244450702999927],[-64.3401901869999,-17.26378608199991],[-64.30445678199999,-17.277869110999973],[-64.31048443899988,-17.258663035999973],[-64.28382015399984,-17.264734629999964],[-64.27867701999998,-17.29080307199996],[-64.2472766379999,-17.301961816999892],[-64.23410582499997,-17.373659638999982],[-64.25495777099997,-17.426486727999816],[-64.30616177199983,-17.43738282399994],[-64.34910284099988,-17.423462778999976],[-64.37264568499995,-17.453158818999896],[-64.40575395499997,-17.45330170299991],[-64.40060516099999,-17.4938975149999],[-64.42756517599992,-17.52347463399991],[-64.43228111499997,-17.560013352999874],[-64.48939745299998,-17.560040052999966],[-64.51975556599996,-17.533971390999966],[-64.55021737699997,-17.565833890999897],[-64.60249395899996,-17.557409056999973],[-64.59210824099995,-17.61895737999987],[-64.61651733699983,-17.66395209299992],[-64.64085835799995,-17.675769918999947],[-64.6397949339999,-17.708179439999924],[-64.70192876499993,-17.71608140799998],[-64.75621807299996,-17.75014024199993],[-64.80638109399985,-17.893070166999962],[-64.7865929649999,-17.933308849999833],[-64.81061031299998,-17.94469689699997],[-64.76632298699991,-17.984904377999896],[-64.73690050199997,-18.039284961999954],[-64.71658924899987,-18.042810862999943],[-64.71561760599985,-18.072257858999933],[-64.69187330099999,-18.09875788999983],[-64.61570294599994,-18.09335086899989],[-64.52219336099995,-18.160359596999967],[-64.48165667799987,-18.260928442999898],[-64.48540717499992,-18.293646792999937],[-64.43370040399998,-18.33626654699998],[-64.44836235099996,-18.373535],[-64.42967314899983,-18.376351584999895],[-64.42756824499992,-18.41811759299992],[-64.40264178899992,-18.45069376099991],[-64.30426129999995,-18.497214304999943],[-64.28004543699996,-18.596809703999895],[-64.31489224899991,-18.6261665479999],[-64.31002687699998,-18.645762165999884],[-64.32919969399995,-18.66546683799993],[-64.3109182909999,-18.670496145999948],[-64.31755071099997,-18.75672438299995],[-64.28677432099994,-18.78567421599996],[-64.29009755899989,-18.823084768999934],[-64.21319812599995,-18.882364760999963],[-64.18461712299995,-18.961187577999908],[-64.10326702499998,-18.97338489799995],[-64.08967988499984,-19.00099734299988],[-64.06847190999986,-19.005271173999915],[-64.03191363299999,-19.11279474999992],[-64.04221110099996,-19.128343643999926],[-64.01393069999995,-19.17674681099993],[-63.91945524299996,-19.1833290539999],[-63.901697078999916,-19.031656654999892],[-63.809456420999936,-19.055143754999904],[-63.77860655199993,-19.04907541299997],[-63.76867801099985,-19.031633589999956],[-63.70516696899989,-19.043076054999915],[-63.74558557099982,-19.175006914999926],[-63.71448183899997,-19.272116377999907],[-63.72895036999989,-19.349170127999912],[-63.71297262899998,-19.37647216399995],[-63.72446279299987,-19.39307474499998],[-63.70320298499996,-19.484206161999964],[-63.71358298699994,-19.550329590999922],[-63.69221714999992,-19.594427026999938],[-63.72029305299992,-19.72907669199992],[-63.70900659099982,-19.8610808439999],[-63.7322867819999,-20.02724745599994],[-63.725770583999974,-20.115726936999977],[-63.69230492899999,-20.1487305739999],[-63.69814610999998,-20.18699687799989],[-63.68076835599999,-20.20836681499992],[-63.707569298999886,-20.254290139999966],[-63.6942928549999,-20.27725480299995],[-63.6841679719999,-20.465142492999973],[-63.6552996129999,-20.472625462999872],[-63.584061228999985,-20.44245647799994],[-63.51344419199984,-20.46271996699994],[-63.46405162299993,-20.453540030999932],[-63.41515330999988,-20.438167241999963],[-63.39972421499988,-20.398568156999886],[-63.35705057399997,-20.392521114999965],[-63.357628674999944,-20.460053136999875],[-63.02187844499986,-20.44424854199997],[-62.179371293999964,-20.442616376999922],[-62.26664560499995,-20.562743267999906]]]}}]}