{"type":"FeatureCollection","features":[{"type":"Feature","properties":{"island_id":"78010","name":"St. Croix"},"geometry":{"type":"MultiPolygon","coordinates":[[[[-64.622584,17.783836],[-64.62438,17.790172],[-64.612141,17.787219],[-64.622584,17.783836]]],[[[-64.665367,17.764596],[-64.665981,17.768468],[-64.664851,17.768579],[-64.665367,17.764596]]],[[[-64.703829,17.749263],[-64.70163,17.750302],[-64.701943,17.748913],[-64.703829,17.749263]]],[[[-64.76195,17.682455],[-64.760462,17.685051],[-64.759355,17.68359],[-64.76195,17.682455]]],[[[-64.903557,17.680425],[-64.883639,17.708003],[-64.89403,17.747359],[-64.872356,17.771036],[-64.836517,17.761545],[-64.778877,17.783846],[-64.761227,17.781108],[-64.758902,17.768079],[-64.749024,17.783442],[-64.708587,17.746825],[-64.655621,17.76346],[-64.601781,17.754356],[-64.583196,17.762082],[-64.565594,17.755207],[-64.577208,17.745836],[-64.602391,17.745789],[-64.609632,17.733175],[-64.637825,17.722083],[-64.71776,17.699069],[-64.733,17.704463],[-64.741905,17.695778],[-64.745885,17.701797],[-64.763315,17.69663],[-64.771149,17.709016],[-64.765292,17.690359],[-64.784628,17.696476],[-64.838987,17.67999],[-64.843518,17.687363],[-64.885035,17.685722],[-64.900605,17.674678],[-64.903557,17.680425]]]]}},{"type":"Feature","properties":{"island_id":"78020","name":"St. John"},"geometry":{"type":"MultiPolygon","coordinates":[[[[-64.650313,18.324338],[-64.650555,18.328391],[-64.64868,18.32808],[-64.650313,18.324338]]],[[[-64.687783,18.314829],[-64.68932,18.31758],[-64.686481,18.315605],[-64.687783,18.314829]]],[[[-64.757002,18.355795],[-64.755786,18.357293],[-64.755886,18.355708],[-64.757002,18.355795]]],[[[-64.758574,18.369182],[-64.757358,18.371174],[-64.755038,18.370519],[-64.758574,18.369182]]],[[[-64.789791,18.3542],[-64.788987,18.356427],[-64.788586,18.354163],[-64.789791,18.3542]]],[[[-64.794231,18.352774],[-64.792763,18.354314],[-64.79176,18.352482],[-64.794231,18.352774]]],[[[-64.794781,18.368778],[-64.793665,18.37056],[-64.793061,18.369606],[-64.794781,18.368778]]],[[[-64.796329,18.354968],[-64.797151,18.356794],[-64.795832,18.356137],[-64.796329,18.354968]]],[[[-64.798645,18.328249],[-64.786244,18.353118],[-64.780458,18.346016],[-64.777704,18.35356],[-64.759692,18.352434],[-64.744554,18.357512],[-64.748836,18.372905],[-64.733962,18.36987],[-64.737588,18.364249],[-64.691256,18.361112],[-64.660879,18.342928],[-64.670941,18.330116],[-64.681173,18.346763],[-64.692772,18.340147],[-64.691332,18.356673],[-64.70411,18.353996],[-64.70516,18.3407],[-64.71543,18.346102],[-64.697382,18.32203],[-64.703118,18.298203],[-64.705323,18.309055],[-64.721308,18.307578],[-64.720718,18.318892],[-64.733906,18.314988],[-64.74804,18.324584],[-64.75962,18.316238],[-64.765692,18.322687],[-64.765394,18.311562],[-64.772938,18.320904],[-64.780482,18.310883],[-64.798645,18.328249]]],[[[-64.805567,18.366117],[-64.800005,18.369657],[-64.799081,18.368765],[-64.805567,18.366117]]],[[[-64.807905,18.32878],[-64.806883,18.331274],[-64.806865,18.328624],[-64.807905,18.32878]]],[[[-64.809169,18.358703],[-64.801196,18.365403],[-64.798349,18.363564],[-64.809169,18.358703]]],[[[-64.822584,18.358838],[-64.815601,18.360484],[-64.815296,18.359173],[-64.822584,18.358838]]],[[[-64.837129,18.356886],[-64.8298,18.360471],[-64.826182,18.360332],[-64.837129,18.356886]]]]}},{"type":"Feature","properties":{"island_id":"78030","name":"St. Thomas"},"geometry":{"type":"MultiPolygon","coordinates":[[[[-65.085362,18.336817],[-65.082005,18.341703],[-65.074969,18.346571],[-65.077835,18.336671],[-65.085362,18.336817]]],[[[-64.816544,18.294591],[-64.814562,18.296201],[-64.814228,18.295281],[-64.816544,18.294591]]],[[[-64.828181,18.29753],[-64.824034,18.303229],[-64.821738,18.298049],[-64.828181,18.29753]]],[[[-64.829654,18.305651],[-64.830921,18.315412],[-64.822686,18.312941],[-64.829654,18.305651]]],[[[-64.865444,18.312964],[-64.864085,18.314288],[-64.863736,18.313667],[-64.865444,18.312964]]],[[[-64.868558,18.314615],[-64.86741,18.315974],[-64.866764,18.315157],[-64.868558,18.314615]]],[[[-64.865497,18.305586],[-64.868285,18.30904],[-64.862193,18.30725],[-64.865497,18.305586]]],[[[-64.8746187156151,18.3608181316235],[-64.851343,18.36112],[-64.848138,18.357634],[-64.851357,18.355527],[-64.8746187156151,18.3608181316235]]],[[[-64.887147,18.273968],[-64.886665,18.276664],[-64.8857,18.275986],[-64.887147,18.273968]]],[[[-64.895915,18.274664],[-64.892575,18.279468],[-64.890915,18.27745],[-64.895915,18.274664]]],[[[-64.908637,18.308852],[-64.907439,18.310564],[-64.907224,18.309799],[-64.908637,18.308852]]],[[[-64.909543,18.414297],[-64.908037,18.415746],[-64.908046,18.413857],[-64.909543,18.414297]]],[[[-64.906604,18.406637],[-64.905465,18.412122],[-64.902931,18.408159],[-64.906604,18.406637]]],[[[-64.916591,18.40507],[-64.905286,18.402704],[-64.899338,18.392655],[-64.907655,18.387575],[-64.916591,18.40507]]],[[[-64.939124,18.334185],[-64.9318,18.32885],[-64.932853,18.323094],[-64.936199,18.326931],[-64.939124,18.334185]]],[[[-64.96089,18.31373],[-64.946815,18.329013],[-64.942668,18.327846],[-64.940263,18.318139],[-64.951346,18.319655],[-64.95555,18.306607],[-64.96089,18.31373]]],[[[-64.974643,18.401056],[-64.968648,18.394966],[-64.968253,18.392608],[-64.974122,18.393331],[-64.974643,18.401056]]],[[[-64.975713,18.38615],[-64.967729,18.384214],[-64.965792,18.376692],[-64.973185,18.380842],[-64.975713,18.38615]]],[[[-64.989759,18.315613],[-64.988965,18.317886],[-64.988329,18.317255],[-64.989759,18.315613]]],[[[-64.998217,18.305337],[-65.001236,18.308799],[-64.999898,18.308994],[-64.998217,18.305337]]],[[[-65.041584,18.353356],[-65.006005,18.367802],[-64.994395,18.361321],[-64.989898,18.371616],[-64.951917,18.369183],[-64.95206,18.376213],[-64.927294,18.358823],[-64.922064,18.366345],[-64.934815,18.376476],[-64.93726,18.381498],[-64.914058,18.365599],[-64.891584,18.3625],[-64.88938,18.354217],[-64.863467,18.350318],[-64.867856,18.346193],[-64.844976,18.330569],[-64.854094,18.32234],[-64.838366,18.326832],[-64.831837,18.324768],[-64.84238,18.322965],[-64.836815,18.315983],[-64.845271,18.311759],[-64.866639,18.321379],[-64.872768,18.313389],[-64.882426,18.316542],[-64.870403,18.306818],[-64.877998,18.302809],[-64.889998,18.313448],[-64.905855,18.311085],[-64.922893,18.319784],[-64.919384,18.334796],[-64.927415,18.340283],[-64.952331,18.33485],[-64.962364,18.324569],[-64.963895,18.335083],[-64.972139,18.330181],[-64.983722,18.33543],[-64.97575,18.339429],[-64.987662,18.35007],[-65.026462,18.341304],[-65.041584,18.353356]]],[[[-65.046032,18.356665],[-65.043323,18.359252],[-65.044253,18.356613],[-65.046032,18.356665]]],[[[-65.055991,18.363133],[-65.050084,18.362767],[-65.050792,18.359081],[-65.052013,18.359301],[-65.055991,18.363133]]],[[[-65.058513,18.349598],[-65.057003,18.351368],[-65.057136,18.349519],[-65.058513,18.349598]]],[[[-65.061483,18.378177],[-65.06107,18.381668],[-65.059308,18.381182],[-65.061483,18.378177]]]]}}]}