{"type":"FeatureCollection","features":[{"type":"Feature","id":"01","properties":{"state_id":"01","name":"Aguascalientes"},"geometry":{"type":"Polygon","coordinates":[[[-102.29739,22.45527],[-102.2532,22.37449],[-102.14985,22.34718],[-102.15323,22.29041],[-102.03727,22.29898],[-102.00099,22.16811],[-102.04522,22.15373],[-101.85519,22.04651],[-101.8638,21.99002],[-101.9126,21.99749],[-101.8858,21.93261],[-101.83529,21.94177],[-101.838,21.90734],[-102.03842,21.8532],[-102.1421,21.70537],[-102.21427,21.69482],[-102.23762,21.652],[-102.30399,21.66668],[-102.32572,21.62227],[-102.63349,21.76734],[-102.73522,21.71567],[-102.7757,21.73459],[-102.87418,21.85277],[-102.75581,22.07366],[-102.69087,22.10656],[-102.6393,22.22604],[-102.66874,22.29187],[-102.4702,22.30921],[-102.46864,22.35188],[-102.32136,22.38853],[-102.29739,22.45527]]]}},{"type":"Feature","id":"02","properties":{"state_id":"02","name":"Baja California"},"geometry":{"type":"MultiPolygon","coordinates":[[[[-115.21765,28.37774],[-115.15665,28.16605],[-115.18534,28.03136],[-115.22984,28.02953],[-115.28951,28.09276],[-115.34538,28.0743],[-115.35968,28.08099],[-115.24295,28.2209],[-115.26441,28.29404],[-115.21765,28.37774]]],[[[-112.89233,28.67826],[-112.83867,28.66116],[-112.75256,28.59153],[-112.78261,28.58036],[-112.89233,28.67826]]],[[[-113.51379,29.0521],[-113.50234,29.09042],[-113.48918,29.03769],[-113.51379,29.0521]]],[[[-113.51391,29.55148],[-113.39336,29.45925],[-113.35204,29.38735],[-113.36679,29.30785],[-113.16759,29.27889],[-113.17456,29.12778],[-113.14837,29.06619],[-113.1002,29.05623],[-113.11615,28.98699],[-113.24395,29.06713],[-113.44282,29.27568],[-113.49692,29.28379],[-113.58822,29.40892],[-113.57212,29.53836],[-113.51391,29.55148]]],[[[-118.26148,29.18485],[-118.28745,29.13306],[-118.22807,29.06199],[-118.22097,28.96257],[-118.24823,28.891],[-118.29575,28.87948],[-118.29092,28.96768],[-118.36465,29.07755],[-118.36526,29.14637],[-118.26148,29.18485]]],[[[-114.42372,29.96696],[-114.39169,29.96184],[-114.41532,29.94866],[-114.42372,29.96696]]],[[[-114.79994,31.81264],[-114.66694,31.71691],[-114.65231,31.67873],[-114.7911,31.73],[-114.79994,31.81264]]],[[[-117.10047,32.53656],[-114.71972,32.71865],[-114.80792,32.62035],[-114.81593,32.48298],[-114.935,32.48187],[-114.96659,32.33879],[-115.05302,32.24517],[-114.97532,32.178],[-114.96548,31.91842],[-114.80688,31.81668],[-114.78363,31.63123],[-114.83589,31.61735],[-114.86867,31.52798],[-114.89094,31.15282],[-114.81417,31.05217],[-114.82955,30.99414],[-114.70996,30.90624],[-114.69851,30.63214],[-114.63032,30.48942],[-114.66772,30.19142],[-114.53617,29.97026],[-114.41298,29.89069],[-114.38772,29.77865],[-114.32986,29.74269],[-114.28026,29.77251],[-114.20752,29.74382],[-113.63761,29.28371],[-113.6563,29.20932],[-113.53871,29.05803],[-113.56305,29.00734],[-113.52608,28.89307],[-113.4795,28.89434],[-113.47996,28.9478],[-113.38553,28.93958],[-113.35387,28.80551],[-113.25155,28.84072],[-113.19644,28.79255],[-113.10381,28.50537],[-113.01535,28.45745],[-112.90305,28.47507],[-112.86672,28.42529],[-112.84652,28.44078],[-112.87319,28.28255],[-112.78662,28.19674],[-112.80463,28.02755],[-112.76478,28.0],[-114.20544,28.0],[-114.13626,28.0851],[-114.12746,28.01283],[-114.0612,28.04625],[-114.10989,28.11944],[-114.05929,28.20873],[-114.07614,28.115],[-114.04041,28.09073],[-114.06477,28.26044],[-114.12496,28.25684],[-114.04735,28.44263],[-114.06937,28.51443],[-114.16126,28.56912],[-114.17629,28.65249],[-114.26923,28.66003],[-114.34719,28.73089],[-114.41745,28.87952],[-114.59211,28.96976],[-114.62728,29.09023],[-114.71607,29.11006],[-114.74441,29.1824],[-114.96734,29.37514],[-115.18949,29.42808],[-115.25327,29.51623],[-115.45795,29.62512],[-115.50609,29.61707],[-115.69933,29.75483],[-115.70189,29.89999],[-115.74288,29.9479],[-115.81349,29.94993],[-115.78131,30.09085],[-115.81175,30.30037],[-115.90645,30.39592],[-115.98733,30.38816],[-115.93718,30.41102],[-115.93367,30.45809],[-115.98925,30.51146],[-115.95732,30.43814],[-115.97824,30.42725],[-115.99531,30.45131],[-116.01495,30.45012],[-116.02151,30.45592],[-116.02728,30.45419],[-115.97902,30.36438],[-116.00753,30.36547],[-116.04853,30.47254],[-116.02812,30.66542],[-116.06019,30.80009],[-116.26965,30.96683],[-116.33056,30.95929],[-116.3095,31.15238],[-116.36351,31.24704],[-116.52174,31.43449],[-116.69111,31.55326],[-116.65157,31.58241],[-116.64993,31.66454],[-116.744,31.7439],[-116.66192,31.71913],[-116.61898,31.7755],[-116.65281,31.72027],[-116.64747,31.70933],[-116.64128,31.70941],[-116.60997,31.77092],[-116.61212,31.83959],[-116.88095,32.01868],[-116.92227,32.2259],[-117.02445,32.26871],[-117.09099,32.39779],[-117.12451,32.48538],[-117.10047,32.53656]]]]}},{"type":"Feature","id":"03","properties":{"state_id":"03","name":"Baja California Sur"},"geometry":{"type":"MultiPolygon","coordinates":[[[[-109.80042,24.15191],[-109.87363,24.15298],[-109.93425,24.37593],[-109.81974,24.20481],[-109.80042,24.15191]]],[[[-111.66982,24.35862],[-111.53194,24.36642],[-111.43794,24.32549],[-111.66982,24.35862]]],[[[-110.3541,24.53146],[-110.28911,24.47285],[-110.32764,24.40244],[-110.39944,24.51854],[-110.3541,24.53146]]],[[[-110.39122,24.59024],[-110.36131,24.55402],[-110.36794,24.53074],[-110.40987,24.54759],[-110.39122,24.59024]]],[[[-111.99152,24.52554],[-111.84194,24.51346],[-111.74998,24.442],[-111.703,24.35642],[-111.69375,24.37842],[-111.68444,24.37972],[-111.71038,24.30476],[-111.99152,24.52554]]],[[[-110.70682,25.10502],[-110.57523,25.0161],[-110.53099,24.87713],[-110.58982,24.86499],[-110.5745,24.88834],[-110.64164,24.91434],[-110.71367,25.0316],[-110.70682,25.10502]]],[[[-110.69174,25.30559],[-110.71084,25.26741],[-110.73018,25.26181],[-110.73155,25.29196],[-110.69174,25.30559]]],[[[-112.16288,25.10017],[-112.15371,24.97123],[-112.17897,24.96872],[-112.1897,24.95865],[-112.1852,24.93119],[-112.16652,24.91172],[-112.1766,24.88719],[-112.19653,24.91701],[-112.17822,24.87018],[-112.20657,24.8692],[-112.2321,24.84299],[-112.13473,24.73585],[-112.11598,24.68907],[-112.13908,24.63471],[-112.07213,24.5855],[-112.05734,24.53958],[-112.17457,24.65262],[-112.13687,24.6873],[-112.15334,24.74482],[-112.22619,24.78868],[-112.26245,24.78654],[-112.25805,24.75595],[-112.26003,24.74996],[-112.30496,24.794],[-112.12744,25.26474],[-112.16288,25.10017]]],[[[-112.10065,25.48921],[-112.10334,25.33248],[-112.12193,25.28506],[-112.13954,25.29689],[-112.10065,25.48921]]],[[[-110.77291,25.71234],[-110.76306,25.69056],[-110.75873,25.59366],[-110.80495,25.64725],[-110.77291,25.71234]]],[[[-111.05964,25.70727],[-111.01331,25.67875],[-111.0298,25.64978],[-111.05964,25.70727]]],[[[-112.09299,25.68463],[-112.0889,25.60847],[-112.09598,25.49357],[-112.10287,25.51633],[-112.09299,25.68463]]],[[[-111.05981,26.06977],[-111.06679,25.96594],[-111.11996,25.99389],[-111.20453,25.8062],[-111.23329,25.84815],[-111.17544,26.04173],[-111.05981,26.06977]]],[[[-111.27913,26.13535],[-111.26326,26.10614],[-111.29712,26.09858],[-111.27913,26.13535]]],[[[-113.26089,26.70815],[-113.17577,26.71883],[-113.13555,26.65818],[-113.26089,26.70815]]],[[[-113.23638,26.77204],[-113.19555,26.74973],[-113.1925,26.7388],[-113.21507,26.73863],[-113.23638,26.77204]]],[[[-112.08821,27.25886],[-112.04662,27.22456],[-112.05938,27.17965],[-112.10843,27.23858],[-112.08821,27.25886]]],[[[-111.89535,27.43064],[-111.86912,27.45451],[-111.85995,27.43065],[-111.89535,27.43064]]],[[[-114.18341,27.7528],[-114.16597,27.76338],[-114.146,27.72144],[-114.18341,27.7528]]],[[[-114.22464,27.76632],[-114.21275,27.75118],[-114.22009,27.75392],[-114.18521,27.72134],[-114.24753,27.74352],[-114.22464,27.76632]]],[[[-115.21568,27.89619],[-115.16211,27.87038],[-115.16663,27.85248],[-115.1783,27.84966],[-115.21568,27.89619]]],[[[-114.20544,28.0],[-112.76478,28.0],[-112.7716,27.86315],[-112.70116,27.75141],[-112.59538,27.65048],[-112.36028,27.55259],[-112.30222,27.38391],[-112.19499,27.24997],[-112.21292,27.20434],[-111.95222,27.09494],[-112.01488,26.9747],[-111.95587,26.91417],[-111.95249,26.90124],[-111.9737,26.89751],[-111.98252,26.88866],[-111.87249,26.83174],[-111.86167,26.78416],[-111.90913,26.71996],[-111.78265,26.56793],[-111.7112,26.55241],[-111.6771,26.58843],[-111.81445,26.71578],[-111.85108,26.87943],[-111.80168,26.88915],[-111.5612,26.69703],[-111.56739,26.5627],[-111.44214,26.51827],[-111.46894,26.41231],[-111.38707,26.32353],[-111.37905,26.18835],[-111.32383,26.10028],[-111.35865,25.95997],[-111.30621,25.77347],[-111.2239,25.72533],[-111.12185,25.5286],[-111.01654,25.5146],[-111.02486,25.44404],[-110.93312,25.29158],[-110.90754,25.14594],[-110.75713,25.01402],[-110.68521,24.8838],[-110.66349,24.77166],[-110.74054,24.61491],[-110.6801,24.35565],[-110.55697,24.21019],[-110.32456,24.17636],[-110.37104,24.149],[-110.43341,24.17161],[-110.39221,24.10389],[-110.30274,24.18],[-110.33434,24.32856],[-110.23398,24.34427],[-110.17437,24.25237],[-110.00819,24.15944],[-109.98421,24.04373],[-109.82663,24.06081],[-109.80399,24.02187],[-109.8375,23.93275],[-109.69926,23.79895],[-109.69705,23.6627],[-109.46832,23.55503],[-109.41311,23.38722],[-109.45505,23.20149],[-109.53624,23.10865],[-109.67732,23.06354],[-109.8429,22.90263],[-109.96397,22.8721],[-110.06136,22.94907],[-110.16635,23.31285],[-110.32932,23.56018],[-110.61253,23.70744],[-111.04469,24.10859],[-111.43379,24.32105],[-111.43655,24.32333],[-111.43634,24.32585],[-111.36449,24.29127],[-111.35863,24.28881],[-111.35704,24.28878],[-111.35623,24.2899],[-111.52708,24.41045],[-111.58333,24.41491],[-111.65807,24.57024],[-111.69197,24.58519],[-111.70264,24.53787],[-111.81057,24.56818],[-111.75822,24.51564],[-111.81657,24.50655],[-111.84072,24.63662],[-111.96821,24.79368],[-111.94691,24.75232],[-112.03048,24.73601],[-112.02817,24.80118],[-112.05402,24.82904],[-112.0239,24.815],[-112.02563,24.83737],[-112.03849,24.84607],[-112.05696,24.82946],[-112.04041,24.80044],[-112.05033,24.81236],[-112.05447,24.80874],[-112.05638,24.81275],[-112.06036,24.81209],[-112.0406,24.75278],[-112.07832,24.72995],[-112.06496,24.76205],[-112.0946,24.79646],[-112.09104,24.77821],[-112.11942,24.78298],[-112.12209,24.78828],[-112.09108,24.83316],[-112.11619,24.84883],[-112.12255,24.87625],[-112.08425,24.89298],[-112.07927,24.90746],[-112.11144,24.93577],[-112.08129,24.92325],[-112.07633,24.93338],[-112.11044,24.94168],[-112.09449,24.96153],[-112.10077,25.00948],[-112.13927,24.94859],[-112.14336,24.80386],[-112.14923,24.86202],[-112.17812,24.81958],[-112.15699,24.92202],[-112.18354,24.95984],[-112.14484,24.96569],[-112.12226,25.03808],[-112.14931,25.13727],[-112.09392,25.22107],[-112.11447,25.24068],[-112.07717,25.24239],[-112.07536,25.72792],[-112.09321,25.69878],[-112.08858,25.70754],[-112.09519,25.73581],[-112.09855,25.73839],[-112.09664,25.69224],[-112.19268,25.98683],[-112.30863,26.07173],[-112.36615,26.22162],[-112.4548,26.26209],[-112.49783,26.23158],[-112.61554,26.3193],[-112.68004,26.31466],[-113.13484,26.63609],[-113.05288,26.6402],[-113.15193,26.74883],[-113.12552,26.79604],[-113.16975,26.79559],[-113.18613,26.75602],[-113.24502,26.78794],[-113.1952,26.79258],[-113.13829,26.85796],[-113.16564,26.99278],[-113.20377,26.85052],[-113.27176,26.81952],[-113.26882,26.75198],[-113.45783,26.80531],[-113.39107,26.81463],[-113.45398,26.8314],[-113.54698,26.71885],[-113.57704,26.70475],[-113.62236,26.71977],[-113.64149,26.73142],[-113.69987,26.79094],[-113.64341,26.73837],[-113.58951,26.71409],[-113.67094,26.78556],[-113.73368,26.79945],[-113.78722,26.91803],[-113.85529,26.9708],[-113.95225,26.99898],[-114.00313,26.9695],[-114.15748,27.12873],[-114.26058,27.15155],[-114.29634,27.12274],[-114.4352,27.17712],[-114.48779,27.22829],[-114.51408,27.41687],[-114.73795,27.52423],[-114.79359,27.615],[-114.87402,27.64336],[-114.84726,27.64794],[-114.86594,27.69531],[-114.90061,27.66351],[-114.95388,27.71633],[-115.00682,27.71643],[-115.08245,27.84795],[-114.50089,27.77214],[-114.40041,27.81853],[-114.32469,27.78768],[-114.343,27.81451],[-114.32954,27.80251],[-114.32268,27.84384],[-114.33243,27.85913],[-114.39116,27.8225],[-114.34181,27.86353],[-114.30717,27.87228],[-114.32105,27.77599],[-114.16096,27.6722],[-114.10161,27.58591],[-114.02104,27.66134],[-113.95937,27.65148],[-113.91582,27.70954],[-113.9906,27.76212],[-114.02883,27.7413],[-114.07118,27.81221],[-114.04431,27.73739],[-114.09831,27.70686],[-114.14643,27.72618],[-114.17858,27.82295],[-114.12725,27.89002],[-114.20315,27.91592],[-114.14427,27.90176],[-114.14416,27.93969],[-114.16584,27.91925],[-114.15907,27.94786],[-114.18671,27.9531],[-114.17462,27.93949],[-114.17942,27.92232],[-114.27442,27.90208],[-114.20544,28.0]]]]}},{"type":"Feature","id":"04","properties":{"state_id":"04","name":"Campeche"},"geometry":{"type":"Polygon","coordinates":[[[-90.37936,20.84833],[-90.38665,20.55559],[-90.33524,20.57635],[-90.33524,20.54131],[-90.22924,20.54356],[-90.23421,20.47047],[-90.1863,20.43693],[-90.06721,20.42523],[-90.00417,20.48702],[-89.83796,20.28718],[-89.87238,20.28763],[-89.87566,20.2531],[-89.80251,20.20161],[-89.79397,20.13617],[-89.74847,20.17927],[-89.5987,19.9982],[-89.5875,19.87442],[-89.52567,19.77555],[-89.47591,19.77122],[-89.47722,19.71105],[-89.14667,19.42386],[-89.15024,18.45106],[-89.12123,18.38585],[-89.14307,18.14582],[-89.20024,18.14463],[-89.20246,18.08328],[-89.14475,18.0577],[-89.20741,17.99265],[-89.20587,17.9541],[-89.15217,17.95361],[-89.15171,17.81561],[-90.98764,17.81547],[-90.98795,17.96255],[-91.21746,17.97499],[-91.32702,18.06267],[-91.50404,18.11646],[-91.50934,18.17105],[-91.57997,18.15818],[-91.6095,18.09844],[-91.63881,17.87395],[-91.76049,17.95763],[-91.96675,18.01599],[-92.03994,18.09795],[-92.12166,18.10175],[-92.18324,18.27406],[-92.17615,18.45823],[-92.32253,18.47308],[-92.3538,18.44229],[-92.42527,18.51131],[-92.46879,18.65096],[-91.97596,18.69936],[-91.85669,18.61263],[-91.82587,18.6302],[-91.84134,18.66426],[-91.5224,18.76562],[-91.39649,18.89007],[-91.11816,19.03197],[-90.75831,19.3077],[-90.68556,19.62536],[-90.74368,19.65509],[-90.70636,19.65467],[-90.66131,19.7589],[-90.50888,19.86625],[-90.4473,19.95947],[-90.49123,20.06126],[-90.50262,20.46412],[-90.47498,20.47058],[-90.50231,20.49756],[-90.37936,20.84833]]]}},{"type":"Feature","id":"05","properties":{"state_id":"05","name":"Coahuila de Zaragoza"},"geometry":{"type":"Polygon","coordinates":[[[-102.31549,29.88],[-102.07222,29.78662],[-101.97549,29.81568],[-101.92895,29.78271],[-101.8236,29.78727],[-101.81765,29.81167],[-101.80437,29.78004],[-101.64386,29.75407],[-101.54465,29.81219],[-101.53665,29.75812],[-101.4643,29.78961],[-101.44768,29.75049],[-101.40132,29.77071],[-101.36071,29.64869],[-101.30175,29.65096],[-101.30025,29.57431],[-101.24915,29.62286],[-101.2586,29.52244],[-101.06181,29.46425],[-101.01006,29.36853],[-100.81379,29.26371],[-100.77278,29.16839],[-100.67612,29.1033],[-100.64091,28.91462],[-100.53513,28.80471],[-100.50018,28.66167],[-100.39869,28.58538],[-100.38854,28.5154],[-100.33387,28.49928],[-100.3684,28.47667],[-100.29362,28.27876],[-100.20916,28.19123],[-100.08461,28.14503],[-99.99049,27.99362],[-99.93122,27.98058],[-99.84437,27.77844],[-99.99884,27.61528],[-100.18843,27.79914],[-100.35061,27.6846],[-100.4177,27.39363],[-100.67801,27.3348],[-100.83412,27.19517],[-100.79944,27.04583],[-100.76586,27.06333],[-100.74771,27.03626],[-100.74862,27.08125],[-100.68272,27.11139],[-100.534,27.04558],[-100.53816,26.80856],[-100.69123,26.61379],[-100.75304,26.73521],[-101.20676,26.36978],[-101.06857,26.18903],[-100.91642,26.07561],[-100.90553,25.95695],[-100.83442,25.94504],[-100.8619,25.81848],[-100.78342,25.63968],[-100.72977,25.6339],[-100.69029,25.5671],[-100.53844,25.53185],[-100.61909,25.50569],[-100.45188,25.41081],[-100.4701,25.33779],[-100.31302,25.33637],[-100.25414,25.30691],[-100.22958,25.21792],[-100.32555,25.22226],[-100.33201,25.18629],[-100.59569,25.25476],[-100.70889,25.23646],[-100.80313,25.16526],[-100.82151,24.99671],[-100.7275,24.91872],[-100.82613,24.835],[-100.81042,24.55159],[-100.90223,24.58392],[-100.95879,24.54268],[-101.0805,24.59119],[-101.20173,24.76549],[-101.34214,24.81335],[-101.46164,24.73676],[-101.62227,24.75898],[-101.64077,24.8007],[-101.60901,24.78966],[-101.60126,24.83556],[-101.77346,24.87554],[-101.84881,25.01762],[-102.29551,25.12524],[-102.46333,25.11592],[-102.44676,24.99952],[-102.66969,25.06664],[-102.86955,24.74203],[-103.09295,24.82286],[-103.25915,24.96466],[-103.26218,25.05855],[-103.35954,25.11003],[-103.51094,25.27982],[-103.46206,25.37631],[-103.4067,25.3989],[-103.33692,25.37123],[-103.49441,25.53773],[-103.33944,25.7076],[-103.35049,26.14239],[-103.26083,26.28473],[-103.31679,26.36178],[-103.37418,26.60235],[-103.64389,26.69016],[-103.8517,26.89613],[-103.85209,26.93462],[-103.74083,27.02252],[-103.83212,27.29829],[-103.87688,27.31159],[-103.8546,27.54943],[-103.89726,27.65655],[-103.88115,27.73919],[-103.93565,27.79755],[-103.90084,27.82686],[-103.96,27.83531],[-103.95497,27.95082],[-103.89289,27.91402],[-103.87772,27.95749],[-103.92669,27.97136],[-103.59192,28.59083],[-103.59637,28.63947],[-103.5573,28.61128],[-103.51451,28.665],[-103.30764,29.00329],[-103.27992,28.97589],[-103.1161,28.98418],[-103.10071,29.06033],[-102.99527,29.17964],[-102.86779,29.22312],[-102.90631,29.25932],[-102.88398,29.34798],[-102.81239,29.40027],[-102.80832,29.52264],[-102.67579,29.74301],[-102.56957,29.77174],[-102.54805,29.7446],[-102.48725,29.78693],[-102.38758,29.76151],[-102.31549,29.88]]]}},{"type":"Feature","id":"06","properties":{"state_id":"06","name":"Colima"},"geometry":{"type":"MultiPolygon","coordinates":[[[[-114.7521,18.33886],[-114.68961,18.37114],[-114.6805,18.36131],[-114.7521,18.33886]]],[[[-110.98634,18.86114],[-110.90775,18.77891],[-110.95147,18.71922],[-111.05559,18.78069],[-110.98634,18.86114]]],[[[-103.61828,19.51252],[-103.57427,19.41156],[-103.48643,19.33789],[-103.52648,19.07873],[-103.48845,18.96391],[-103.57324,18.87133],[-103.63028,18.88532],[-103.62003,18.80138],[-103.7003,18.75436],[-103.73791,18.68402],[-103.98321,18.87225],[-104.33206,19.01762],[-104.30395,19.07186],[-104.35541,19.11538],[-104.44172,19.08326],[-104.69059,19.17698],[-104.58984,19.1501],[-104.53029,19.25979],[-104.47167,19.22884],[-104.40095,19.28907],[-104.36187,19.26908],[-104.12298,19.31904],[-104.06173,19.4977],[-103.89952,19.43455],[-103.88933,19.4636],[-103.81925,19.40874],[-103.61828,19.51252]]],[[[-110.80102,19.33487],[-110.79628,19.3027],[-110.81266,19.29823],[-110.81885,19.30652],[-110.80102,19.33487]]]]}},{"type":"Feature","id":"07","properties":{"state_id":"07","name":"Chiapas"},"geometry":{"type":"Polygon","coordinates":[[[-91.99567,17.94259],[-91.9396,17.90629],[-91.94841,17.86331],[-91.91813,17.89952],[-91.81091,17.8994],[-91.78225,17.78248],[-91.83066,17.73768],[-91.65474,17.67616],[-91.63429,17.53462],[-91.6998,17.46711],[-91.41983,17.37407],[-91.38351,17.31283],[-91.42553,17.30184],[-91.42742,17.21659],[-91.34649,17.15903],[-91.26645,17.17013],[-91.26694,17.10788],[-91.12276,17.00338],[-91.06563,16.90286],[-90.98783,16.86308],[-90.96501,16.9015],[-90.97405,16.86363],[-90.92177,16.82194],[-90.80409,16.79872],[-90.71526,16.72789],[-90.6576,16.63946],[-90.66684,16.58181],[-90.6256,16.5777],[-90.64541,16.51864],[-90.60576,16.50204],[-90.63397,16.48127],[-90.48035,16.46126],[-90.48609,16.42391],[-90.39427,16.41594],[-90.37033,16.36593],[-90.40977,16.36302],[-90.38164,16.33845],[-90.45472,16.24865],[-90.42783,16.2332],[-90.45667,16.20951],[-90.4245,16.16318],[-90.44084,16.07419],[-91.73138,16.07402],[-92.21008,15.26122],[-92.0592,15.07033],[-92.15077,14.98692],[-92.13622,14.89165],[-92.18483,14.82826],[-92.14574,14.66344],[-92.22675,14.5321],[-93.33235,15.59112],[-93.74898,15.89652],[-94.03601,16.02209],[-94.10957,16.1791],[-94.04847,16.21617],[-94.03296,16.27594],[-94.13916,16.46179],[-93.86092,17.16374],[-93.79831,17.24192],[-93.66269,17.25628],[-93.5138,17.44281],[-93.48415,17.54988],[-93.35628,17.64804],[-93.39055,17.7734],[-93.34914,17.76709],[-93.38095,17.78316],[-93.34059,17.79812],[-93.3409,17.93033],[-93.27832,17.98529],[-93.09138,17.89756],[-93.1318,17.85232],[-93.11564,17.82221],[-93.10165,17.84583],[-93.02544,17.82542],[-93.05772,17.72049],[-93.04053,17.60983],[-92.94812,17.48274],[-92.88736,17.51046],[-92.83155,17.48086],[-92.81963,17.43275],[-92.85426,17.4112],[-92.78579,17.41753],[-92.75418,17.3433],[-92.67877,17.37849],[-92.66819,17.45669],[-92.60583,17.47738],[-92.57141,17.54961],[-92.40208,17.57804],[-92.35067,17.61793],[-92.33735,17.71209],[-92.27462,17.69226],[-92.1945,17.77664],[-92.13083,17.76608],[-92.14658,17.81468],[-92.12048,17.79597],[-92.10203,17.85088],[-92.04941,17.85477],[-92.0718,17.87767],[-92.00336,17.89052],[-91.99567,17.94259]]]}},{"type":"Feature","id":"08","properties":{"state_id":"08","name":"Chihuahua"},"geometry":{"type":"Polygon","coordinates":[[[-108.20837,31.78375],[-106.52852,31.78382],[-106.38127,31.73234],[-106.20813,31.46758],[-105.95351,31.36409],[-105.77258,31.16621],[-105.60414,31.08327],[-105.55759,30.99005],[-105.4001,30.88938],[-105.40119,30.85319],[-105.21555,30.8059],[-104.92236,30.60353],[-104.85916,30.3904],[-104.70619,30.23413],[-104.68295,29.92917],[-104.50833,29.63265],[-104.38492,29.54299],[-104.21288,29.48509],[-104.16793,29.39551],[-104.03789,29.31991],[-103.78332,29.26552],[-103.71828,29.18115],[-103.55407,29.15852],[-103.43282,29.04363],[-103.30677,29.02293],[-103.51451,28.665],[-103.5573,28.61128],[-103.59637,28.63947],[-103.59192,28.59083],[-103.92669,27.97136],[-103.87772,27.95749],[-103.89289,27.91402],[-103.95497,27.95082],[-103.96,27.83531],[-103.90084,27.82686],[-103.93565,27.79755],[-103.88115,27.73919],[-103.89726,27.65655],[-103.8546,27.54943],[-103.87688,27.31159],[-103.83212,27.29829],[-103.74083,27.02252],[-103.85209,26.93462],[-103.8517,26.89613],[-103.75397,26.82957],[-103.69909,26.72526],[-103.99383,26.75361],[-103.995,26.77754],[-104.04574,26.74298],[-104.22781,26.77715],[-104.27304,26.84228],[-104.31531,26.79907],[-104.28654,26.7254],[-104.33039,26.65653],[-104.43478,26.60452],[-104.50097,26.41476],[-104.57445,26.34047],[-104.80927,26.5085],[-104.8989,26.51002],[-105.05663,26.4193],[-105.10155,26.52141],[-105.26468,26.46207],[-105.35277,26.47888],[-105.36862,26.53427],[-105.47151,26.5087],[-105.549,26.54658],[-105.61949,26.68351],[-105.60101,26.61485],[-105.67488,26.61767],[-105.74634,26.71387],[-105.79426,26.69877],[-105.77581,26.66093],[-106.04734,26.84488],[-106.10064,26.75933],[-106.17763,26.77234],[-106.13067,26.7022],[-106.20792,26.67806],[-106.23296,26.55956],[-106.28014,26.53207],[-106.24203,26.46682],[-106.2976,26.39645],[-106.28704,26.33508],[-106.31226,26.34875],[-106.43278,26.20401],[-106.45582,25.97258],[-106.54731,25.95242],[-106.55597,25.69171],[-106.46362,25.72904],[-106.59182,25.64739],[-106.65283,25.55884],[-106.70797,25.60245],[-106.68197,25.57917],[-106.87376,25.57186],[-106.89378,25.64429],[-106.99432,25.66223],[-106.96532,25.69788],[-107.04614,25.69988],[-107.0579,25.75737],[-107.29613,25.92479],[-107.27635,26.00198],[-107.34653,26.10952],[-107.43104,26.14286],[-107.52002,26.10423],[-107.58203,26.17064],[-107.71108,26.17441],[-107.78069,26.13694],[-107.85402,26.19652],[-108.0128,26.43905],[-107.96102,26.52696],[-108.0816,26.64199],[-108.01175,26.68948],[-108.0057,26.76105],[-108.09411,26.87046],[-108.14425,26.86765],[-108.1431,26.90788],[-108.17455,26.88146],[-108.23024,26.90572],[-108.19427,27.03195],[-108.31656,27.03449],[-108.33333,27.0046],[-108.47997,27.03959],[-108.50249,26.98736],[-108.57225,27.01266],[-108.56254,27.04602],[-108.60228,27.03694],[-108.61143,27.15414],[-108.66258,27.21954],[-108.59105,27.31808],[-108.66165,27.46474],[-108.65241,27.53703],[-108.73985,27.59995],[-108.78449,27.73047],[-108.89552,27.74481],[-108.92029,27.78397],[-108.86914,27.83929],[-108.91487,27.85401],[-108.92651,27.94059],[-109.0319,28.01829],[-109.07289,28.14857],[-109.0687,28.28614],[-108.79166,28.25362],[-108.64129,28.29161],[-108.60351,28.34756],[-108.55093,28.31806],[-108.4797,28.36955],[-108.58015,28.63245],[-108.58379,28.74014],[-108.64329,28.76507],[-108.62382,28.80612],[-108.7098,28.88952],[-108.72959,29.09653],[-108.69853,29.12774],[-108.7453,29.16234],[-108.76189,29.25388],[-108.68221,29.26743],[-108.66973,29.30742],[-108.71775,29.46595],[-108.62516,29.50103],[-108.66231,29.54448],[-108.65499,29.64943],[-108.61828,29.66053],[-108.6591,29.71613],[-108.53496,29.75136],[-108.54126,29.79614],[-108.63572,29.82968],[-108.6072,29.84714],[-108.62022,30.29823],[-108.5422,30.28351],[-108.62206,30.34032],[-108.64865,30.41686],[-108.60384,30.46511],[-108.66477,30.46815],[-108.67779,30.55707],[-108.87647,30.62457],[-108.86693,30.68939],[-108.9483,30.73691],[-108.93924,30.90757],[-108.80239,30.9041],[-108.80326,31.00483],[-108.68381,31.00597],[-108.84564,31.13558],[-108.80502,31.19296],[-108.90629,31.21334],[-108.81723,31.23901],[-108.75592,31.33242],[-108.20847,31.33336],[-108.20837,31.78375]]]}},{"type":"Feature","id":"09","properties":{"state_id":"09","name":"Ciudad de México"},"geometry":{"type":"Polygon","coordinates":[[[-99.12371,19.59276],[-99.128,19.52453],[-99.06386,19.49878],[-99.05814,19.40069],[-98.9579,19.32323],[-98.97653,19.25313],[-98.9403,19.22324],[-98.96853,19.21057],[-98.96572,19.08586],[-99.02899,19.08537],[-99.0598,19.04824],[-99.2787,19.1317],[-99.36492,19.27777],[-99.31761,19.36573],[-99.22227,19.42702],[-99.20926,19.51241],[-99.15718,19.50285],[-99.17705,19.52933],[-99.12371,19.59276]]]}},{"type":"Feature","id":"10","properties":{"state_id":"10","name":"Durango"},"geometry":{"type":"Polygon","coordinates":[[[-106.04734,26.84488],[-105.86544,26.74738],[-105.77581,26.66093],[-105.79426,26.69877],[-105.74634,26.71387],[-105.67488,26.61767],[-105.60101,26.61485],[-105.61949,26.68351],[-105.549,26.54658],[-105.47151,26.5087],[-105.36862,26.53427],[-105.35277,26.47888],[-105.26468,26.46207],[-105.10155,26.52141],[-105.05663,26.4193],[-104.8989,26.51002],[-104.80927,26.5085],[-104.57445,26.34047],[-104.50097,26.41476],[-104.43478,26.60452],[-104.33039,26.65653],[-104.28654,26.7254],[-104.31531,26.79907],[-104.27304,26.84228],[-104.22781,26.77715],[-104.04574,26.74298],[-103.995,26.77754],[-103.99383,26.75361],[-103.65826,26.71948],[-103.37418,26.60235],[-103.31679,26.36178],[-103.26083,26.28473],[-103.35049,26.14239],[-103.33944,25.7076],[-103.49441,25.53773],[-103.33692,25.37123],[-103.4067,25.3989],[-103.46206,25.37631],[-103.51071,25.27913],[-103.35954,25.11003],[-103.26218,25.05855],[-103.25915,24.96466],[-103.0892,24.82123],[-102.8564,24.73977],[-102.66969,25.06664],[-102.62888,25.00832],[-102.67306,24.94275],[-102.56624,24.90222],[-102.48027,24.42801],[-102.6999,24.37397],[-102.78885,24.40625],[-102.83174,24.38469],[-102.89189,24.46112],[-102.90011,24.4285],[-103.04315,24.4665],[-103.09853,24.40163],[-103.25353,24.44725],[-103.41933,24.43049],[-103.44834,24.3326],[-103.56835,24.28637],[-103.55954,24.19379],[-103.62201,24.11746],[-103.66036,24.14933],[-103.87239,24.00702],[-103.81836,23.96491],[-103.85108,23.6796],[-103.7851,23.67656],[-103.79354,23.63086],[-103.87743,23.62897],[-103.89009,23.57983],[-103.92147,23.58918],[-104.06598,23.46349],[-104.12902,23.18221],[-104.17213,23.12841],[-104.16659,22.94522],[-104.11264,22.90512],[-104.08048,22.76662],[-104.22104,22.77942],[-104.26634,22.73654],[-104.28997,22.64561],[-104.26141,22.5862],[-104.32582,22.5374],[-104.29903,22.4617],[-104.34884,22.40972],[-104.49539,22.37632],[-104.48369,22.34943],[-104.58167,22.39995],[-104.60256,22.46051],[-104.65529,22.46215],[-104.66762,22.56255],[-104.75981,22.56872],[-104.78892,22.64797],[-104.8584,22.64833],[-104.86249,22.60707],[-104.98791,22.49873],[-105.06842,22.67841],[-104.89272,22.73741],[-104.91839,22.81978],[-104.98841,22.83605],[-105.00314,22.97698],[-105.32357,22.94133],[-105.35047,23.06058],[-105.41589,23.1169],[-105.55431,23.09889],[-105.64399,23.14177],[-105.63032,23.23558],[-105.73069,23.3749],[-105.70029,23.42017],[-105.7693,23.55647],[-105.81164,23.61103],[-105.88432,23.59039],[-105.89266,23.55265],[-105.90891,23.58827],[-105.95366,23.90858],[-105.86724,23.87524],[-105.85759,23.8993],[-105.94542,23.94803],[-105.91214,23.99753],[-105.99872,24.04338],[-105.98972,24.11439],[-106.07584,24.27139],[-106.26887,24.37476],[-106.33633,24.3557],[-106.36754,24.30194],[-106.51709,24.28698],[-106.60159,24.41457],[-106.56002,24.47271],[-106.63007,24.5065],[-106.70595,24.66526],[-106.86585,24.82296],[-106.93066,24.82092],[-106.93451,24.88054],[-107.00058,24.92824],[-107.02105,24.90991],[-107.06357,25.02526],[-107.12989,25.05314],[-107.14877,25.22455],[-107.12106,25.24311],[-107.20782,25.33156],[-107.17155,25.32636],[-107.21013,25.4171],[-107.13929,25.48956],[-107.17388,25.55655],[-106.97329,25.62957],[-106.99432,25.66223],[-106.89378,25.64429],[-106.87376,25.57186],[-106.68197,25.57917],[-106.70797,25.60245],[-106.65283,25.55884],[-106.59182,25.64739],[-106.46362,25.72904],[-106.55597,25.69171],[-106.56013,25.91271],[-106.54731,25.95242],[-106.45582,25.97258],[-106.43278,26.20401],[-106.31226,26.34875],[-106.28704,26.33508],[-106.2976,26.39645],[-106.24203,26.46682],[-106.28014,26.53207],[-106.23296,26.55956],[-106.20792,26.67806],[-106.13067,26.7022],[-106.17763,26.77234],[-106.10064,26.75933],[-106.04734,26.84488]]]}},{"type":"Feature","id":"11","properties":{"state_id":"11","name":"Guanajuato"},"geometry":{"type":"Polygon","coordinates":[[[-101.36146,21.83912],[-101.21715,21.81608],[-101.16127,21.75751],[-100.98197,21.75353],[-100.83432,21.66456],[-100.85768,21.61899],[-100.65746,21.52472],[-100.63545,21.54319],[-100.61496,21.50579],[-100.46108,21.54533],[-100.48569,21.59528],[-100.43504,21.68272],[-100.27214,21.68735],[-100.17963,21.65079],[-100.17144,21.60127],[-100.14719,21.61813],[-100.06228,21.52331],[-99.95682,21.52623],[-99.94233,21.44962],[-99.77608,21.49454],[-99.784,21.32015],[-99.75789,21.29214],[-99.6713,21.30119],[-99.68785,21.22578],[-99.73848,21.23582],[-99.83043,21.15751],[-99.98637,21.21831],[-100.02754,21.10025],[-100.01107,21.0285],[-100.06895,21.02281],[-100.06417,20.93629],[-100.18153,20.9304],[-100.26362,20.971],[-100.26554,20.92925],[-100.33359,20.89073],[-100.4134,20.88743],[-100.47223,20.92845],[-100.50205,20.85292],[-100.57759,20.81667],[-100.54891,20.73638],[-100.59654,20.71726],[-100.55113,20.63377],[-100.49618,20.61619],[-100.47618,20.38961],[-100.41,20.37601],[-100.32356,20.25193],[-100.39726,20.09695],[-100.35826,20.06492],[-100.36293,19.98986],[-100.46582,19.9874],[-100.51995,19.91882],[-100.53182,19.97639],[-100.59308,19.95828],[-100.57671,19.99306],[-100.74875,19.91275],[-100.8243,19.97833],[-100.83576,19.9346],[-100.94754,19.96255],[-100.97055,19.92924],[-101.00466,19.96623],[-100.96764,20.01129],[-101.0429,20.09195],[-101.13315,20.05998],[-101.17524,20.09712],[-101.19632,20.05719],[-101.16035,20.0402],[-101.20306,20.00722],[-101.38874,20.0304],[-101.41989,20.20159],[-101.3632,20.19579],[-101.35262,20.23493],[-101.45593,20.26717],[-101.46393,20.32852],[-101.62465,20.31458],[-101.69793,20.18967],[-101.83387,20.22479],[-101.88811,20.18839],[-101.93987,20.22708],[-101.94529,20.34267],[-101.99639,20.35964],[-102.0138,20.32793],[-102.01359,20.3939],[-102.09641,20.38426],[-101.95114,20.60743],[-102.09591,20.78005],[-102.07987,20.82907],[-101.93895,20.93061],[-101.875,21.09289],[-101.78111,21.16053],[-101.75972,21.26762],[-101.64318,21.29934],[-101.67758,21.39514],[-101.57042,21.41854],[-101.64117,21.52227],[-101.58019,21.62553],[-101.55765,21.7351],[-101.58569,21.77878],[-101.36146,21.83912]]]}},{"type":"Feature","id":"12","properties":{"state_id":"12","name":"Guerrero"},"geometry":{"type":"Polygon","coordinates":[[[-100.61018,18.88712],[-100.49348,18.82392],[-100.49029,18.7893],[-100.43063,18.78325],[-100.48703,18.64035],[-100.42973,18.59927],[-100.4291,18.51005],[-100.3737,18.52911],[-100.38536,18.42652],[-100.30375,18.36702],[-100.08995,18.52216],[-100.08241,18.58795],[-100.02496,18.60687],[-99.96167,18.55298],[-99.88846,18.61866],[-99.793,18.63066],[-99.73703,18.73983],[-99.67197,18.7135],[-99.69699,18.78634],[-99.63091,18.72055],[-99.58991,18.73931],[-99.53643,18.69375],[-99.49441,18.72054],[-99.3574,18.46767],[-99.32826,18.48883],[-99.32837,18.45954],[-99.20542,18.45659],[-99.17791,18.42475],[-99.14062,18.47497],[-99.06605,18.36711],[-99.06371,18.25148],[-99.0169,18.26639],[-99.00007,18.1902],[-98.88188,18.16616],[-98.85237,18.1176],[-98.86981,18.05722],[-98.7351,18.0451],[-98.81494,18.0017],[-98.65054,17.93316],[-98.52672,17.99629],[-98.42509,17.97693],[-98.42496,17.83959],[-98.49634,17.76881],[-98.48966,17.70344],[-98.46104,17.63036],[-98.37697,17.60535],[-98.32945,17.53298],[-98.28737,17.32901],[-98.3235,17.27594],[-98.20314,17.21629],[-98.2226,17.12215],[-98.00728,17.04014],[-98.11126,16.95887],[-98.07233,16.87425],[-98.10816,16.76095],[-98.24344,16.6967],[-98.20336,16.58718],[-98.39514,16.54684],[-98.34947,16.44559],[-98.39916,16.38051],[-98.47086,16.38116],[-98.55263,16.31595],[-98.77275,16.55475],[-98.90586,16.53443],[-99.33289,16.65845],[-99.66388,16.69789],[-99.85685,16.79352],[-99.86209,16.85513],[-99.91575,16.82776],[-99.98988,16.90926],[-101.06127,17.26476],[-101.0562,17.30695],[-101.20682,17.42873],[-101.45701,17.52497],[-101.4436,17.5639],[-101.49439,17.61342],[-101.65317,17.66247],[-101.66707,17.73375],[-101.81813,17.89245],[-102.03217,17.98756],[-102.09883,17.98296],[-102.13791,17.94019],[-102.18016,17.9989],[-102.14246,18.18706],[-101.97815,18.20731],[-101.89682,18.27712],[-101.86325,18.26166],[-101.88226,18.53423],[-101.77179,18.60372],[-101.6245,18.59915],[-101.58356,18.52099],[-101.50744,18.4868],[-101.28208,18.54473],[-101.08866,18.50591],[-101.012,18.52754],[-100.95744,18.44443],[-100.87398,18.49201],[-100.79818,18.48054],[-100.643,18.34616],[-100.58823,18.41215],[-100.74423,18.51807],[-100.79897,18.78454],[-100.76667,18.86542],[-100.69607,18.79413],[-100.61018,18.88712]]]}},{"type":"Feature","id":"13","properties":{"state_id":"13","name":"Hidalgo"},"geometry":{"type":"Polygon","coordinates":[[[-98.48554,21.39838],[-98.46361,21.35015],[-98.54398,21.2639],[-98.46836,21.24965],[-98.41644,21.15498],[-98.27913,21.19275],[-98.29451,21.14719],[-98.21682,21.15147],[-98.14741,21.07658],[-98.2655,20.86654],[-98.23365,20.79756],[-98.32852,20.7841],[-98.34515,20.86485],[-98.40291,20.85838],[-98.45055,20.82147],[-98.44973,20.75135],[-98.51665,20.74289],[-98.55018,20.68939],[-98.5334,20.66272],[-98.42145,20.74428],[-98.49485,20.64434],[-98.48018,20.589],[-98.51225,20.59422],[-98.53467,20.53066],[-98.59729,20.49577],[-98.54969,20.43536],[-98.54897,20.36029],[-98.46039,20.33145],[-98.32101,20.41801],[-98.22869,20.52083],[-98.15804,20.54256],[-98.0749,20.67655],[-98.02101,20.62678],[-98.01727,20.52599],[-97.98507,20.51741],[-98.12684,20.33623],[-98.18131,20.33654],[-98.17908,20.29381],[-98.25403,20.30134],[-98.28444,20.26279],[-98.27055,20.21581],[-98.17592,20.25423],[-98.13958,20.15014],[-98.09788,20.14539],[-98.1809,20.04699],[-98.16043,19.97813],[-98.2516,19.94815],[-98.315,19.85512],[-98.26715,19.84334],[-98.1957,19.74162],[-98.33167,19.72232],[-98.3817,19.60936],[-98.51924,19.6024],[-98.56636,19.64112],[-98.66315,19.60475],[-98.67005,19.65868],[-98.61967,19.66116],[-98.63292,19.72224],[-98.59687,19.76584],[-98.69764,19.83211],[-98.67266,19.86283],[-98.78057,19.88354],[-98.79517,19.85641],[-98.88316,19.90153],[-98.95004,19.79964],[-99.0082,19.8284],[-99.02058,19.86768],[-98.95355,19.88854],[-98.99562,19.95689],[-98.94273,19.97907],[-98.98898,20.06826],[-99.00412,19.96495],[-99.03134,20.01485],[-99.05958,19.974],[-99.08545,20.03249],[-99.1586,20.02719],[-99.22776,19.95107],[-99.2283,19.87505],[-99.38303,19.77142],[-99.37325,19.85154],[-99.48398,19.90518],[-99.43685,20.0013],[-99.51224,20.1751],[-99.6306,20.14569],[-99.65973,20.18082],[-99.71937,20.16714],[-99.84189,20.28188],[-99.85954,20.26463],[-99.82807,20.54301],[-99.61951,20.59141],[-99.50192,20.65896],[-99.54847,20.7372],[-99.39063,20.95227],[-99.36325,21.04173],[-99.39728,21.10207],[-99.34636,21.10088],[-99.30921,21.1473],[-99.24768,21.10127],[-99.06133,21.15421],[-99.05514,21.28254],[-98.94496,21.31134],[-98.88266,21.17961],[-98.79395,21.16018],[-98.80814,21.19324],[-98.74131,21.19279],[-98.69664,21.16146],[-98.68266,21.20064],[-98.60874,21.20141],[-98.59524,21.28323],[-98.68108,21.34618],[-98.54957,21.3846],[-98.51143,21.36251],[-98.48554,21.39838]]]}},{"type":"Feature","id":"14","properties":{"state_id":"14","name":"Jalisco"},"geometry":{"type":"Polygon","coordinates":[[[-104.02569,22.74328],[-103.75199,22.71165],[-103.76096,22.62561],[-103.86072,22.56762],[-103.8947,22.43816],[-103.86693,22.40938],[-103.92612,22.33207],[-103.86294,22.16688],[-103.84543,22.34276],[-103.7691,22.55579],[-103.72656,22.57415],[-103.60276,22.55679],[-103.55919,22.42843],[-103.6048,22.34014],[-103.64211,22.34087],[-103.5949,22.27308],[-103.68385,22.10921],[-103.6047,22.09794],[-103.56014,22.13659],[-103.4395,22.11764],[-103.40896,22.21536],[-103.2951,22.25329],[-103.30688,22.30628],[-103.35569,22.2798],[-103.36668,22.35104],[-103.28523,22.41424],[-103.16858,22.38501],[-103.22062,22.28047],[-103.10099,22.29397],[-103.05546,22.24726],[-103.10606,22.19136],[-103.07702,22.1255],[-103.15278,22.08762],[-103.10791,22.0634],[-103.11149,22.01426],[-103.20166,21.99857],[-103.20557,21.96519],[-103.27856,21.98965],[-103.34408,21.91347],[-103.41387,21.90546],[-103.47053,21.81354],[-103.57263,21.80349],[-103.50847,21.73974],[-103.54522,21.58764],[-103.68979,21.55235],[-103.70146,21.46627],[-103.59531,21.39091],[-103.5387,21.44477],[-103.50392,21.37684],[-103.72084,21.30796],[-103.71365,21.26669],[-103.63399,21.28229],[-103.66732,21.21605],[-103.56896,21.11672],[-103.42858,21.14672],[-103.3531,21.04526],[-103.2096,21.09422],[-103.12733,21.05353],[-103.05648,21.09932],[-103.0985,21.12849],[-103.0655,21.25581],[-102.9969,21.25968],[-102.91065,21.20523],[-102.81196,21.32372],[-102.75528,21.32316],[-102.72913,21.38736],[-102.67778,21.34089],[-102.64244,21.36774],[-102.63073,21.53398],[-102.76474,21.59606],[-102.80528,21.67128],[-102.66893,21.76405],[-102.31017,21.62663],[-102.30399,21.66668],[-102.23762,21.652],[-102.21427,21.69482],[-102.1421,21.70537],[-102.03842,21.8532],[-101.838,21.90734],[-101.83529,21.94177],[-101.8858,21.93261],[-101.9126,21.99749],[-101.89125,21.97659],[-101.86167,22.02888],[-101.80144,22.031],[-101.6507,21.90768],[-101.56981,21.91708],[-101.56596,21.84203],[-101.51054,21.79906],[-101.58569,21.77878],[-101.55765,21.7351],[-101.58019,21.62553],[-101.64127,21.52665],[-101.57042,21.41854],[-101.67758,21.39514],[-101.64318,21.29934],[-101.75972,21.26762],[-101.78111,21.16053],[-101.875,21.09289],[-101.93895,20.93061],[-102.07987,20.82907],[-102.09591,20.78005],[-101.95114,20.60743],[-102.07088,20.40902],[-102.25416,20.33527],[-102.3066,20.35816],[-102.50544,20.31586],[-102.52858,20.27095],[-102.67903,20.22691],[-102.67972,20.1715],[-102.81928,20.13725],[-102.81629,20.10605],[-102.86595,20.16236],[-102.94017,20.17168],[-102.92645,20.12958],[-103.04415,20.12412],[-103.02522,19.96049],[-102.95121,19.99656],[-102.77687,19.96015],[-102.73122,19.89951],[-102.7394,19.81583],[-102.81953,19.77794],[-102.78048,19.70432],[-102.80566,19.67484],[-102.71593,19.60294],[-102.73806,19.49336],[-102.68949,19.51342],[-102.65753,19.48724],[-102.58186,19.52826],[-102.54372,19.42958],[-102.57679,19.42391],[-102.66211,19.21881],[-102.75382,19.25581],[-102.9601,19.17406],[-102.97762,19.12006],[-103.02043,19.13049],[-102.99084,19.05338],[-103.06324,19.02785],[-103.0525,18.99813],[-103.1482,18.92587],[-103.22388,19.0241],[-103.33249,18.97325],[-103.49502,18.97067],[-103.52648,19.07873],[-103.48643,19.33789],[-103.57427,19.41156],[-103.61828,19.51252],[-103.81925,19.40874],[-103.88933,19.4636],[-103.89952,19.43455],[-104.06173,19.4977],[-104.12298,19.31904],[-104.36187,19.26908],[-104.40095,19.28907],[-104.47167,19.22884],[-104.53029,19.25979],[-104.58984,19.1501],[-104.61882,19.18085],[-104.70281,19.17813],[-104.68509,19.20564],[-104.73293,19.23923],[-104.80849,19.23257],[-104.79411,19.29528],[-104.87311,19.27617],[-104.95357,19.32163],[-105.03209,19.38725],[-105.02523,19.43641],[-105.07312,19.4711],[-105.10425,19.57805],[-105.26468,19.67917],[-105.50444,20.01055],[-105.54999,20.09452],[-105.55488,20.22466],[-105.69277,20.38823],[-105.60415,20.47577],[-105.31646,20.51176],[-105.2327,20.61722],[-105.27893,20.68133],[-105.23992,20.74735],[-105.1734,20.76771],[-105.14255,20.88647],[-105.08034,20.93147],[-104.96724,20.90951],[-104.8381,21.02001],[-104.72999,21.01229],[-104.681,20.94384],[-104.55692,20.92415],[-104.49994,20.83819],[-104.28849,20.68916],[-104.25364,20.60342],[-104.24182,20.71343],[-104.28286,20.78348],[-104.37589,20.78407],[-104.36177,20.84093],[-104.29542,20.8455],[-104.29092,20.8878],[-104.20659,20.93637],[-104.24271,21.02733],[-104.2194,21.17661],[-104.02797,21.19467],[-103.97345,21.25633],[-103.89836,21.22649],[-103.81939,21.24844],[-103.74935,21.33671],[-103.7644,21.4103],[-103.7209,21.42543],[-103.77413,21.49838],[-103.82371,21.49305],[-103.91923,21.58199],[-103.93025,21.64191],[-103.88772,21.69782],[-103.92175,21.77033],[-104.16175,21.80984],[-104.197,21.85077],[-104.19332,21.98542],[-104.37069,21.97617],[-104.37319,22.10256],[-104.28487,22.29709],[-104.29838,22.34781],[-104.25474,22.34879],[-104.22075,22.4211],[-104.16469,22.39165],[-104.21483,22.48416],[-104.07716,22.53178],[-104.05157,22.46675],[-104.09416,22.35505],[-104.01513,22.36481],[-103.92944,22.47512],[-104.00557,22.5366],[-103.97233,22.54511],[-104.02701,22.61318],[-104.01551,22.66891],[-104.07362,22.69695],[-104.02569,22.74328]]]}},{"type":"Feature","id":"15","properties":{"state_id":"15","name":"México"},"geometry":{"type":"Polygon","coordinates":[[[-99.91237,20.28563],[-99.84189,20.28188],[-99.71937,20.16714],[-99.65973,20.18082],[-99.6306,20.14569],[-99.51224,20.1751],[-99.43685,20.0013],[-99.48398,19.90518],[-99.37325,19.85154],[-99.38245,19.7712],[-99.2283,19.87505],[-99.22776,19.95107],[-99.1586,20.02719],[-99.08545,20.03249],[-99.05958,19.974],[-99.03134,20.01485],[-99.03451,19.97177],[-99.00412,19.96495],[-99.02155,19.98701],[-98.98898,20.06826],[-98.94273,19.97907],[-98.99562,19.95689],[-98.95355,19.88854],[-99.02058,19.86768],[-99.0082,19.8284],[-98.95004,19.79964],[-98.88316,19.90153],[-98.79517,19.85641],[-98.78057,19.88354],[-98.67266,19.86283],[-98.69764,19.83211],[-98.59687,19.76584],[-98.63292,19.72224],[-98.61967,19.66116],[-98.67005,19.65868],[-98.7084,19.5476],[-98.63482,19.43124],[-98.66018,19.43209],[-98.63808,19.35891],[-98.66348,19.32479],[-98.62752,19.25776],[-98.61987,19.03506],[-98.71404,18.94303],[-98.79208,18.93534],[-98.85948,18.96478],[-98.9156,19.06406],[-98.979,19.07446],[-98.96853,19.21057],[-98.9403,19.22324],[-98.97653,19.25313],[-98.9579,19.32323],[-99.05814,19.40069],[-99.06386,19.49878],[-99.1259,19.52121],[-99.12371,19.59276],[-99.17705,19.52933],[-99.15718,19.50285],[-99.20926,19.51241],[-99.22233,19.42695],[-99.35661,19.30668],[-99.2787,19.1317],[-99.31832,19.08742],[-99.30872,18.9588],[-99.42935,18.87757],[-99.49387,18.72082],[-99.53643,18.69375],[-99.58991,18.73931],[-99.63091,18.72055],[-99.69722,18.78634],[-99.67197,18.7135],[-99.73703,18.73983],[-99.793,18.63066],[-99.88846,18.61866],[-99.96167,18.55298],[-100.02496,18.60687],[-100.08241,18.58795],[-100.08995,18.52216],[-100.25952,18.42743],[-100.30338,18.36694],[-100.38536,18.42652],[-100.3737,18.52911],[-100.4291,18.51005],[-100.42973,18.59927],[-100.48703,18.64035],[-100.43063,18.78325],[-100.49029,18.7893],[-100.49348,18.82392],[-100.6129,18.89345],[-100.54379,18.9347],[-100.52985,19.00933],[-100.41083,19.0636],[-100.31988,19.25299],[-100.31237,19.36236],[-100.18987,19.4397],[-100.17769,19.49262],[-100.27399,19.67225],[-100.23414,19.72004],[-100.19211,19.69714],[-100.14819,19.72822],[-100.13149,19.85201],[-100.06303,19.85581],[-100.13012,19.91619],[-100.11602,20.00613],[-100.15508,20.00744],[-100.15332,20.05367],[-100.08882,20.01502],[-100.00035,20.07748],[-99.92634,20.06433],[-99.9219,20.15874],[-99.98646,20.25707],[-99.91841,20.21179],[-99.91237,20.28563]]]}},{"type":"Feature","id":"16","properties":{"state_id":"16","name":"Michoacán de Ocampo"},"geometry":{"type":"Polygon","coordinates":[[[-102.01493,20.39447],[-102.0158,20.3293],[-101.99639,20.35964],[-101.94472,20.34213],[-101.93987,20.22708],[-101.88811,20.18839],[-101.83387,20.22479],[-101.69793,20.18967],[-101.62465,20.31458],[-101.46491,20.32901],[-101.45593,20.26717],[-101.35262,20.23493],[-101.3632,20.19579],[-101.41989,20.20159],[-101.40168,20.03501],[-101.20306,20.00722],[-101.16035,20.0402],[-101.19632,20.05719],[-101.17524,20.09712],[-101.13315,20.05998],[-101.02135,20.08694],[-100.96733,20.00991],[-101.00344,19.95356],[-100.96441,19.92827],[-100.94754,19.96255],[-100.83576,19.9346],[-100.8243,19.97833],[-100.74875,19.91275],[-100.57671,19.99306],[-100.59308,19.95828],[-100.53182,19.97639],[-100.53601,19.92301],[-100.51995,19.91882],[-100.46582,19.9874],[-100.36293,19.98986],[-100.35826,20.06492],[-100.39726,20.09695],[-100.32356,20.25193],[-100.34583,20.298],[-100.18114,20.2088],[-100.2356,20.14346],[-100.19739,20.12989],[-100.20294,20.07665],[-100.16446,20.07835],[-100.13808,20.04756],[-100.13012,19.91619],[-100.06303,19.85581],[-100.13149,19.85201],[-100.14819,19.72822],[-100.19211,19.69714],[-100.23414,19.72004],[-100.27399,19.67225],[-100.17769,19.49262],[-100.18987,19.4397],[-100.31237,19.36236],[-100.31988,19.25299],[-100.41083,19.0636],[-100.52985,19.00933],[-100.54379,18.9347],[-100.69607,18.79413],[-100.7484,18.86793],[-100.79177,18.83417],[-100.7649,18.56121],[-100.71504,18.4864],[-100.5907,18.41546],[-100.60874,18.37919],[-100.64587,18.34615],[-100.79818,18.48054],[-100.87398,18.49201],[-100.96311,18.44573],[-101.012,18.52754],[-101.08866,18.50591],[-101.28208,18.54473],[-101.50648,18.48669],[-101.58356,18.52099],[-101.6245,18.59915],[-101.77179,18.60372],[-101.88226,18.53423],[-101.86325,18.26166],[-101.89682,18.27712],[-101.97648,18.20802],[-102.16182,18.16415],[-102.18131,18.00332],[-102.13299,17.95084],[-102.19178,17.91337],[-102.48042,18.01737],[-102.75913,18.06988],[-103.49337,18.32864],[-103.58309,18.50591],[-103.71188,18.59701],[-103.68621,18.62864],[-103.73791,18.68402],[-103.7003,18.75436],[-103.62003,18.80138],[-103.63028,18.88532],[-103.57324,18.87133],[-103.4731,18.99107],[-103.33249,18.97325],[-103.22539,19.02412],[-103.17336,18.93626],[-103.12502,18.93014],[-103.0525,18.99813],[-103.06324,19.02785],[-102.99084,19.05338],[-103.01973,19.13237],[-102.97762,19.12006],[-102.9601,19.17406],[-102.75382,19.25581],[-102.66992,19.21241],[-102.57679,19.42391],[-102.54372,19.42958],[-102.58186,19.52826],[-102.65753,19.48724],[-102.68949,19.51342],[-102.73806,19.49336],[-102.71593,19.60294],[-102.80566,19.67484],[-102.78048,19.70432],[-102.81953,19.77794],[-102.7394,19.81583],[-102.73122,19.89951],[-102.77687,19.96015],[-102.95121,19.99656],[-103.02522,19.96049],[-103.04415,20.12412],[-102.92645,20.12958],[-102.94017,20.17168],[-102.86595,20.16236],[-102.81629,20.10605],[-102.8152,20.13926],[-102.67972,20.1715],[-102.67903,20.22691],[-102.52928,20.27062],[-102.44739,20.33849],[-102.25416,20.33527],[-102.01493,20.39447]]]}},{"type":"Feature","id":"17","properties":{"state_id":"17","name":"Morelos"},"geometry":{"type":"Polygon","coordinates":[[[-99.29508,19.12293],[-98.9156,19.06406],[-98.85948,18.96478],[-98.79208,18.93534],[-98.71404,18.94303],[-98.63295,19.01555],[-98.75349,18.74297],[-98.71591,18.73919],[-98.74188,18.70218],[-98.7067,18.44511],[-98.82777,18.52389],[-99.06479,18.33237],[-99.14109,18.47524],[-99.17791,18.42475],[-99.20542,18.45659],[-99.32837,18.45954],[-99.32826,18.48883],[-99.3574,18.46767],[-99.49441,18.72054],[-99.42935,18.87757],[-99.31304,18.94812],[-99.29508,19.12293]]]}},{"type":"Feature","id":"18","properties":{"state_id":"18","name":"Nayarit"},"geometry":{"type":"MultiPolygon","coordinates":[[[[-106.22814,21.33259],[-106.22979,21.29186],[-106.27913,21.31461],[-106.25826,21.33479],[-106.22814,21.33259]]],[[[-106.49401,21.4662],[-106.3712,21.48068],[-106.38637,21.41975],[-106.49401,21.4662]]],[[[-106.65335,21.69345],[-106.53631,21.65808],[-106.5057,21.60335],[-106.5322,21.54477],[-106.62897,21.59861],[-106.65335,21.69345]]],[[[-106.68773,21.75937],[-106.65772,21.73945],[-106.67696,21.7286],[-106.68773,21.75937]]],[[[-105.38357,23.08174],[-105.32357,22.94133],[-105.00314,22.97698],[-104.98841,22.83605],[-104.91839,22.81978],[-104.89272,22.73741],[-105.06842,22.67841],[-104.98791,22.49873],[-104.86249,22.60707],[-104.8584,22.64833],[-104.78892,22.64797],[-104.77538,22.5842],[-104.67,22.56526],[-104.65529,22.46215],[-104.60256,22.46051],[-104.59308,22.41195],[-104.50651,22.34516],[-104.37151,22.42166],[-104.29313,22.36513],[-104.28487,22.29709],[-104.37319,22.10256],[-104.36986,21.97478],[-104.29408,22.00276],[-104.24601,21.96694],[-104.19332,21.98542],[-104.197,21.85077],[-104.16175,21.80984],[-103.92348,21.7718],[-103.88772,21.69782],[-103.93025,21.64191],[-103.91923,21.58199],[-103.82371,21.49305],[-103.77413,21.49838],[-103.72102,21.42597],[-103.7644,21.4103],[-103.74935,21.33671],[-103.81939,21.24844],[-103.89836,21.22649],[-103.97345,21.25633],[-104.02797,21.19467],[-104.2194,21.17661],[-104.24271,21.02733],[-104.20659,20.93637],[-104.29092,20.8878],[-104.29542,20.8455],[-104.36177,20.84093],[-104.37589,20.78407],[-104.28286,20.78348],[-104.24182,20.71343],[-104.25364,20.60342],[-104.28849,20.68916],[-104.49994,20.83819],[-104.55692,20.92415],[-104.65638,20.93239],[-104.78246,21.02336],[-104.8381,21.02001],[-104.96724,20.90951],[-105.09864,20.91943],[-105.16056,20.85742],[-105.1734,20.76771],[-105.23992,20.74735],[-105.27633,20.67199],[-105.34768,20.75969],[-105.39898,20.73465],[-105.53831,20.76223],[-105.3135,21.03515],[-105.27319,21.0235],[-105.23815,21.0581],[-105.21638,21.20501],[-105.24819,21.34729],[-105.18786,21.4583],[-105.22888,21.52359],[-105.2655,21.51185],[-105.4413,21.62786],[-105.63151,21.96311],[-105.63651,22.18147],[-105.75962,22.53757],[-105.69248,22.46718],[-105.69883,22.56788],[-105.64216,22.59389],[-105.59735,22.5363],[-105.47406,22.5029],[-105.44172,22.52427],[-105.52477,22.77477],[-105.47459,22.85142],[-105.50126,22.95856],[-105.38357,23.08174]]]]}},{"type":"Feature","id":"19","properties":{"state_id":"19","name":"Nuevo León"},"geometry":{"type":"Polygon","coordinates":[[[-100.188,27.79872],[-99.99884,27.61528],[-99.84322,27.76986],[-99.73623,27.69071],[-99.92642,27.54916],[-99.91915,27.49152],[-99.76038,27.43696],[-99.74767,27.27725],[-99.65005,27.06586],[-99.73417,26.92061],[-99.77013,26.92842],[-99.76667,26.88984],[-99.66139,26.90084],[-99.58084,26.83011],[-99.65916,26.67037],[-99.53834,26.6646],[-99.39682,26.59657],[-99.43095,26.3513],[-99.40124,26.3048],[-99.36415,26.32927],[-99.26,26.25285],[-99.19784,26.25868],[-99.16008,26.06123],[-99.02387,26.1041],[-98.90075,25.96832],[-98.82323,26.04765],[-98.58513,26.01792],[-98.58175,25.48936],[-98.42158,25.48936],[-98.42313,25.44749],[-98.93417,25.07276],[-99.01906,25.06993],[-99.05247,25.12713],[-99.09761,25.06312],[-99.16059,25.05528],[-99.15894,24.91599],[-99.20743,24.86139],[-99.18197,24.77604],[-99.29493,24.80414],[-99.47774,24.71262],[-99.54622,24.61307],[-99.60945,24.62249],[-99.73298,24.55399],[-99.7198,24.48371],[-99.63638,24.50667],[-99.58993,24.39614],[-99.65708,24.118],[-99.54189,24.03365],[-99.45687,23.86606],[-99.49379,23.87869],[-99.60217,23.76287],[-99.86066,23.77446],[-99.96119,23.55689],[-99.92125,23.37919],[-100.08026,23.39575],[-100.14495,23.33952],[-100.07804,23.30598],[-100.1019,23.23108],[-100.22824,23.25048],[-100.20636,23.30711],[-100.21824,23.31013],[-100.27843,23.31037],[-100.30626,23.26094],[-100.37432,23.26532],[-100.33176,23.16268],[-100.48387,23.20883],[-100.45708,23.36641],[-100.51721,23.42104],[-100.49417,23.52841],[-100.45918,23.51157],[-100.49164,23.56861],[-100.44572,23.67733],[-100.5624,23.91964],[-100.51683,24.1399],[-100.6134,24.17394],[-100.58509,24.22393],[-100.63307,24.22598],[-100.60353,24.4013],[-100.71121,24.49152],[-100.74232,24.46044],[-100.79993,24.55619],[-100.82613,24.835],[-100.7275,24.91872],[-100.82151,24.99671],[-100.80313,25.16526],[-100.70889,25.23646],[-100.59196,25.25505],[-100.33201,25.18629],[-100.32555,25.22226],[-100.22958,25.21792],[-100.25414,25.30691],[-100.31302,25.33637],[-100.4701,25.33779],[-100.45188,25.41081],[-100.61909,25.50569],[-100.53844,25.53185],[-100.69029,25.5671],[-100.72977,25.6339],[-100.78342,25.63968],[-100.8619,25.81848],[-100.83442,25.94504],[-100.90553,25.95695],[-100.91642,26.07561],[-101.06857,26.18903],[-101.20676,26.36978],[-100.75304,26.73521],[-100.69123,26.61379],[-100.6144,26.68564],[-100.53816,26.80856],[-100.534,27.04558],[-100.68272,27.11139],[-100.74862,27.08125],[-100.73584,27.04758],[-100.74771,27.03626],[-100.76586,27.06333],[-100.79944,27.04583],[-100.83412,27.19517],[-100.67801,27.3348],[-100.4177,27.39363],[-100.35061,27.6846],[-100.188,27.79872]]]}},{"type":"Feature","id":"20","properties":{"state_id":"20","name":"Oaxaca"},"geometry":{"type":"Polygon","coordinates":[[[-96.68214,18.66884],[-96.56095,18.5877],[-96.45731,18.57044],[-96.21748,18.16197],[-96.17069,18.18638],[-96.18828,18.1513],[-96.15423,18.1318],[-96.09918,18.16684],[-96.05139,18.12674],[-95.95346,18.15987],[-95.83317,18.12903],[-95.79992,17.95001],[-95.90277,17.73265],[-95.78111,17.63888],[-95.80755,17.59184],[-95.7269,17.57803],[-95.70224,17.51853],[-95.6541,17.56039],[-95.59875,17.53461],[-95.532,17.55583],[-95.23891,17.73926],[-95.18244,17.69106],[-95.18813,17.6507],[-95.27885,17.61324],[-95.07657,17.37293],[-94.89078,17.31106],[-94.92281,17.19379],[-93.86743,17.13696],[-94.13916,16.46179],[-94.03296,16.27594],[-94.10276,16.14252],[-94.00022,16.00309],[-94.27328,16.12327],[-94.54076,16.19197],[-94.83185,16.21454],[-95.14234,16.18865],[-95.35041,16.08164],[-95.36818,16.02069],[-95.43557,15.97581],[-95.95403,15.82964],[-96.23736,15.68247],[-96.42646,15.69603],[-96.55779,15.65687],[-96.86092,15.73906],[-97.21288,15.92337],[-97.78562,15.98075],[-98.20427,16.22854],[-98.55263,16.31595],[-98.47086,16.38116],[-98.39916,16.38051],[-98.34994,16.44445],[-98.39514,16.54684],[-98.20336,16.58718],[-98.24344,16.6967],[-98.10816,16.76095],[-98.07233,16.87425],[-98.11126,16.95887],[-98.00728,17.04014],[-98.2226,17.12215],[-98.20314,17.21629],[-98.3235,17.27594],[-98.28737,17.32901],[-98.32945,17.53298],[-98.48617,17.68099],[-98.49634,17.76881],[-98.42489,17.86599],[-98.32882,17.87893],[-98.28231,17.93515],[-98.25477,17.88363],[-98.20975,17.87976],[-98.13039,17.98808],[-98.02979,17.99184],[-97.93738,17.9679],[-97.9363,17.91718],[-97.81929,17.91474],[-97.76638,18.00591],[-97.69777,18.01882],[-97.77167,18.06837],[-97.79092,18.00416],[-97.82627,17.97268],[-97.8426,17.99608],[-97.81067,18.06772],[-97.86748,18.14457],[-97.7973,18.28317],[-97.65471,18.29309],[-97.65318,18.17529],[-97.54391,18.03344],[-97.48924,18.02559],[-97.30341,18.15908],[-97.16737,18.2009],[-97.11376,18.14947],[-97.04209,18.15657],[-96.99148,18.23074],[-96.85476,18.24123],[-96.75464,18.39216],[-96.67456,18.3814],[-96.70971,18.42995],[-96.68228,18.50712],[-96.7269,18.52983],[-96.67246,18.60757],[-96.68214,18.66884]]]}},{"type":"Feature","id":"21","properties":{"state_id":"21","name":"Puebla"},"geometry":{"type":"Polygon","coordinates":[[[-97.87912,20.83428],[-97.8307,20.808],[-97.69518,20.80004],[-97.75297,20.73237],[-97.74951,20.64332],[-97.70447,20.62922],[-97.68477,20.55426],[-97.58795,20.56107],[-97.54104,20.48971],[-97.63537,20.45219],[-97.64541,20.40832],[-97.7346,20.45131],[-97.76564,20.38123],[-97.70069,20.31992],[-97.67313,20.33661],[-97.6814,20.30243],[-97.7573,20.27908],[-97.73146,20.18135],[-97.60449,20.16687],[-97.58026,20.07901],[-97.49484,20.13735],[-97.44528,20.24616],[-97.38061,20.24988],[-97.36551,20.21575],[-97.12241,20.13672],[-97.26067,19.97725],[-97.30456,19.87069],[-97.33314,19.71678],[-97.30393,19.67116],[-97.41847,19.62722],[-97.42665,19.54168],[-97.40456,19.49587],[-97.34826,19.48463],[-97.35728,19.43238],[-97.39736,19.41906],[-97.36045,19.37603],[-97.28497,19.39164],[-97.21021,19.35944],[-97.20027,19.30926],[-97.04551,19.32128],[-96.98556,19.2794],[-97.05615,19.19767],[-97.02705,19.13324],[-97.19459,19.17181],[-97.2614,19.09663],[-97.28513,18.99943],[-97.24182,18.90214],[-97.35303,18.79128],[-97.34397,18.68576],[-97.27185,18.62778],[-97.23543,18.64357],[-97.14144,18.59642],[-97.07997,18.45451],[-96.99892,18.53192],[-96.89925,18.54865],[-96.84236,18.49339],[-96.79701,18.51194],[-96.78101,18.42907],[-96.72468,18.40739],[-96.85476,18.24123],[-96.99148,18.23074],[-97.04209,18.15657],[-97.11376,18.14947],[-97.16737,18.2009],[-97.30341,18.15908],[-97.37655,18.09451],[-97.41124,18.10239],[-97.46692,18.02695],[-97.54391,18.03344],[-97.65318,18.17529],[-97.65471,18.29309],[-97.7973,18.28317],[-97.86748,18.14457],[-97.81067,18.06772],[-97.8426,17.99608],[-97.82627,17.97268],[-97.79092,18.00416],[-97.77167,18.06837],[-97.69777,18.01882],[-97.76638,18.00591],[-97.81929,17.91474],[-97.9363,17.91718],[-97.93738,17.9679],[-98.02979,17.99184],[-98.13039,17.98808],[-98.20975,17.87976],[-98.25477,17.88363],[-98.28231,17.93515],[-98.32882,17.87893],[-98.42077,17.86369],[-98.44814,17.99071],[-98.52672,17.99629],[-98.65054,17.93316],[-98.81494,18.0017],[-98.7351,18.0451],[-98.86981,18.05722],[-98.85237,18.1176],[-98.88188,18.16616],[-99.00007,18.1902],[-98.98906,18.24935],[-99.06371,18.25148],[-99.07049,18.32684],[-98.82777,18.52389],[-98.7067,18.44511],[-98.74188,18.70218],[-98.71591,18.73919],[-98.75349,18.74297],[-98.66132,18.89781],[-98.71347,18.86724],[-98.70734,18.90286],[-98.61987,19.03506],[-98.65323,19.46599],[-98.52319,19.46087],[-98.34271,19.17794],[-98.30716,19.1892],[-98.16618,19.10507],[-98.03169,19.23094],[-97.9282,19.16421],[-97.85099,19.22293],[-97.87029,19.27059],[-97.83927,19.30138],[-97.69093,19.28589],[-97.62636,19.32393],[-97.79454,19.49837],[-97.85942,19.45435],[-97.86227,19.45618],[-97.87181,19.56177],[-98.04221,19.64022],[-98.06081,19.72892],[-98.06461,19.70866],[-98.10101,19.66805],[-98.24107,19.67584],[-98.25532,19.71883],[-98.19438,19.76537],[-98.315,19.85512],[-98.2516,19.94815],[-98.16043,19.97813],[-98.1809,20.04699],[-98.09788,20.14539],[-98.13958,20.15014],[-98.17592,20.25423],[-98.27055,20.21581],[-98.28444,20.26279],[-98.25403,20.30134],[-98.17908,20.29381],[-98.18131,20.33654],[-98.12684,20.33623],[-98.07048,20.43027],[-98.01138,20.45577],[-97.98082,20.54071],[-97.90969,20.58638],[-97.92245,20.71652],[-97.87912,20.83428]]]}},{"type":"Feature","id":"22","properties":{"state_id":"22","name":"Querétaro"},"geometry":{"type":"Polygon","coordinates":[[[-99.18811,21.66992],[-99.1283,21.58982],[-99.09284,21.3817],[-99.13783,21.32979],[-99.05324,21.28163],[-99.07353,21.23043],[-99.04308,21.17868],[-99.21542,21.10621],[-99.30921,21.1473],[-99.34636,21.10088],[-99.39737,21.102],[-99.36325,21.04173],[-99.39063,20.95227],[-99.54847,20.7372],[-99.50192,20.65896],[-99.61951,20.59141],[-99.82807,20.54301],[-99.85911,20.26847],[-99.9195,20.28167],[-99.91846,20.21178],[-99.98568,20.26226],[-99.9219,20.15874],[-99.92634,20.06433],[-100.00035,20.07748],[-100.08882,20.01502],[-100.20294,20.07665],[-100.19739,20.12989],[-100.2356,20.14346],[-100.18114,20.2088],[-100.38129,20.30305],[-100.41,20.37601],[-100.47618,20.38961],[-100.49618,20.61619],[-100.55113,20.63377],[-100.59654,20.71726],[-100.54891,20.73638],[-100.57759,20.81667],[-100.50205,20.85292],[-100.47223,20.92845],[-100.4134,20.88743],[-100.33359,20.89073],[-100.26554,20.92925],[-100.26362,20.971],[-100.18153,20.9304],[-100.06417,20.93629],[-100.06895,21.02281],[-100.01107,21.0285],[-100.02754,21.10025],[-99.98637,21.21831],[-99.83126,21.15732],[-99.73848,21.23582],[-99.68785,21.22578],[-99.6713,21.30119],[-99.75789,21.29214],[-99.79452,21.3574],[-99.74674,21.57836],[-99.65954,21.56795],[-99.55193,21.42839],[-99.40592,21.42827],[-99.37591,21.54793],[-99.30549,21.53291],[-99.28072,21.6079],[-99.18811,21.66992]]]}},{"type":"Feature","id":"23","properties":{"state_id":"23","name":"Quintana Roo"},"geometry":{"type":"MultiPolygon","coordinates":[[[[-87.36192,18.38514],[-87.38334,18.37506],[-87.33216,18.44377],[-87.33702,18.52302],[-87.31443,18.55545],[-87.32293,18.45656],[-87.36192,18.38514]]],[[[-87.32053,18.59881],[-87.31779,18.57781],[-87.34103,18.5735],[-87.32053,18.59881]]],[[[-87.27383,18.73944],[-87.24535,18.6835],[-87.2474,18.64527],[-87.26454,18.61879],[-87.27383,18.73944]]],[[[-86.72694,20.59216],[-86.89847,20.34419],[-86.99247,20.27295],[-87.01706,20.41217],[-86.92622,20.55253],[-86.86498,20.5372],[-86.72694,20.59216]]],[[[-87.08575,21.58941],[-86.97483,21.51054],[-86.97593,21.5476],[-86.88674,21.40355],[-86.85092,21.25586],[-86.82347,21.24399],[-86.83688,21.27255],[-86.79254,21.34236],[-86.82792,21.413],[-86.80983,21.41291],[-86.79922,21.3888],[-86.79505,21.38592],[-86.7958,21.41226],[-86.7904,21.34564],[-86.81574,21.2868],[-86.80691,21.17949],[-86.7406,21.1349],[-86.87793,20.8414],[-87.09885,20.59263],[-87.28224,20.44606],[-87.42436,20.22419],[-87.47803,20.07601],[-87.47623,19.9992],[-87.43598,19.92703],[-87.43214,19.90824],[-87.42994,19.88619],[-87.46962,19.78023],[-87.43116,19.88826],[-87.4674,19.94507],[-87.45937,19.85839],[-87.49772,19.8069],[-87.57866,19.79026],[-87.66678,19.61649],[-87.6894,19.62622],[-87.6491,19.6881],[-87.74223,19.66373],[-87.74847,19.59948],[-87.70199,19.55021],[-87.67678,19.56936],[-87.6695,19.501],[-87.61008,19.5541],[-87.5257,19.5405],[-87.50479,19.59013],[-87.4517,19.596],[-87.45445,19.64802],[-87.41006,19.59817],[-87.4402,19.46903],[-87.52571,19.39527],[-87.54558,19.39135],[-87.54962,19.39362],[-87.55506,19.39144],[-87.56456,19.39389],[-87.53988,19.4031],[-87.55387,19.42701],[-87.63596,19.37343],[-87.66907,19.29518],[-87.68614,19.22046],[-87.63776,19.17715],[-87.55621,19.29609],[-87.44533,19.31199],[-87.53724,19.20798],[-87.54904,19.08622],[-87.71262,18.70759],[-87.84429,18.19094],[-87.90243,18.14269],[-88.0303,18.16036],[-88.03037,18.41479],[-88.24963,18.41555],[-88.25009,18.47307],[-88.47642,18.49467],[-88.61554,18.22328],[-88.69756,18.18242],[-88.71669,18.06053],[-88.85977,17.89446],[-89.03752,18.00512],[-89.15196,17.94026],[-89.20587,17.9541],[-89.20674,18.02108],[-89.163,18.01852],[-89.14475,18.0577],[-89.20246,18.08328],[-89.20024,18.14463],[-89.14307,18.14582],[-89.12123,18.38585],[-89.15024,18.45106],[-89.14667,19.42386],[-89.29656,19.55117],[-89.1892,19.64401],[-89.14486,19.6374],[-89.14952,19.58125],[-89.10902,19.58235],[-89.1234,19.70342],[-89.0362,19.67804],[-88.99753,19.70488],[-89.04883,19.72149],[-89.02516,19.77671],[-88.97445,19.8181],[-88.92951,19.79095],[-88.90049,19.86111],[-88.82593,19.87993],[-88.7835,20.00818],[-88.70018,20.01036],[-88.69061,20.08986],[-88.57668,20.14808],[-88.50762,20.14339],[-88.51993,20.19233],[-88.40913,20.2521],[-88.13649,20.28137],[-87.74426,20.65379],[-87.53315,20.9996],[-87.53491,21.49022],[-87.23246,21.41861],[-87.11173,21.47122],[-87.09909,21.5326],[-87.12871,21.55454],[-87.08575,21.58941]]],[[[-87.10253,21.60542],[-87.05749,21.59269],[-87.04928,21.58962],[-87.04618,21.58513],[-87.10607,21.60128],[-87.12953,21.56836],[-87.15791,21.56217],[-87.15131,21.55711],[-87.16653,21.55632],[-87.20858,21.52059],[-87.22289,21.51653],[-87.28985,21.51112],[-87.32852,21.54916],[-87.39725,21.51124],[-87.33492,21.56618],[-87.22119,21.54372],[-87.10253,21.60542]]]]}},{"type":"Feature","id":"24","properties":{"state_id":"24","name":"San Luis Potosí"},"geometry":{"type":"Polygon","coordinates":[[[-100.71121,24.49152],[-100.60353,24.4013],[-100.63307,24.22598],[-100.58509,24.22393],[-100.6134,24.17394],[-100.51683,24.1399],[-100.5624,23.91964],[-100.49771,23.73631],[-100.4471,23.69653],[-100.49164,23.56861],[-100.45918,23.51157],[-100.49417,23.52841],[-100.51721,23.42104],[-100.45708,23.36641],[-100.47985,23.19437],[-100.33176,23.16268],[-100.37432,23.26532],[-100.30626,23.26094],[-100.27843,23.31037],[-100.20636,23.30711],[-100.22824,23.25048],[-100.10381,23.23154],[-100.1156,23.12599],[-100.01125,23.06392],[-100.11085,22.97572],[-100.11038,22.91671],[-100.04424,22.91789],[-100.02938,22.82439],[-100.09406,22.75127],[-100.02234,22.72592],[-99.8824,22.74986],[-99.81403,22.66077],[-99.68254,22.68112],[-99.53469,22.61276],[-99.49454,22.62087],[-99.54433,22.74414],[-99.49679,22.7485],[-99.44205,22.66362],[-99.32962,22.63489],[-99.23684,22.41286],[-99.0604,22.41527],[-98.89,22.35509],[-98.67666,22.40893],[-98.68155,22.37157],[-98.57932,22.37776],[-98.47591,22.28864],[-98.44666,22.30562],[-98.37456,22.23608],[-98.32597,22.24305],[-98.33655,22.18769],[-98.43202,22.12827],[-98.46881,21.9646],[-98.57884,21.96609],[-98.50315,21.93663],[-98.54385,21.93212],[-98.5108,21.9087],[-98.54803,21.86011],[-98.48632,21.83627],[-98.4547,21.76643],[-98.53074,21.69727],[-98.56743,21.71737],[-98.5792,21.67195],[-98.622,21.68238],[-98.64363,21.63168],[-98.60225,21.54043],[-98.53226,21.50114],[-98.50335,21.39145],[-98.51143,21.36251],[-98.54957,21.3846],[-98.68358,21.34196],[-98.59548,21.28457],[-98.61798,21.19428],[-98.68266,21.20064],[-98.70182,21.16077],[-98.70523,21.1872],[-98.80814,21.19324],[-98.7888,21.16639],[-98.82119,21.1604],[-98.88266,21.17961],[-98.94496,21.31134],[-99.10435,21.2896],[-99.13783,21.32979],[-99.09262,21.36336],[-99.1283,21.58982],[-99.18818,21.67001],[-99.28072,21.6079],[-99.30549,21.53291],[-99.37591,21.54793],[-99.40465,21.42893],[-99.46913,21.44676],[-99.50381,21.41856],[-99.5529,21.42907],[-99.65954,21.56795],[-99.74674,21.57836],[-99.79228,21.47448],[-99.94233,21.44962],[-99.95682,21.52623],[-100.06228,21.52331],[-100.14719,21.61813],[-100.17144,21.60127],[-100.17963,21.65079],[-100.27214,21.68735],[-100.43504,21.68272],[-100.48569,21.59528],[-100.46108,21.54533],[-100.61496,21.50579],[-100.63545,21.54319],[-100.65746,21.52472],[-100.85768,21.61899],[-100.83432,21.66456],[-100.98197,21.75353],[-101.16127,21.75751],[-101.21715,21.81608],[-101.31948,21.83533],[-101.49633,21.80994],[-101.4832,21.86768],[-101.41023,21.90869],[-101.42917,21.93436],[-101.32651,21.99973],[-101.35168,22.04379],[-101.36569,22.01855],[-101.38276,22.02074],[-101.34659,22.04969],[-101.32425,22.20989],[-101.41626,22.26735],[-101.39143,22.2999],[-101.43513,22.34153],[-101.38191,22.35749],[-101.37479,22.45646],[-101.31373,22.45349],[-101.28573,22.50786],[-101.30571,22.60993],[-101.38002,22.67583],[-101.34923,22.71178],[-101.49096,22.74288],[-101.65991,22.50532],[-101.74618,22.50869],[-101.73536,22.48021],[-101.78336,22.46503],[-101.83714,22.49969],[-101.81989,22.55129],[-101.87296,22.56307],[-101.85328,22.65603],[-101.93976,22.64573],[-102.19213,22.8649],[-102.26005,23.04592],[-102.21415,23.13132],[-102.23946,23.20949],[-102.28937,23.23169],[-102.28583,23.27332],[-102.24467,23.27677],[-102.2316,23.31512],[-102.26953,23.27991],[-102.29604,23.3205],[-102.23815,23.4469],[-102.19362,23.4476],[-102.1688,23.36103],[-102.12253,23.35386],[-101.77512,23.44763],[-101.1925,23.91856],[-101.21675,24.15973],[-101.0654,24.20702],[-101.01269,24.39082],[-100.98733,24.43252],[-101.00667,24.33583],[-100.94529,24.2812],[-100.71121,24.49152]]]}},{"type":"Feature","id":"25","properties":{"state_id":"25","name":"Sinaloa"},"geometry":{"type":"Polygon","coordinates":[[[-108.47551,27.03995],[-108.33333,27.0046],[-108.31656,27.03449],[-108.19427,27.03195],[-108.23024,26.90572],[-108.17455,26.88146],[-108.1431,26.90788],[-108.14425,26.86765],[-108.09411,26.87046],[-108.0057,26.76105],[-108.01175,26.68948],[-108.0816,26.64199],[-107.96102,26.52696],[-108.0128,26.43905],[-107.84091,26.18355],[-107.78069,26.13694],[-107.71108,26.17441],[-107.58203,26.17064],[-107.52002,26.10423],[-107.43104,26.14286],[-107.34653,26.10952],[-107.27635,26.00198],[-107.29613,25.92479],[-107.0579,25.75737],[-107.04313,25.6977],[-106.96532,25.69788],[-106.97329,25.62957],[-107.17388,25.55655],[-107.13929,25.48956],[-107.21013,25.4171],[-107.17155,25.32636],[-107.20782,25.33156],[-107.12106,25.24311],[-107.14877,25.22455],[-107.12989,25.05314],[-107.06357,25.02526],[-107.02105,24.90991],[-107.00058,24.92824],[-106.93451,24.88054],[-106.93066,24.82092],[-106.86585,24.82296],[-106.70595,24.66526],[-106.63007,24.5065],[-106.56002,24.47271],[-106.60159,24.41457],[-106.51709,24.28698],[-106.36754,24.30194],[-106.33633,24.3557],[-106.26887,24.37476],[-106.15254,24.33877],[-106.07454,24.26942],[-105.98972,24.11439],[-105.99872,24.04338],[-105.91214,23.99753],[-105.94542,23.94803],[-105.85759,23.8993],[-105.86724,23.87524],[-105.95366,23.90858],[-105.96127,23.84074],[-105.90609,23.7394],[-105.89266,23.55265],[-105.88432,23.59039],[-105.81164,23.61103],[-105.7693,23.55647],[-105.70029,23.42017],[-105.73069,23.3749],[-105.68708,23.28752],[-105.64321,23.27648],[-105.62397,23.12239],[-105.55431,23.09889],[-105.42443,23.12029],[-105.39222,23.08516],[-105.40895,23.02364],[-105.50126,22.95856],[-105.47459,22.85142],[-105.52477,22.77477],[-105.49806,22.65139],[-105.46396,22.65924],[-105.43693,22.58191],[-105.46645,22.50539],[-105.59829,22.53667],[-105.64216,22.59389],[-105.70007,22.5639],[-105.67265,22.47409],[-105.71412,22.47495],[-105.87427,22.71138],[-106.34847,23.14648],[-106.42999,23.17658],[-106.48548,23.33376],[-106.81092,23.65274],[-106.79845,23.68847],[-106.9483,23.8945],[-107.219,24.12143],[-107.82058,24.50069],[-107.84079,24.55031],[-107.99807,24.6522],[-108.22784,25.01825],[-108.45028,25.2566],[-109.02103,25.43829],[-109.22806,25.62678],[-109.3971,25.6385],[-109.44385,25.95941],[-109.28792,26.27814],[-109.21011,26.34317],[-109.12524,26.29701],[-109.00644,26.40237],[-108.88139,26.40625],[-108.83776,26.47252],[-108.91467,26.47954],[-108.87315,26.55107],[-108.67883,26.58702],[-108.67899,26.64289],[-108.58085,26.78958],[-108.53691,26.79843],[-108.55704,26.82375],[-108.46698,26.9707],[-108.42427,26.97623],[-108.50249,26.98736],[-108.47551,27.03995]]]}},{"type":"Feature","id":"26","properties":{"state_id":"26","name":"Sonora"},"geometry":{"type":"MultiPolygon","coordinates":[[[[-110.5908,27.40827],[-110.5854,27.3219],[-110.53426,27.28827],[-110.60172,27.3187],[-110.5908,27.40827]]],[[[-112.5534,28.73071],[-112.55389,28.67197],[-112.60568,28.66767],[-112.61215,28.72656],[-112.5534,28.73071]]],[[[-112.28749,29.23186],[-112.27432,29.13721],[-112.19475,29.02105],[-112.21653,28.96054],[-112.197,28.97827],[-112.18887,28.97668],[-112.27489,28.8165],[-112.25276,28.76724],[-112.3102,28.7468],[-112.58425,28.87667],[-112.48985,28.94916],[-112.50593,29.06304],[-112.45683,29.19452],[-112.28749,29.23186]]],[[[-114.67972,31.75699],[-114.62488,31.75756],[-114.59572,31.74725],[-114.61934,31.72846],[-114.67972,31.75699]]],[[[-114.88259,32.49215],[-111.075,31.33257],[-108.75592,31.33242],[-108.81723,31.23901],[-108.90665,31.20805],[-108.80502,31.19296],[-108.84564,31.13558],[-108.68381,31.00597],[-108.80326,31.00483],[-108.80239,30.9041],[-108.93924,30.90757],[-108.9483,30.73691],[-108.86693,30.68939],[-108.87647,30.62457],[-108.67779,30.55707],[-108.66477,30.46815],[-108.60384,30.46511],[-108.64865,30.41686],[-108.62206,30.34032],[-108.5422,30.28351],[-108.62022,30.29823],[-108.6072,29.84714],[-108.63572,29.82968],[-108.54126,29.79614],[-108.53496,29.75136],[-108.6591,29.71613],[-108.61828,29.66053],[-108.65499,29.64943],[-108.66231,29.54448],[-108.62516,29.50103],[-108.71775,29.46595],[-108.66973,29.30742],[-108.68221,29.26743],[-108.76189,29.25388],[-108.7453,29.16234],[-108.69853,29.12774],[-108.72959,29.09653],[-108.7098,28.88952],[-108.62382,28.80612],[-108.64329,28.76507],[-108.58379,28.74014],[-108.58015,28.63245],[-108.4797,28.36955],[-108.55093,28.31806],[-108.60351,28.34756],[-108.64129,28.29161],[-108.79166,28.25362],[-109.0687,28.28614],[-109.07289,28.14857],[-109.0319,28.01829],[-108.92651,27.94059],[-108.91487,27.85401],[-108.86914,27.83929],[-108.92029,27.78397],[-108.89552,27.74481],[-108.78449,27.73047],[-108.73985,27.59995],[-108.65241,27.53703],[-108.66165,27.46474],[-108.59105,27.31808],[-108.66258,27.21954],[-108.61143,27.15414],[-108.60228,27.03694],[-108.42427,26.97623],[-108.46698,26.9707],[-108.55704,26.82375],[-108.53691,26.79843],[-108.58085,26.78958],[-108.67899,26.64289],[-108.67883,26.58702],[-108.87315,26.55107],[-108.91467,26.47954],[-108.83776,26.47252],[-108.88139,26.40625],[-109.00644,26.40237],[-109.12524,26.29701],[-109.20254,26.34445],[-109.26001,26.3197],[-109.26779,26.50123],[-109.40323,26.65362],[-109.48454,26.68217],[-109.43002,26.67125],[-109.43254,26.71892],[-109.48309,26.74427],[-109.5082,26.7219],[-109.52812,26.75913],[-109.55608,26.71696],[-109.49637,26.67017],[-109.76748,26.70624],[-109.851,26.7925],[-109.96721,27.05418],[-110.30667,27.15537],[-110.43237,27.26798],[-110.52443,27.29367],[-110.44362,27.30243],[-110.48017,27.37465],[-110.53653,27.37268],[-110.5112,27.41231],[-110.55647,27.39543],[-110.5357,27.42099],[-110.57269,27.45067],[-110.53711,27.45729],[-110.58253,27.4562],[-110.59046,27.44171],[-110.62361,27.62234],[-110.61479,27.81026],[-110.52647,27.8508],[-110.64877,27.90375],[-110.60907,27.85795],[-110.72701,27.90836],[-110.85324,27.91227],[-110.79959,27.9213],[-110.82889,27.95433],[-110.90688,27.89771],[-110.85566,27.89975],[-110.86698,27.89534],[-110.86398,27.87808],[-110.88987,27.83946],[-110.95043,27.86826],[-110.98453,27.95864],[-111.10572,27.93606],[-111.25525,28.05444],[-111.46859,28.37194],[-111.71003,28.45687],[-111.77442,28.60713],[-111.9522,28.7591],[-111.90057,28.78712],[-111.89967,28.78445],[-111.9048,28.78081],[-111.90546,28.7779],[-111.87647,28.74382],[-111.84427,28.80393],[-111.91936,28.82108],[-111.91471,28.79002],[-112.03099,28.85914],[-112.102,28.95531],[-112.17195,28.96853],[-112.16526,29.11419],[-112.22983,29.17851],[-112.23299,29.30704],[-112.30557,29.32905],[-112.3349,29.2918],[-112.41037,29.34516],[-112.38088,29.48683],[-112.58048,29.71151],[-112.66542,29.89114],[-112.74704,29.91436],[-112.7615,30.20169],[-112.86472,30.26828],[-112.86472,30.41301],[-113.03976,30.6072],[-113.12683,30.81048],[-113.09646,30.97005],[-113.12841,31.05891],[-113.09194,30.99527],[-113.05883,31.06048],[-113.10151,31.18944],[-113.62461,31.32799],[-113.64103,31.48115],[-113.85248,31.5954],[-113.97941,31.63143],[-113.9562,31.5624],[-114.0259,31.4922],[-114.16991,31.49799],[-114.58279,31.75222],[-114.61923,31.7629],[-114.6928,31.76312],[-114.84492,31.86455],[-114.91076,31.86776],[-114.96548,31.91842],[-114.97532,32.178],[-115.05302,32.24517],[-114.96659,32.33879],[-114.93542,32.48142],[-114.88259,32.49215]],[[-110.83025,27.96953],[-110.86952,27.96915],[-110.82708,27.95531],[-110.83025,27.96953]],[[-110.82774,27.95476],[-110.8424,27.95419],[-110.84488,27.95285],[-110.82774,27.95476]]]]}},{"type":"Feature","id":"27","properties":{"state_id":"27","name":"Tabasco"},"geometry":{"type":"Polygon","coordinates":[[[-92.46785,18.64728],[-92.41405,18.48729],[-92.35832,18.44435],[-92.32253,18.47308],[-92.17615,18.45823],[-92.1609,18.15542],[-92.11011,18.09441],[-92.03994,18.09795],[-91.96675,18.01599],[-91.76049,17.95763],[-91.63881,17.87395],[-91.6095,18.09844],[-91.57997,18.15818],[-91.50934,18.17105],[-91.50404,18.11646],[-91.32702,18.06267],[-91.21746,17.97499],[-90.98795,17.96255],[-90.98746,17.25102],[-91.4397,17.25097],[-91.42518,17.30231],[-91.38366,17.31118],[-91.41983,17.37407],[-91.70014,17.46752],[-91.63429,17.53462],[-91.65474,17.67616],[-91.83066,17.73768],[-91.78225,17.78248],[-91.80994,17.89825],[-91.91813,17.89952],[-91.94841,17.86331],[-91.9403,17.90741],[-91.99989,17.94334],[-92.00336,17.89052],[-92.0718,17.87767],[-92.04941,17.85477],[-92.10203,17.85088],[-92.12048,17.79597],[-92.14658,17.81468],[-92.13083,17.76608],[-92.1945,17.77664],[-92.27462,17.69226],[-92.33735,17.71209],[-92.35067,17.61793],[-92.40208,17.57804],[-92.57141,17.54961],[-92.60583,17.47738],[-92.66819,17.45669],[-92.67877,17.37849],[-92.75501,17.34341],[-92.78579,17.41753],[-92.85426,17.4112],[-92.81963,17.43275],[-92.83155,17.48086],[-92.88736,17.51046],[-92.94812,17.48274],[-93.04053,17.60983],[-93.05772,17.72049],[-93.02544,17.82542],[-93.10165,17.84583],[-93.11564,17.82221],[-93.1318,17.85232],[-93.09138,17.89756],[-93.27832,17.98529],[-93.3409,17.93033],[-93.34059,17.79812],[-93.38095,17.78316],[-93.34914,17.76709],[-93.39055,17.7734],[-93.35628,17.64804],[-93.48415,17.54988],[-93.51524,17.4405],[-93.60794,17.31493],[-93.6415,17.31795],[-93.69492,17.3878],[-93.63821,17.43609],[-93.6136,17.55251],[-93.73288,17.62576],[-93.73851,17.67937],[-93.87,17.71354],[-93.87705,17.75656],[-93.94011,17.75317],[-93.96779,17.84525],[-94.08343,17.86987],[-94.09199,17.96193],[-94.0614,17.98812],[-94.13003,18.21285],[-93.43987,18.42724],[-92.89799,18.44315],[-92.77366,18.50515],[-92.69156,18.61804],[-92.46785,18.64728]]]}},{"type":"Feature","id":"28","properties":{"state_id":"28","name":"Tamaulipas"},"geometry":{"type":"Polygon","coordinates":[[[-99.7266,27.67728],[-99.65547,27.62926],[-99.5959,27.63976],[-99.51155,27.56608],[-99.52819,27.49815],[-99.47877,27.47951],[-99.53813,27.31645],[-99.44183,27.25081],[-99.44569,27.02186],[-99.26802,26.84263],[-99.17152,26.54315],[-99.10431,26.49909],[-99.08399,26.39757],[-98.97439,26.40131],[-98.94324,26.36944],[-98.92672,26.39457],[-98.89613,26.35308],[-98.8046,26.36763],[-98.67056,26.237],[-98.58573,26.25767],[-98.4814,26.20062],[-98.4441,26.22418],[-98.19364,26.05309],[-98.08133,26.0713],[-98.07295,26.03642],[-98.02793,26.06698],[-97.8614,26.07003],[-97.76154,26.02556],[-97.66261,26.03808],[-97.58327,25.93322],[-97.42445,25.84044],[-97.37263,25.84013],[-97.37503,25.90829],[-97.27682,25.9352],[-97.28397,25.95933],[-97.14637,25.95489],[-97.18234,25.67879],[-97.50771,25.06449],[-97.68692,24.45056],[-97.76853,23.37769],[-97.76586,22.89499],[-97.85933,22.56641],[-97.84524,22.40537],[-97.77295,22.26686],[-97.84489,22.20697],[-98.00032,22.29743],[-97.99002,22.35086],[-98.07278,22.34716],[-98.18749,22.42387],[-98.195,22.46956],[-98.31682,22.46856],[-98.31878,22.39074],[-98.50504,22.42947],[-98.89,22.35509],[-99.0604,22.41527],[-99.23684,22.41286],[-99.32962,22.63489],[-99.44205,22.66362],[-99.49679,22.7485],[-99.54433,22.74414],[-99.49454,22.62087],[-99.53469,22.61276],[-99.68254,22.68112],[-99.81403,22.66077],[-99.8824,22.74986],[-100.02234,22.72592],[-100.10192,22.76279],[-100.02938,22.82439],[-100.04424,22.91789],[-100.11038,22.91671],[-100.11085,22.97572],[-100.01136,23.06536],[-100.1156,23.12599],[-100.07804,23.30598],[-100.14495,23.33952],[-100.08026,23.39575],[-99.92125,23.37919],[-99.96119,23.55689],[-99.86066,23.77446],[-99.60217,23.76287],[-99.49379,23.87869],[-99.45687,23.86606],[-99.54189,24.03365],[-99.65708,24.118],[-99.58993,24.39614],[-99.63638,24.50667],[-99.7198,24.48371],[-99.73298,24.55399],[-99.60945,24.62249],[-99.54622,24.61307],[-99.47774,24.71262],[-99.29493,24.80414],[-99.18197,24.77604],[-99.20743,24.86139],[-99.15894,24.91599],[-99.16059,25.05528],[-99.09761,25.06312],[-99.05247,25.12713],[-99.01906,25.06993],[-98.93417,25.07276],[-98.42313,25.44749],[-98.42158,25.48936],[-98.58175,25.48936],[-98.58513,26.01792],[-98.82323,26.04765],[-98.90075,25.96832],[-99.02387,26.1041],[-99.16008,26.06123],[-99.19784,26.25868],[-99.26,26.25285],[-99.36415,26.32927],[-99.40124,26.3048],[-99.43095,26.3513],[-99.39682,26.59657],[-99.53834,26.6646],[-99.65916,26.67037],[-99.58084,26.83011],[-99.66139,26.90084],[-99.76667,26.88984],[-99.65005,27.06586],[-99.74767,27.27725],[-99.76038,27.43696],[-99.91915,27.49152],[-99.92642,27.54916],[-99.7266,27.67728]]]}},{"type":"Feature","id":"29","properties":{"state_id":"29","name":"Tlaxcala"},"geometry":{"type":"Polygon","coordinates":[[[-98.05625,19.72602],[-98.04221,19.64022],[-97.87181,19.56177],[-97.86227,19.45618],[-97.79454,19.49837],[-97.62567,19.33139],[-97.69093,19.28589],[-97.83927,19.30138],[-97.87029,19.27059],[-97.85099,19.22293],[-97.9282,19.16421],[-98.03169,19.23094],[-98.16618,19.10507],[-98.30716,19.1892],[-98.32393,19.16866],[-98.52319,19.46087],[-98.65323,19.46599],[-98.7084,19.5476],[-98.68138,19.59828],[-98.56636,19.64112],[-98.51924,19.6024],[-98.3817,19.60936],[-98.33167,19.72232],[-98.25532,19.71883],[-98.24107,19.67584],[-98.10101,19.66805],[-98.05625,19.72602]]]}},{"type":"Feature","id":"30","properties":{"state_id":"30","name":"Veracruz de Ignacio de la Llave"},"geometry":{"type":"Polygon","coordinates":[[[-98.20883,22.46476],[-98.07426,22.34778],[-97.99002,22.35086],[-98.00032,22.29743],[-97.89496,22.22238],[-97.84489,22.20697],[-97.82482,22.24415],[-97.79241,22.26035],[-97.77435,22.26392],[-97.78525,22.16633],[-97.69807,21.95648],[-97.56433,21.77079],[-97.3279,21.56717],[-97.42024,21.2309],[-97.17559,20.65867],[-96.4495,19.8492],[-96.37562,19.56644],[-96.31264,19.47866],[-96.30338,19.3364],[-96.1235,19.21387],[-96.0826,19.07767],[-96.03147,19.05669],[-96.00728,19.05727],[-95.99298,19.06434],[-95.99193,19.06303],[-95.98145,19.06613],[-95.97816,19.06533],[-95.92821,18.88671],[-95.64481,18.73581],[-95.18898,18.70974],[-95.03381,18.57234],[-94.81657,18.53858],[-94.73653,18.39389],[-94.6231,18.28713],[-94.607,18.20404],[-94.53979,18.16121],[-94.13003,18.21285],[-94.0614,17.98812],[-94.09199,17.96193],[-94.08343,17.86987],[-93.96779,17.84525],[-93.94011,17.75317],[-93.87705,17.75656],[-93.87,17.71354],[-93.73851,17.67937],[-93.73288,17.62576],[-93.6136,17.55251],[-93.63821,17.43609],[-93.69492,17.3878],[-93.60794,17.31493],[-93.66269,17.25628],[-93.80145,17.24038],[-93.86743,17.13696],[-94.92281,17.19379],[-94.89078,17.31106],[-95.07657,17.37293],[-95.27885,17.61324],[-95.18813,17.6507],[-95.18244,17.69106],[-95.23891,17.73926],[-95.58533,17.53503],[-95.65359,17.56049],[-95.7021,17.51849],[-95.7269,17.57803],[-95.80755,17.59184],[-95.78111,17.63888],[-95.90286,17.7341],[-95.79992,17.95001],[-95.83317,18.12903],[-95.95346,18.15987],[-96.05139,18.12674],[-96.09918,18.16684],[-96.15423,18.1318],[-96.18828,18.1513],[-96.17069,18.18638],[-96.21748,18.16197],[-96.46107,18.57304],[-96.56095,18.5877],[-96.68302,18.66969],[-96.67246,18.60757],[-96.7269,18.52983],[-96.68154,18.50327],[-96.69625,18.36475],[-96.78101,18.42907],[-96.79701,18.51194],[-96.84236,18.49339],[-96.89925,18.54865],[-96.99892,18.53192],[-97.07997,18.45451],[-97.14144,18.59642],[-97.23543,18.64357],[-97.27185,18.62778],[-97.34397,18.68576],[-97.35303,18.79128],[-97.24182,18.90214],[-97.28513,18.99943],[-97.2614,19.09663],[-97.19459,19.17181],[-97.02705,19.13324],[-97.05615,19.19767],[-96.98556,19.2794],[-97.04551,19.32128],[-97.20027,19.30926],[-97.21021,19.35944],[-97.28497,19.39164],[-97.36045,19.37603],[-97.39736,19.41906],[-97.35728,19.43238],[-97.34826,19.48463],[-97.40456,19.49587],[-97.42665,19.54168],[-97.41847,19.62722],[-97.30393,19.67116],[-97.33314,19.71678],[-97.30456,19.87069],[-97.26067,19.97725],[-97.12241,20.13672],[-97.36551,20.21575],[-97.37824,20.24926],[-97.44528,20.24616],[-97.49484,20.13735],[-97.58603,20.07933],[-97.60449,20.16687],[-97.73926,20.18925],[-97.7573,20.27908],[-97.6814,20.30243],[-97.67313,20.33661],[-97.70069,20.31992],[-97.76564,20.38123],[-97.7346,20.45131],[-97.64541,20.40832],[-97.63537,20.45219],[-97.54104,20.48971],[-97.58795,20.56107],[-97.7019,20.57187],[-97.75754,20.69347],[-97.69518,20.80004],[-97.773,20.8272],[-97.83025,20.80796],[-97.87912,20.83428],[-97.92245,20.71652],[-97.89515,20.6227],[-97.97933,20.51493],[-98.01727,20.52599],[-98.02101,20.62678],[-98.0749,20.67655],[-98.15804,20.54256],[-98.46208,20.33122],[-98.54862,20.35975],[-98.54969,20.43536],[-98.59729,20.49577],[-98.53467,20.53066],[-98.51225,20.59422],[-98.48018,20.589],[-98.49485,20.64434],[-98.42365,20.74772],[-98.5334,20.66272],[-98.55018,20.68939],[-98.51665,20.74289],[-98.44973,20.75135],[-98.43064,20.84767],[-98.34515,20.86485],[-98.32852,20.7841],[-98.23365,20.79756],[-98.2655,20.86654],[-98.14736,21.07845],[-98.21682,21.15147],[-98.28217,21.13642],[-98.27913,21.19275],[-98.41644,21.15498],[-98.46836,21.24965],[-98.54398,21.2639],[-98.4687,21.38703],[-98.51919,21.4013],[-98.53226,21.50114],[-98.60225,21.54043],[-98.64363,21.63168],[-98.622,21.68238],[-98.5792,21.67195],[-98.56743,21.71737],[-98.53074,21.69727],[-98.4547,21.76643],[-98.48632,21.83627],[-98.54803,21.86011],[-98.5108,21.9087],[-98.54385,21.93212],[-98.50315,21.93663],[-98.57884,21.96609],[-98.46881,21.9646],[-98.43202,22.12827],[-98.33655,22.18769],[-98.32597,22.24305],[-98.37456,22.23608],[-98.44666,22.30562],[-98.47591,22.28864],[-98.57932,22.37776],[-98.68155,22.37157],[-98.63816,22.41452],[-98.57494,22.39395],[-98.43717,22.43359],[-98.40954,22.39993],[-98.38475,22.42234],[-98.38781,22.38928],[-98.31758,22.39097],[-98.31682,22.46856],[-98.20883,22.46476]]]}},{"type":"Feature","id":"31","properties":{"state_id":"31","name":"Yucatán"},"geometry":{"type":"MultiPolygon","coordinates":[[[[-88.14332,21.62398],[-87.53491,21.49022],[-87.53315,20.9996],[-87.74426,20.65379],[-88.13649,20.28137],[-88.40913,20.2521],[-88.51993,20.19233],[-88.50762,20.14339],[-88.57668,20.14808],[-88.69061,20.08986],[-88.70018,20.01036],[-88.7835,20.00818],[-88.82593,19.87993],[-88.90049,19.86111],[-88.92951,19.79095],[-88.97445,19.8181],[-89.02516,19.77671],[-89.04883,19.72149],[-88.99753,19.70488],[-89.0362,19.67804],[-89.1234,19.70342],[-89.10902,19.58235],[-89.14952,19.58125],[-89.14486,19.6374],[-89.1892,19.64401],[-89.29656,19.55117],[-89.4683,19.70016],[-89.47591,19.77122],[-89.52567,19.77555],[-89.5875,19.87442],[-89.5987,19.9982],[-89.74847,20.17927],[-89.79397,20.13617],[-89.80251,20.20161],[-89.87566,20.2531],[-89.87238,20.28763],[-89.83796,20.28718],[-90.00417,20.48702],[-90.06721,20.42523],[-90.1863,20.43693],[-90.23421,20.47047],[-90.22924,20.54356],[-90.33524,20.54131],[-90.33524,20.57635],[-90.38665,20.55559],[-90.37936,20.84833],[-90.40699,20.84862],[-90.3384,21.00542],[-90.09461,21.15555],[-89.66677,21.28751],[-89.68111,21.34919],[-89.6457,21.28955],[-88.84062,21.39787],[-88.60632,21.52482],[-88.26991,21.55566],[-88.14332,21.62398]]],[[[-89.66548,22.55208],[-89.60855,22.45367],[-89.63079,22.38511],[-89.66021,22.36545],[-89.66128,22.37121],[-89.65116,22.37634],[-89.64714,22.3882],[-89.69291,22.38144],[-89.72986,22.42097],[-89.68967,22.41603],[-89.72912,22.43674],[-89.71591,22.53141],[-89.75329,22.54714],[-89.74423,22.52332],[-89.79549,22.51508],[-89.75104,22.58536],[-89.66548,22.55208]]]]}},{"type":"Feature","id":"32","properties":{"state_id":"32","name":"Zacatecas"},"geometry":{"type":"Polygon","coordinates":[[[-102.29548,25.12519],[-101.84881,25.01762],[-101.77346,24.87554],[-101.60126,24.83556],[-101.60901,24.78966],[-101.64077,24.8007],[-101.62227,24.75898],[-101.46164,24.73676],[-101.34214,24.81335],[-101.21504,24.77517],[-101.0805,24.59119],[-100.95879,24.54268],[-100.90223,24.58392],[-100.79993,24.55619],[-100.74232,24.46044],[-100.94529,24.2812],[-101.00667,24.33583],[-100.98733,24.43252],[-101.0654,24.20702],[-101.21675,24.15973],[-101.1925,23.91856],[-101.77512,23.44763],[-102.12253,23.35386],[-102.1688,23.36103],[-102.19362,23.4476],[-102.23815,23.4469],[-102.29604,23.3205],[-102.26953,23.27991],[-102.2316,23.31512],[-102.28937,23.23169],[-102.23946,23.20949],[-102.21415,23.13132],[-102.26005,23.04592],[-102.19213,22.8649],[-101.93976,22.64573],[-101.85328,22.65603],[-101.87296,22.56307],[-101.81989,22.55129],[-101.83714,22.49969],[-101.79928,22.47056],[-101.73536,22.48021],[-101.74618,22.50869],[-101.65991,22.50532],[-101.49096,22.74288],[-101.34923,22.71178],[-101.38002,22.67583],[-101.30571,22.60993],[-101.28573,22.50786],[-101.31373,22.45349],[-101.37479,22.45646],[-101.38191,22.35749],[-101.43513,22.34153],[-101.39143,22.2999],[-101.41626,22.26735],[-101.32425,22.20989],[-101.34659,22.04969],[-101.38276,22.02074],[-101.35168,22.04379],[-101.32651,21.99973],[-101.42917,21.93436],[-101.41023,21.90869],[-101.4832,21.86768],[-101.49633,21.80994],[-101.53701,21.81046],[-101.56981,21.91708],[-101.6507,21.90768],[-101.74663,22.01206],[-101.86167,22.02888],[-102.02592,22.12977],[-102.04522,22.15373],[-102.00099,22.16811],[-101.99972,22.23366],[-102.03727,22.29898],[-102.15323,22.29041],[-102.14985,22.34718],[-102.2532,22.37449],[-102.29831,22.45959],[-102.32136,22.38853],[-102.46864,22.35188],[-102.4702,22.30921],[-102.66874,22.29187],[-102.6393,22.22604],[-102.69087,22.10656],[-102.75581,22.07366],[-102.87418,21.85277],[-102.7453,21.72005],[-102.80528,21.67128],[-102.76474,21.59606],[-102.63073,21.53398],[-102.64259,21.3672],[-102.69506,21.34074],[-102.72913,21.38736],[-102.75528,21.32316],[-102.81196,21.32372],[-102.91065,21.20523],[-102.9969,21.25968],[-103.0655,21.25581],[-103.0985,21.12849],[-103.05648,21.09932],[-103.08842,21.06574],[-103.2096,21.09422],[-103.33886,21.04187],[-103.42858,21.14672],[-103.59044,21.12752],[-103.66732,21.21605],[-103.63399,21.28229],[-103.71621,21.26787],[-103.70508,21.3255],[-103.61695,21.35341],[-103.57845,21.33023],[-103.50392,21.37684],[-103.5387,21.44477],[-103.59531,21.39091],[-103.70146,21.46627],[-103.68979,21.55235],[-103.54522,21.58764],[-103.50847,21.73974],[-103.57263,21.80349],[-103.47053,21.81354],[-103.41387,21.90546],[-103.34408,21.91347],[-103.27856,21.98965],[-103.20557,21.96519],[-103.20166,21.99857],[-103.11149,22.01426],[-103.10791,22.0634],[-103.15278,22.08762],[-103.07702,22.1255],[-103.10606,22.19136],[-103.05546,22.24726],[-103.10099,22.29397],[-103.22062,22.28047],[-103.16858,22.38501],[-103.28523,22.41424],[-103.36668,22.35104],[-103.35569,22.2798],[-103.30688,22.30628],[-103.2951,22.25329],[-103.40896,22.21536],[-103.4395,22.11764],[-103.56014,22.13659],[-103.6047,22.09794],[-103.68385,22.10921],[-103.5949,22.27308],[-103.64211,22.34087],[-103.6048,22.34014],[-103.55919,22.42843],[-103.60276,22.55679],[-103.72656,22.57415],[-103.7691,22.55579],[-103.84543,22.34276],[-103.86294,22.16688],[-103.92612,22.33207],[-103.86693,22.40938],[-103.8947,22.43816],[-103.86072,22.56762],[-103.76086,22.6258],[-103.77174,22.73329],[-104.01193,22.74793],[-104.07248,22.701],[-104.01551,22.66891],[-104.02701,22.61318],[-103.97233,22.54511],[-104.00557,22.5366],[-103.92939,22.4761],[-104.01513,22.36481],[-104.09735,22.35782],[-104.05152,22.46739],[-104.08802,22.53337],[-104.11351,22.49661],[-104.15041,22.51628],[-104.21483,22.48416],[-104.16749,22.44515],[-104.16709,22.38762],[-104.22075,22.4211],[-104.25474,22.34879],[-104.29208,22.34396],[-104.35166,22.38919],[-104.29613,22.47299],[-104.32582,22.5374],[-104.26141,22.5862],[-104.28801,22.66579],[-104.22574,22.77831],[-104.08048,22.76662],[-104.11264,22.90512],[-104.16659,22.94522],[-104.17213,23.12841],[-104.12902,23.18221],[-104.06598,23.46349],[-103.92147,23.58918],[-103.89009,23.57983],[-103.87743,23.62897],[-103.79354,23.63086],[-103.7851,23.67656],[-103.85108,23.6796],[-103.81836,23.96491],[-103.87239,24.00702],[-103.66036,24.14933],[-103.62201,24.11746],[-103.55954,24.19379],[-103.56835,24.28637],[-103.44834,24.3326],[-103.41933,24.43049],[-103.25353,24.44725],[-103.09853,24.40163],[-103.04315,24.4665],[-102.90011,24.4285],[-102.89189,24.46112],[-102.83174,24.38469],[-102.78885,24.40625],[-102.6999,24.37397],[-102.48027,24.42801],[-102.56624,24.90222],[-102.67306,24.94275],[-102.62888,25.00832],[-102.66969,25.06664],[-102.44676,24.99952],[-102.46333,25.11592],[-102.29548,25.12519]]]}}]}